HIERARCHY
ROOT Hips
{
	OFFSET 0.0000 0.0000 0.0000
	CHANNELS 6 Xposition Yposition Zposition Zrotation Xrotation Yrotation 
	JOINT LeftUpLeg
	{
		OFFSET 0.1261 -0.0140 -0.0652
		CHANNELS 3 Zrotation Xrotation Yrotation 
		JOINT LeftLeg
		{
			OFFSET 0.0000 0.0000 0.5699
			CHANNELS 3 Zrotation Xrotation Yrotation 
			JOINT LeftFoot
			{
				OFFSET 0.0000 0.0000 0.5444
				CHANNELS 3 Zrotation Xrotation Yrotation 
				JOINT LeftToeBase
				{
					OFFSET 0.0000 0.0000 0.2071
					CHANNELS 3 Zrotation Xrotation Yrotation 
					JOINT Site
					{
						OFFSET 0.0000 0.0000 0.2071

					}
				}
			}
		}
	}
	JOINT RightUpLeg
	{
		OFFSET -0.1240 -0.0084 -0.0652
		CHANNELS 3 Zrotation Xrotation Yrotation 
		JOINT RightLeg
		{
			OFFSET 0.0000 0.0000 0.5700
			CHANNELS 3 Zrotation Xrotation Yrotation 
			JOINT RightFoot
			{
				OFFSET 0.0000 0.0000 0.5444
				CHANNELS 3 Zrotation Xrotation Yrotation 
				JOINT RightToeBase
				{
					OFFSET 0.0000 0.0000 0.2075
					CHANNELS 3 Zrotation Xrotation Yrotation 
					JOINT Site
					{
						OFFSET 0.0000 0.0000 0.2075

					}
				}
			}
		}
	}
	JOINT Spine
	{
		OFFSET 0.0002 -0.0078 0.1174
		CHANNELS 3 Zrotation Xrotation Yrotation 
		JOINT Spine1
		{
			OFFSET 0.0000 0.0000 0.1373
			CHANNELS 3 Zrotation Xrotation Yrotation 
			JOINT Spine2
			{
				OFFSET 0.0000 0.0000 0.1569
				CHANNELS 3 Zrotation Xrotation Yrotation 
				JOINT LeftShoulder
				{
					OFFSET 0.0805 -0.0025 0.1601
					CHANNELS 3 Zrotation Xrotation Yrotation 
					JOINT LeftArm
					{
						OFFSET 0.0000 0.0000 0.1644
						CHANNELS 3 Zrotation Xrotation Yrotation 
						JOINT LeftForeArm
						{
							OFFSET 0.0000 0.0000 0.3646
							CHANNELS 3 Zrotation Xrotation Yrotation 
							JOINT LeftHand
							{
								OFFSET 0.0000 0.0000 0.3608
								CHANNELS 3 Zrotation Xrotation Yrotation 
								JOINT LeftHandIndex1
								{
									OFFSET 0.0000 0.0000 0.0860
									CHANNELS 3 Zrotation Xrotation Yrotation 
									JOINT LeftHandIndex2
									{
										OFFSET 0.0000 0.0000 0.0472
										CHANNELS 3 Zrotation Xrotation Yrotation 
										JOINT LeftHandIndex3
										{
											OFFSET -0.0043 -0.0006 0.0382
											CHANNELS 3 Zrotation Xrotation Yrotation 
											JOINT Site
											{
												OFFSET -0.0043 -0.0006 0.0382

											}
										}
									}
								}
							}
						}
					}
				}
				JOINT Neck
				{
					OFFSET 0.0000 0.0000 0.1765
					CHANNELS 3 Zrotation Xrotation Yrotation 
					JOINT Head
					{
						OFFSET 0.0000 -0.0017 0.0779
						CHANNELS 3 Zrotation Xrotation Yrotation 
						JOINT Site
						{
							OFFSET 0.0000 -0.0017 0.0779

						}
					}
				}
				JOINT RightShoulder
				{
					OFFSET -0.0804 0.0003 0.1597
					CHANNELS 3 Zrotation Xrotation Yrotation 
					JOINT RightArm
					{
						OFFSET 0.0000 0.0000 0.1642
						CHANNELS 3 Zrotation Xrotation Yrotation 
						JOINT RightForeArm
						{
							OFFSET 0.0000 0.0000 0.3656
							CHANNELS 3 Zrotation Xrotation Yrotation 
							JOINT RightHand
							{
								OFFSET 0.0000 0.0000 0.3606
								CHANNELS 3 Zrotation Xrotation Yrotation 
								JOINT RightHandIndex1
								{
									OFFSET 0.0000 0.0000 0.0700
									CHANNELS 3 Zrotation Xrotation Yrotation 
									JOINT RightHandIndex2
									{
										OFFSET 0.0000 0.0000 0.0523
										CHANNELS 3 Zrotation Xrotation Yrotation 
										JOINT RightHandIndex3
										{
											OFFSET 0.0090 -0.0008 0.0422
											CHANNELS 3 Zrotation Xrotation Yrotation 
											JOINT Site
											{
												OFFSET 0.0090 -0.0008 0.0422

											}
										}
									}
								}
							}
						}
					}
				}
			}
		}
	}
}

MOTION
Frames: 134
Frame Time: 0.033333
-0.0001 0.0432 1.2763 -0.0878 2.3927 0.4562 -2.8259 -5.4589 178.8900 2.2963 -13.0274 0.6119 -0.0563 71.1497 -0.1440 -2.3858 28.4528 0.0000 10.4111 -5.0860 -179.0256 -0.7945 -11.6778 0.8825 5.2964 70.1777 1.0386 2.3847 28.3887 -0.0000 -6.5715 6.3480 1.3643 -3.0758 -3.1437 -0.1819 9.5546 5.9410 -0.6046 -91.1902 69.9311 -177.8754 -8.5123 3.5891 -15.1010 25.3780 -4.3064 -15.9477 -10.9498 -30.7548 -4.9894 -2.0276 6.5590 9.0336 -5.1889 0.3082 3.5410 -5.2349 0.3426 0.4306 4.3274 17.4130 -6.5686 4.6673 -13.2983 2.1856 89.0430 68.8797 177.4243 9.0332 7.9026 2.7058 -24.7689 -11.2014 32.3960 8.8814 -30.8280 7.4313 1.8033 3.9791 -15.0986 4.8986 3.0048 -9.3103 5.2244 0.3950 2.0147 
-0.0002 0.0438 1.2766 -0.0809 2.5247 0.4585 -2.8290 -5.5841 178.8704 2.2662 -12.9166 0.6001 -0.0627 71.0074 -0.1057 -2.3858 28.4528 0.0000 10.3923 -5.1964 -178.9933 -0.7913 -11.5433 0.8731 5.2882 70.0396 1.0410 2.3847 28.3887 -0.0000 -6.6974 6.4546 1.3939 -3.0997 -3.4261 -0.1993 9.5989 6.3414 -0.6580 -91.1559 69.6940 -177.7952 -8.2933 3.6163 -15.2684 25.1858 -4.3814 -16.4606 -10.8574 -31.5893 -5.1928 -2.0276 6.5590 9.0336 -5.1889 0.3082 3.5410 -5.2349 0.3426 0.4306 4.3980 18.0326 -6.7637 4.7397 -13.7486 2.2005 88.9962 68.5538 177.3279 8.7982 7.8995 2.9554 -24.6983 -11.2415 32.6446 8.7390 -31.5383 7.4580 1.8033 3.9791 -15.0986 4.8986 3.0048 -9.3103 5.2244 0.3950 2.0147 
-0.0004 0.0464 1.2773 -0.0588 2.9761 0.4732 -2.8441 -6.0667 178.7931 2.1659 -12.6213 0.5646 -0.0846 70.5473 0.0200 -2.3858 28.4528 0.0000 10.3265 -5.6223 -178.8899 -0.7792 -11.1518 0.8462 5.2795 69.5857 1.0243 2.3847 28.3887 -0.0000 -7.1309 6.8208 1.4887 -3.1864 -4.2872 -0.2386 9.7579 7.6596 -0.8461 -91.0344 68.8837 -177.5246 -7.4462 3.9551 -16.1226 24.5619 -4.5361 -17.8893 -10.6230 -34.3880 -5.9722 -2.0276 6.5590 9.0336 -5.1889 0.3082 3.5410 -5.2349 0.3426 0.4306 4.6579 20.1487 -7.4402 4.9995 -15.2831 2.2538 88.8303 67.4401 177.0035 7.9771 8.1655 3.9083 -24.4957 -11.3460 33.3654 8.2800 -33.9403 7.5942 1.8033 3.9791 -15.0986 4.8986 3.0048 -9.3103 5.2244 0.3950 2.0147 
-0.0008 0.0495 1.2777 -0.0108 3.5663 0.5121 -2.9060 -6.9030 178.6670 2.1586 -12.6723 0.5653 -0.2465 70.3099 0.2035 -2.3858 28.4528 0.0000 10.2272 -6.3541 -178.7997 -0.7772 -11.0118 0.8361 5.3086 69.2091 0.9798 2.3847 28.3887 -0.0000 -7.4593 7.1619 1.5698 -3.2334 -5.1554 -0.3106 9.7624 8.8137 -0.9951 -90.9501 68.2962 -177.3553 -6.5798 4.9170 -17.2084 23.9075 -4.5137 -18.8011 -10.8627 -37.3966 -7.0886 -2.0276 6.5590 9.0336 -5.1889 0.3082 3.5410 -5.2349 0.3426 0.4306 4.7077 21.9007 -7.9555 5.2941 -16.6852 2.3653 88.6766 66.3588 176.7401 7.0192 8.8196 4.8948 -24.1735 -11.2697 33.8860 8.0037 -36.4933 7.9471 1.8033 3.9791 -15.0986 4.8986 3.0048 -9.3103 5.2244 0.3950 2.0147 
-0.0012 0.0530 1.2779 0.0387 4.1771 0.5575 -3.0172 -7.8516 178.5215 2.1298 -12.8699 0.5762 -0.4204 70.1340 0.3812 -2.3858 28.4528 0.0000 10.1252 -7.1947 -178.7168 -0.7758 -11.0061 0.8360 5.3767 68.8741 0.8920 2.3847 28.3887 -0.0000 -7.7685 7.5037 1.6407 -3.2690 -5.8273 -0.3503 9.7463 9.8572 -1.1383 -90.8695 67.7407 -177.2017 -5.6491 6.1235 -18.7722 23.3027 -4.3285 -19.0775 -11.3342 -40.3365 -8.4128 -2.0276 6.5590 9.0336 -5.1889 0.3082 3.5410 -5.2349 0.3426 0.4306 4.7413 23.5996 -8.4445 5.5999 -18.0601 2.4953 88.5210 65.2854 176.4893 6.0228 9.6916 6.1197 -23.8936 -11.0993 34.1311 7.8227 -39.0032 8.4246 1.8033 3.9791 -15.0986 4.8986 3.0048 -9.3103 5.2244 0.3950 2.0147 
-0.0017 0.0570 1.2781 0.0946 4.8770 0.6096 -3.0310 -8.9363 178.3738 2.2042 -13.0985 0.5861 -0.5974 69.9594 0.5741 -2.3858 28.4528 0.0000 9.9906 -8.1474 -178.6251 -0.8712 -10.9868 0.8162 5.5401 68.5254 0.8018 2.3847 28.3887 -0.0000 -8.0486 7.8430 1.6938 -3.2950 -6.4817 -0.3677 9.6797 10.8368 -1.2980 -90.8249 67.0835 -177.1799 -4.6271 7.2383 -20.5085 22.4382 -3.9518 -18.9469 -12.3653 -43.1377 -10.0897 -2.0276 6.5590 9.0336 -5.1889 0.3082 3.5410 -5.2349 0.3426 0.4306 4.6752 24.9167 -8.7423 5.8446 -19.1745 2.5603 88.4203 64.1700 176.4059 4.8357 10.4633 7.3570 -23.4855 -10.7816 34.2567 7.8514 -41.3883 9.1896 1.8033 3.9791 -15.0986 4.8986 3.0048 -9.3103 5.2244 0.3950 2.0147 
-0.0022 0.0617 1.2785 0.1664 5.7771 0.6714 -3.1894 -10.2770 178.1732 2.1543 -13.3247 0.5929 -0.7989 69.7404 0.8081 -2.3858 28.4528 -0.0000 9.7969 -9.3158 -178.5073 -1.1166 -10.8756 0.7615 5.8512 68.0925 0.7058 2.3847 28.3887 -0.0000 -8.3112 8.2098 1.7315 -3.3035 -7.1800 -0.3612 9.5305 11.8267 -1.4902 -90.8325 66.2164 -177.3351 -3.5007 8.0972 -22.1715 21.0567 -3.4489 -19.0176 -14.2853 -46.0052 -12.4072 -2.0276 6.5590 9.0336 -5.1889 0.3082 3.5410 -5.2349 0.3426 0.4306 4.4451 25.8339 -8.7981 6.0138 -20.0423 2.5320 88.3967 62.8807 176.5394 3.3127 10.9224 8.5139 -22.7729 -10.3324 34.6274 8.1973 -43.8185 10.4325 1.8033 3.9791 -15.0986 4.8986 3.0048 -9.3103 5.2244 0.3950 2.0147 
-0.0026 0.0662 1.2787 0.2375 6.6000 0.7126 -3.3097 -11.5421 178.0086 2.1448 -13.5780 0.6017 -0.9640 69.5321 0.9968 -2.3858 28.4528 -0.0000 9.6404 -10.4433 -178.3881 -1.3122 -10.8613 0.7209 6.1605 67.7178 0.5725 2.3847 28.3887 -0.0000 -8.5280 8.5354 1.7625 -3.2779 -7.4529 -0.2977 9.3858 12.5264 -1.6459 -90.8673 65.4891 -177.5278 -2.6429 8.7025 -23.2503 19.8223 -3.1668 -19.9610 -16.2390 -48.2918 -14.6708 -2.0276 6.5590 9.0336 -5.1889 0.3082 3.5410 -5.2349 0.3426 0.4306 4.2378 26.5915 -8.8334 6.1499 -20.7725 2.5128 88.4061 61.8039 176.7017 2.0134 11.1975 9.4193 -22.0856 -10.0460 35.3706 8.6337 -45.8066 11.6625 1.8033 3.9791 -15.0986 4.8986 3.0048 -9.3103 5.2244 0.3950 2.0147 
-0.0028 0.0718 1.2786 0.3953 7.6551 0.7190 -3.5439 -13.2743 177.8535 2.0878 -14.1116 0.6110 -1.0811 69.2591 1.1895 -2.3858 28.4528 -0.0000 9.4120 -12.0843 -178.2059 -1.4146 -11.2690 0.7302 6.4796 67.4759 0.3008 2.3847 28.3887 -0.0000 -8.7643 8.7930 1.7543 -3.2496 -8.1214 -0.2942 9.1847 13.1956 -1.7193 -91.1881 65.1737 -178.4247 -1.6184 9.8607 -23.1702 18.9101 -3.0528 -21.4350 -18.4271 -50.1652 -17.1191 -2.0276 6.5590 9.0336 -5.1889 0.3082 3.5410 -5.2349 0.3426 0.4306 3.9787 26.7693 -8.7895 6.2027 -21.1604 2.5063 88.7038 61.3933 177.4529 0.3856 12.3198 9.4538 -21.4996 -9.8351 36.1704 9.2013 -47.7328 12.9928 1.8033 3.9791 -15.0986 4.8986 3.0048 -9.3103 5.2244 0.3950 2.0147 
-0.0030 0.0778 1.2785 0.5517 8.7112 0.7173 -3.7795 -14.9872 177.6942 2.0414 -14.5589 0.6182 -1.1941 68.9139 1.3664 -2.3858 28.4528 0.0000 9.2050 -13.7123 -178.0146 -1.5181 -11.5958 0.7302 6.8248 67.1587 0.0105 2.3847 28.3887 -0.0000 -8.9901 9.0577 1.7451 -3.1874 -8.3832 -0.2179 8.9722 13.6740 -1.7876 -91.5127 64.8638 -179.3044 -0.5772 11.0730 -23.6007 18.0389 -2.8382 -22.4379 -20.7553 -51.7749 -19.6913 -2.0276 6.5590 9.0336 -5.1889 0.3082 3.5410 -5.2349 0.3426 0.4306 3.7219 26.9453 -8.7444 6.2481 -21.5421 2.4990 89.0049 60.9888 178.1896 -1.2594 13.4852 9.9002 -20.9548 -9.5710 36.7834 9.8562 -49.4353 14.4113 1.8033 3.9791 -15.0986 4.8986 3.0048 -9.3103 5.2244 0.3950 2.0147 
-0.0033 0.0842 1.2782 0.6771 9.8712 0.6900 -3.9920 -16.8619 177.5446 2.0268 -15.0722 0.6357 -1.3616 68.6434 1.5690 -2.3858 28.4528 0.0000 9.0635 -15.5568 -177.7785 -1.6154 -12.1010 0.7411 7.1750 66.9544 -0.2939 2.3847 28.3887 -0.0000 -9.2036 9.3237 1.7613 -3.0970 -8.5703 -0.1689 8.7405 13.9985 -1.7502 -91.9064 64.8456 179.6563 0.4985 12.6116 -24.3536 17.6352 -2.6665 -22.6255 -22.7460 -53.1549 -21.9742 -2.0276 6.5590 9.0336 -5.1889 0.3082 3.5410 -5.2349 0.3426 0.4306 3.4834 26.5325 -8.8076 6.2216 -21.5875 2.4371 89.3822 60.6807 179.0783 -2.8894 14.8850 10.4475 -20.3038 -9.1416 37.1946 10.8791 -51.0368 15.9246 1.8033 3.9791 -15.0986 4.8986 3.0048 -9.3103 5.2244 0.3950 2.0147 
-0.0036 0.0907 1.2777 0.7810 11.0746 0.6474 -4.1900 -18.8070 177.3965 2.0366 -15.6647 0.6627 -1.5660 68.4643 1.7877 -2.3858 28.4528 -0.0000 8.9696 -17.5136 -177.5233 -1.7154 -12.7792 0.7598 7.5639 66.8793 -0.6382 2.3847 28.3887 -0.0000 -9.4064 9.5923 1.7911 -2.9864 -8.6544 -0.1245 8.4973 14.2006 -1.6493 -92.3285 65.0061 178.5320 1.5061 14.2311 -25.5532 17.5366 -2.4704 -21.8028 -24.4414 -54.2791 -24.0048 -2.0276 6.5590 9.0336 -5.1889 0.3082 3.5410 -5.2349 0.3426 0.4306 3.2598 25.7721 -8.9408 6.1508 -21.4276 2.3405 89.8008 60.4378 -179.9573 -4.4832 16.3078 11.1883 -19.6089 -8.6044 37.4006 12.0959 -52.4324 17.4601 1.8033 3.9791 -15.0986 4.8986 3.0048 -9.3103 5.2244 0.3950 2.0147 
-0.0042 0.0973 1.2771 0.9579 12.4059 0.6242 -4.4909 -20.9269 177.1739 2.1099 -16.3822 0.7130 -1.8660 68.3430 2.0509 -2.3858 28.4528 -0.0000 8.8028 -19.6199 -177.2997 -1.7731 -13.5690 0.7923 7.9191 66.8449 -0.9902 2.3847 28.3887 -0.0000 -9.6374 9.8176 1.7971 -2.9031 -8.6516 -0.0915 8.2242 14.2812 -1.5569 -92.7402 65.1549 177.4200 2.4287 15.6322 -27.2513 17.4618 -2.1525 -19.9925 -26.0114 -55.0906 -25.9202 -2.0276 6.5590 9.0336 -5.1889 0.3082 3.5410 -5.2349 0.3426 0.4306 3.0435 25.0836 -9.0158 6.0665 -21.3179 2.2417 90.2266 60.2606 -178.9893 -6.0639 17.5989 12.1585 -18.9313 -8.0530 37.5209 13.3069 -53.5066 18.9896 1.8033 3.9791 -15.0986 4.8986 3.0048 -9.3103 5.2244 0.3950 2.0147 
-0.0053 0.1048 1.2765 1.5254 14.4202 0.6945 -5.3209 -23.8462 176.6080 2.4729 -17.2044 0.8553 -2.5984 68.1336 2.4995 -2.3858 28.4528 -0.0000 8.1968 -22.3347 -177.2006 -1.5493 -14.2123 0.8842 7.7403 66.5272 -1.0596 2.3847 28.3887 -0.0000 -10.0207 9.7658 1.6970 -3.0043 -8.6529 -0.1984 7.8318 13.9184 -1.5340 -93.1264 65.2299 176.3739 3.6353 16.6892 -29.2562 17.3497 -1.7585 -17.6047 -27.1420 -55.4086 -27.3884 -2.0276 6.5590 9.0336 -5.1889 0.3082 3.5410 -5.2349 0.3426 0.4306 2.8641 24.7549 -8.7573 5.9308 -21.4815 2.1458 90.6732 60.4121 -177.9641 -7.7758 19.0916 13.1576 -18.2453 -7.5595 37.8639 14.5273 -54.0848 20.5200 1.8033 3.9791 -15.0986 4.8986 3.0048 -9.3103 5.2244 0.3950 2.0147 
-0.0067 0.1123 1.2761 2.1066 16.4810 0.7391 -6.2097 -26.6901 175.9773 2.8483 -17.9138 1.0052 -3.2654 67.9193 2.8627 -2.3858 28.4528 0.0000 7.5735 -25.0480 -177.1221 -1.3318 -14.9228 0.9836 7.6931 66.3153 -1.2696 2.3847 28.3887 -0.0000 -10.4063 9.7304 1.5888 -3.0624 -8.0016 -0.1894 7.4204 13.2443 -1.5254 -93.5166 65.3092 175.3088 4.6716 17.5345 -31.6109 17.2169 -1.3375 -14.9044 -28.0337 -55.4328 -28.6341 -2.0276 6.5590 9.0336 -5.1889 0.3082 3.5410 -5.2349 0.3426 0.4306 2.6837 24.4197 -8.4965 5.7886 -21.6444 2.0430 91.1237 60.5701 -176.9193 -9.5479 20.4453 14.5315 -17.5135 -7.1025 38.5045 15.5975 -54.3347 21.8962 1.8033 3.9791 -15.0986 4.8986 3.0048 -9.3103 5.2244 0.3950 2.0147 
-0.0082 0.1195 1.2757 2.7323 18.3925 0.7116 -7.1805 -29.2863 175.3407 3.1900 -18.5175 1.1468 -4.0541 67.0389 3.4183 -2.3858 28.4528 0.0000 6.9201 -27.6551 -177.0583 -1.4534 -15.8414 1.0094 7.8643 66.0035 -1.3677 2.3847 28.3887 -0.0000 -10.8030 9.7166 1.4648 -3.1183 -6.6922 0.0382 7.0026 12.2838 -1.6655 -93.8266 65.5444 174.4101 5.5960 18.3765 -34.7339 17.0965 -0.8412 -11.3737 -28.7654 -55.2682 -29.6324 -2.0276 6.5590 9.0336 -5.1889 0.3082 3.5410 -5.2349 0.3426 0.4306 2.5136 24.1592 -7.9839 5.5644 -21.9031 1.7999 91.5256 60.8817 -175.9546 -10.9819 21.8252 16.3087 -17.0055 -6.7921 39.1119 16.4208 -54.1998 22.9298 1.8033 3.9791 -15.0986 4.8986 3.0048 -9.3103 5.2244 0.3950 2.0147 
-0.0100 0.1269 1.2751 3.4005 20.3019 0.6333 -8.2311 -31.8201 174.6492 3.5254 -18.9357 1.2810 -4.7398 66.8048 3.8408 -2.3858 28.4528 0.0000 6.2423 -30.2913 -177.0017 -1.7202 -16.7497 0.9884 8.1862 65.5416 -1.4942 2.3847 28.3887 -0.0000 -11.2110 9.6809 1.3291 -3.1780 -5.1747 0.2770 6.5653 11.2310 -1.8410 -94.1078 65.8435 173.5481 6.6636 19.4000 -40.3523 16.9515 0.1594 -3.2124 -29.2101 -54.8272 -30.3221 -2.0276 6.5590 9.0336 -5.1889 0.3082 3.5410 -5.2349 0.3426 0.4306 2.3456 23.9194 -7.3668 5.3002 -22.1998 1.4926 91.9126 61.2590 -174.9933 -12.2789 23.0291 18.3982 -16.5946 -6.4930 39.5163 16.9720 -53.6994 23.6565 1.8033 3.9791 -15.0986 4.8986 3.0048 -9.3103 5.2244 0.3950 2.0147 
-0.0119 0.1345 1.2740 3.9205 21.8509 0.5461 -9.1137 -34.1094 174.0064 3.7617 -19.5121 1.3978 -5.2176 66.9164 4.1200 -2.3858 28.4528 0.0000 5.7076 -32.7655 -176.9760 -1.9032 -17.8678 0.9960 8.7316 66.3919 -1.9089 2.3847 28.3887 -0.0000 -11.5532 9.7443 1.2145 -3.1579 -3.4530 0.5117 6.1719 10.2729 -2.0190 -94.3439 66.3359 172.7100 7.0902 19.7437 -41.8598 16.7788 0.1934 -3.4069 -29.2856 -54.1130 -30.6381 -2.0276 6.5590 9.0336 -5.1889 0.3082 3.5410 -5.2349 0.3426 0.4306 2.1400 23.6162 -6.8229 5.0570 -22.4812 1.2204 92.2582 61.6532 -174.1002 -13.2100 23.9891 20.6923 -16.1950 -6.1258 39.6302 17.5376 -52.9024 24.2216 1.8033 3.9791 -15.0986 4.8986 3.0048 -9.3103 5.2244 0.3950 2.0147 
-0.0137 0.1420 1.2717 4.0668 22.5452 0.5199 -9.5170 -35.9040 173.5816 3.7850 -20.7544 1.4912 -5.5285 67.0593 4.4532 -2.3858 28.4528 0.0000 5.5429 -34.7806 -176.9869 -1.8783 -19.5168 1.0928 8.8882 66.6048 -2.1502 2.3847 28.3887 -0.0000 -11.7343 10.0328 1.1434 -2.9572 -1.1618 0.8566 5.8949 9.4436 -2.2244 -94.4697 67.1943 171.9725 7.2862 20.0725 -43.6767 16.6720 0.2289 -3.5952 -29.0097 -53.2292 -30.5704 -2.0276 6.5590 9.0336 -5.1889 0.3082 3.5410 -5.2349 0.3426 0.4306 1.8666 23.2029 -6.4653 4.8806 -22.7196 1.0487 92.5064 62.0530 -173.4140 -13.4054 24.7272 22.8991 -15.7638 -5.7575 39.8459 18.4114 -51.9373 24.7553 1.8033 3.9791 -15.0986 4.8986 3.0048 -9.3103 5.2244 0.3950 2.0147 
-0.0157 0.1507 1.2690 4.2163 23.2298 0.4983 -9.9537 -37.7852 173.1094 3.8129 -21.9077 1.5805 -5.8198 67.0075 4.7765 -2.3858 28.4528 0.0000 5.3952 -36.9065 -176.9908 -1.8701 -21.0593 1.1784 9.0425 66.5904 -2.3765 2.3847 28.3887 -0.0000 -11.8860 10.2869 1.0603 -2.7398 0.9975 1.0734 5.6117 8.6730 -2.3740 -94.5677 68.0192 171.2416 7.2158 20.1746 -45.3269 16.5672 0.2653 -3.7804 -28.3849 -52.0708 -30.1484 -2.0276 6.5590 9.0336 -5.1889 0.3082 3.5410 -5.2349 0.3426 0.4306 1.6070 22.8034 -6.1253 4.7062 -22.9453 0.8750 92.7386 62.4385 -172.7487 -13.3868 25.1453 24.6680 -15.3009 -5.4714 40.5756 18.9179 -50.6879 24.9459 1.8033 3.9791 -15.0986 4.8986 3.0048 -9.3103 5.2244 0.3950 2.0147 
-0.0173 0.1606 1.2656 3.8818 24.0555 0.4992 -9.8378 -39.9534 172.8354 3.8438 -23.1594 1.6782 -5.9041 66.8719 4.9175 -2.3858 28.4528 0.0000 5.9076 -39.2831 -176.6728 -2.0883 -22.4923 1.1708 9.5642 66.4572 -2.7555 2.3847 28.3887 -0.0000 -11.9387 10.5677 0.9830 -2.3728 2.8068 1.3395 5.4466 8.0001 -2.3384 -94.5568 69.0864 170.5964 7.0672 20.2596 -47.0554 16.1731 0.3061 -3.9692 -28.0980 -50.9750 -29.7244 -2.0276 6.5590 9.0336 -5.1889 0.3082 3.5410 -5.2349 0.3426 0.4306 1.3667 22.2186 -6.0345 4.5752 -23.0116 0.8458 92.9068 63.2509 -172.0843 -13.3950 25.8910 26.6165 -14.7317 -5.0779 41.2645 19.7104 -49.3588 25.1286 1.8033 3.9791 -15.0986 4.8986 3.0048 -9.3103 5.2244 0.3950 2.0147 
-0.0189 0.1702 1.2617 3.4713 24.8745 0.5153 -9.6536 -42.1013 172.5721 3.8848 -24.4047 1.7800 -6.0516 66.7419 5.1319 -2.3858 28.4528 0.0000 6.5315 -41.5809 -176.3081 -2.3510 -23.7893 1.1283 10.0496 66.2768 -3.0549 2.3847 28.3887 -0.0000 -11.9572 10.8828 0.9127 -1.9822 4.4400 1.5154 5.2956 7.4055 -2.2428 -94.4990 70.1825 169.9320 6.8651 20.3030 -48.7228 15.7397 0.3500 -4.1548 -27.5975 -49.6427 -29.0464 -2.0276 6.5590 9.0336 -5.1889 0.3082 3.5410 -5.2349 0.3426 0.4306 1.1309 21.6105 -5.9816 4.4479 -23.0549 0.8305 93.0503 64.1181 -171.4064 -13.3009 26.5474 28.4792 -14.1684 -4.6441 41.7984 20.2825 -47.7715 25.0773 1.8033 3.9791 -15.0986 4.8986 3.0048 -9.3103 5.2244 0.3950 2.0147 
-0.0206 0.1793 1.2571 3.2115 25.7679 0.3201 -9.4334 -44.2338 172.5248 4.0339 -25.4918 1.9185 -6.2649 66.5212 5.3332 -2.3858 28.4528 0.0000 7.2006 -43.9337 -175.7039 -2.8536 -25.2532 0.9785 10.7718 66.1642 -3.3567 2.3847 28.3887 -0.0000 -11.9841 11.3204 0.7717 -1.6006 6.0465 1.8448 5.0363 6.9039 -2.3109 -94.6017 70.5713 169.1796 6.3351 19.7857 -50.2530 15.2163 0.4037 -4.3719 -26.6024 -47.6359 -27.8420 -2.0276 6.5590 9.0336 -5.1889 0.3082 3.5410 -5.2349 0.3426 0.4306 0.7567 21.5989 -5.4768 4.2211 -23.7246 0.5061 93.2403 64.7860 -170.6229 -13.0231 26.7072 30.3957 -13.5442 -4.0716 41.9389 20.3439 -45.4018 24.5369 1.8033 3.9791 -15.0986 4.8986 3.0048 -9.3103 5.2244 0.3950 2.0147 
-0.0221 0.1853 1.2530 3.2095 26.4893 -0.0800 -9.2105 -45.7324 172.7689 4.2597 -26.0427 2.0568 -6.4413 66.2091 5.3996 -2.3858 28.4528 0.0000 7.7281 -45.6735 -174.9950 -3.4969 -26.4639 0.7352 11.5783 66.1282 -3.5975 2.3847 28.3887 -0.0000 -11.9769 11.5931 0.5843 -1.2928 7.7229 2.1470 4.7019 6.3961 -2.4761 -94.9151 69.9977 168.5866 5.5746 18.7717 -51.3115 14.7375 0.4533 -4.5611 -25.4433 -45.4749 -26.4929 -2.0276 6.5590 9.0336 -5.1889 0.3082 3.5410 -5.2349 0.3426 0.4306 0.3130 22.3019 -4.5613 3.9234 -24.9495 -0.1091 93.4458 65.0196 -169.9552 -12.5589 26.1739 31.6087 -12.9970 -3.5424 41.8654 19.9101 -42.8543 23.6887 1.8033 3.9791 -15.0986 4.8986 3.0048 -9.3103 5.2244 0.3950 2.0147 
-0.0238 0.1906 1.2483 3.1868 27.1646 -0.4777 -9.0347 -47.1593 172.9688 4.4476 -26.6835 2.2081 -6.6913 66.0063 5.5305 -2.3858 28.4528 0.0000 8.2854 -47.2868 -174.2988 -4.1501 -27.6635 0.4625 12.3341 66.1684 -3.8010 2.3847 28.3887 -0.0000 -11.9259 11.9911 0.4123 -0.9493 9.2825 2.2125 4.3725 5.9395 -2.5237 -95.2279 69.4496 168.0092 4.8234 17.7980 -52.4088 14.2646 0.5042 -4.7499 -24.2029 -43.1131 -25.0624 -2.0276 6.5590 9.0336 -5.1889 0.3082 3.5410 -5.2349 0.3426 0.4306 -0.1253 22.9923 -3.6822 3.6125 -26.1542 -0.7232 93.6517 65.2223 -169.2865 -11.9860 25.4065 32.5507 -12.4567 -3.0229 41.7613 19.3464 -40.1094 22.7483 1.8033 3.9791 -15.0986 4.8986 3.0048 -9.3103 5.2244 0.3950 2.0147 
-0.0260 0.1963 1.2420 3.2848 28.1268 -1.2796 -8.5135 -49.0169 173.6799 4.8560 -27.4090 2.4326 -7.1903 65.9983 5.7098 -2.3858 28.4528 0.0000 9.2578 -49.4869 -172.9729 -5.1118 -29.4695 0.0170 13.2508 66.5507 -3.9676 2.3847 28.3887 -0.0000 -12.1207 12.3075 0.5649 -0.7031 11.0916 1.7755 3.9204 5.2502 -1.7012 -95.3990 69.5249 167.3437 4.1055 16.9533 -53.6046 13.6818 0.5691 -4.9726 -22.7722 -40.0375 -23.1152 -2.0276 6.5590 9.0336 -5.1889 0.3082 3.5410 -5.2349 0.3426 0.4306 -0.0297 24.1220 -4.2857 3.6630 -27.7719 -0.5772 94.2616 64.1504 -168.2214 -10.9498 23.6762 32.7023 -11.8747 -2.4774 41.8000 18.1018 -36.2079 21.3500 1.8033 3.9791 -15.0986 4.8986 3.0048 -9.3103 5.2244 0.3950 2.0147 
-0.0278 0.2002 1.2363 3.3707 28.8732 -1.8971 -8.1928 -50.6771 174.1516 5.1653 -28.4623 2.6667 -7.6772 66.2545 5.9802 -2.3858 28.4528 0.0000 10.1454 -51.3725 -171.8564 -5.8781 -31.2329 -0.3795 14.2192 67.0234 -4.3945 2.3847 28.3887 -0.0000 -12.3238 12.5451 0.6943 -0.6026 12.2277 1.5709 3.5912 4.8329 -1.1486 -95.5266 69.5820 166.8414 3.5075 16.2851 -54.3458 13.2435 0.6197 -5.1416 -21.7115 -37.5829 -21.6724 -2.0276 6.5590 9.0336 -5.1889 0.3082 3.5410 -5.2349 0.3426 0.4306 0.0511 24.9723 -4.7420 3.7069 -28.9875 -0.4620 94.7338 63.3490 -167.4306 -10.1758 22.3751 33.0252 -11.4411 -2.0583 41.6758 17.1475 -33.1445 20.3183 1.8033 3.9791 -15.0986 4.8986 3.0048 -9.3103 5.2244 0.3950 2.0147 
-0.0297 0.2043 1.2289 3.4082 29.7220 -2.5028 -7.7920 -52.8715 174.5932 5.4059 -30.3103 2.9460 -8.0053 66.7356 6.2275 -2.3858 28.4528 0.0000 11.3892 -53.7163 -170.4980 -6.5463 -33.5939 -0.7748 15.2364 67.7079 -4.9718 2.3847 28.3887 -0.0000 -12.5932 12.7947 0.8043 -0.5792 13.3263 1.6033 3.2825 4.4044 -0.7069 -95.6953 69.5277 166.3143 2.7960 15.3546 -55.0088 12.7918 0.6764 -5.3259 -20.5053 -34.6886 -20.1373 -2.0276 6.5590 9.0336 -5.1889 0.3082 3.5410 -5.2349 0.3426 0.4306 0.1545 25.8345 -5.0806 3.6986 -30.2401 -0.3738 95.1951 62.5593 -166.6964 -9.5218 20.8978 34.0089 -10.8505 -1.4974 41.2387 16.1934 -29.7317 19.2755 1.8033 3.9791 -15.0986 4.8986 3.0048 -9.3103 5.2244 0.3950 2.0147 
-0.0318 0.2082 1.2198 3.4087 30.5946 -3.0585 -7.3554 -55.3824 174.9645 5.6193 -32.7447 3.2733 -8.2930 67.4155 6.5482 -2.3858 28.4528 0.0000 12.9434 -56.2839 -168.9449 -7.1486 -36.3243 -1.1864 16.3009 68.5347 -5.6691 2.3847 28.3887 -0.0000 -12.9015 13.0795 0.8891 -0.6233 14.4385 1.7786 2.9962 3.9494 -0.3469 -95.8876 69.4001 165.7927 1.9617 14.2499 -55.6056 12.3495 0.7359 -5.5066 -19.2943 -31.6384 -18.6646 -2.0276 6.5590 9.0336 -5.1889 0.3082 3.5410 -5.2349 0.3426 0.4306 0.2692 26.6716 -5.3275 3.6520 -31.4695 -0.3104 95.6321 61.8089 -166.0294 -8.9035 19.3155 35.5009 -10.1668 -0.8703 40.4791 15.2866 -26.2539 18.3083 1.8033 3.9791 -15.0986 4.8986 3.0048 -9.3103 5.2244 0.3950 2.0147 
-0.0341 0.2117 1.2097 3.4179 31.4648 -3.5947 -6.9540 -58.0231 175.2731 5.8710 -35.4689 3.6582 -8.7107 68.2642 7.0352 -2.3858 28.4528 0.0000 14.7652 -58.9326 -167.1697 -7.7894 -39.2445 -1.6728 17.5129 69.4340 -6.5411 2.3847 28.3887 -0.0000 -13.2373 13.3634 0.9844 -0.7375 15.3901 2.0237 2.7163 3.5735 -0.0369 -96.0691 69.3061 165.2794 1.1137 13.1684 -56.1064 11.9324 0.7957 -5.6858 -18.1766 -28.6853 -17.3249 -2.0276 6.5590 9.0336 -5.1889 0.3082 3.5410 -5.2349 0.3426 0.4306 0.3893 27.4761 -5.5639 3.5953 -32.6652 -0.2574 96.0662 61.0766 -165.3826 -8.2649 17.7342 37.1216 -9.4833 -0.2758 39.5998 14.4135 -22.9212 17.4405 1.8033 3.9791 -15.0986 4.8986 3.0048 -9.3103 5.2244 0.3950 2.0147 
-0.0370 0.2149 1.1974 3.4241 32.3569 -4.0360 -6.8878 -61.0105 175.1776 6.0488 -38.8333 4.0646 -9.1829 69.5136 7.6610 -2.3858 28.4528 0.0000 16.8262 -61.8832 -165.2588 -8.2953 -42.6370 -2.1341 18.3662 70.4249 -7.2200 2.3847 28.3887 -0.0000 -13.5950 13.6692 1.1139 -0.8515 16.3435 2.2160 2.4220 3.2559 0.2055 -96.1526 69.4991 164.7684 0.3338 12.2860 -56.8124 11.6311 0.8614 -5.8808 -16.8903 -25.4027 -15.8614 -2.0276 6.5590 9.0336 -5.1889 0.3082 3.5410 -5.2349 0.3426 0.4306 0.5327 28.0754 -5.7054 3.4401 -33.6988 -0.2893 96.4651 60.3984 -164.7133 -7.5406 16.0447 38.9763 -8.8204 0.2745 38.6806 13.3725 -19.5104 16.4299 1.8033 3.9791 -15.0986 4.8986 3.0048 -9.3103 5.2244 0.3950 2.0147 
-0.0393 0.2174 1.1856 3.3920 33.1202 -4.4693 -6.8247 -63.6836 175.1112 6.2775 -41.9575 4.4868 -9.8544 70.7152 8.4191 -2.3858 28.4528 0.0000 19.1082 -64.5113 -163.1288 -8.8299 -45.7840 -2.6419 19.2013 71.3756 -7.9527 2.3847 28.3887 -0.0000 -13.8926 13.9019 1.2965 -0.9768 16.8423 2.4386 2.1660 3.1331 0.3923 -96.2233 69.6704 164.3114 -0.1561 11.6243 -57.3120 11.3784 0.9189 -6.0417 -15.8948 -22.8006 -14.7570 -2.0276 6.5590 9.0336 -5.1889 0.3082 3.5410 -5.2349 0.3426 0.4306 0.6619 28.6071 -5.8335 3.2965 -34.6143 -0.3237 96.8260 59.7939 -164.1948 -6.9508 14.5594 40.3813 -8.2301 0.7298 38.1404 12.5457 -16.8108 15.6968 1.8033 3.9791 -15.0986 4.8986 3.0048 -9.3103 5.2244 0.3950 2.0147 
-0.0411 0.2189 1.1724 3.6023 33.8028 -5.0219 -6.6035 -66.4208 175.3002 6.5327 -45.3316 4.9542 -10.1293 72.0124 8.8855 -2.3858 28.4528 0.0000 22.0439 -67.1312 -160.2621 -9.3054 -49.2811 -3.1547 20.5700 72.5851 -9.2286 2.3847 28.3887 -0.0000 -14.1733 14.0575 1.3510 -1.1793 17.2066 2.5697 1.9079 3.0554 0.6572 -96.8521 68.4021 163.7288 -0.1776 9.0891 -57.2222 10.2742 0.9829 -6.1974 -15.1056 -19.9432 -14.0323 -2.0276 6.5590 9.0336 -5.1889 0.3082 3.5410 -5.2349 0.3426 0.4306 0.8352 29.0115 -6.0699 3.2055 -35.3480 -0.2341 97.1236 59.3393 -163.7549 -6.4032 13.2145 41.7259 -7.5620 1.2097 37.5113 11.9128 -14.5316 15.1025 1.8033 3.9791 -15.0986 4.8986 3.0048 -9.3103 5.2244 0.3950 2.0147 
-0.0424 0.2200 1.1588 3.8825 34.4291 -5.6017 -6.2682 -69.0682 175.6286 6.8391 -48.6366 5.4584 -10.3332 73.2772 9.3006 -2.3858 28.4528 0.0000 25.6432 -69.5828 -156.7091 -9.8224 -52.7226 -3.7239 22.2169 73.7943 -10.7831 2.3847 28.3887 -0.0000 -14.4412 14.1751 1.3768 -1.4195 17.4220 2.6859 1.6534 3.0384 0.9365 -97.6292 66.7304 163.1045 0.0095 6.0903 -56.8579 8.9412 1.0469 -6.3424 -14.3989 -17.3421 -13.4817 -2.0276 6.5590 9.0336 -5.1889 0.3082 3.5410 -5.2349 0.3426 0.4306 1.0209 29.3714 -6.3370 3.1308 -36.0160 -0.1093 97.3991 58.9369 -163.3468 -5.8950 11.9511 42.9527 -6.8788 1.6715 36.9036 11.3992 -12.6744 14.6420 1.8033 3.9791 -15.0986 4.8986 3.0048 -9.3103 5.2244 0.3950 2.0147 
-0.0437 0.2210 1.1453 4.1048 35.0020 -6.1496 -5.8330 -71.5465 176.0297 7.1955 -51.7283 5.9896 -10.6653 74.4202 9.8008 -2.3858 28.4528 0.0000 29.9260 -71.7888 -152.4943 -10.3695 -55.9245 -4.3301 23.8144 74.8641 -12.3490 2.3847 28.3887 -0.0000 -14.6994 14.2832 1.4490 -1.6518 17.5692 2.8195 1.4019 3.0302 1.2058 -98.2285 65.5761 162.4888 0.2808 3.6734 -56.5257 7.5327 1.1103 -6.4801 -13.9493 -15.2580 -13.0457 -2.0276 6.5590 9.0336 -5.1889 0.3082 3.5410 -5.2349 0.3426 0.4306 1.2315 29.7004 -6.6781 3.0805 -36.6337 0.0690 97.6525 58.5994 -162.9612 -5.4360 10.8036 44.1102 -6.1750 2.1223 36.3560 11.0073 -11.2334 14.3278 1.8033 3.9791 -15.0986 4.8986 3.0048 -9.3103 5.2244 0.3950 2.0147 
-0.0449 0.2224 1.1321 4.1772 35.4971 -6.6243 -5.2792 -73.7758 176.4883 7.5770 -54.5185 6.5234 -11.1834 75.3574 10.3895 -2.3858 28.4528 0.0000 34.8072 -73.6809 -147.7282 -10.8182 -58.7884 -4.8552 24.9040 75.7204 -13.5592 2.3847 28.3887 -0.0000 -14.9427 14.3981 1.6173 -1.8326 17.7814 2.9657 1.1552 2.9374 1.4645 -98.3882 65.7427 161.9126 0.6220 2.5657 -56.5107 5.8806 1.1752 -6.6143 -14.1188 -13.8294 -12.7572 -2.0276 6.5590 9.0336 -5.1889 0.3082 3.5410 -5.2349 0.3426 0.4306 1.5069 29.9536 -7.2142 3.0995 -37.1312 0.3959 97.8482 58.4243 -162.6225 -5.0501 9.8913 45.2919 -5.4071 2.5899 35.8573 10.8061 -10.2583 14.1937 1.8033 3.9791 -15.0986 4.8986 3.0048 -9.3103 5.2244 0.3950 2.0147 
-0.0456 0.2236 1.1186 4.2676 35.9724 -7.1152 -4.4289 -75.9055 177.2808 8.0144 -57.1518 7.0980 -11.6040 76.2385 10.8677 -2.3858 28.4528 0.0000 40.7078 -75.3205 -141.9090 -11.3565 -61.5297 -5.4640 26.2345 76.5501 -14.9973 2.3847 28.3887 -0.0000 -15.1692 14.4771 1.7716 -2.0027 17.8333 3.0487 0.8970 2.9183 1.7614 -98.5495 65.9146 161.3169 1.0696 1.4830 -56.3802 4.1936 1.2403 -6.7437 -14.3413 -12.7784 -12.5163 -2.0276 6.5590 9.0336 -5.1889 0.3082 3.5410 -5.2349 0.3426 0.4306 1.7936 30.2109 -7.7687 3.1198 -37.6406 0.7338 98.0503 58.2452 -162.2779 -4.6862 8.9755 46.2096 -4.6265 3.0568 35.5296 10.6703 -9.6669 14.1471 1.8033 3.9791 -15.0986 4.8986 3.0048 -9.3103 5.2244 0.3950 2.0147 
-0.0464 0.2246 1.1052 4.2010 36.3753 -7.2164 -4.3700 -77.9223 177.0829 8.4105 -59.7994 7.6442 -11.8775 77.1640 11.3004 -2.3858 28.4528 0.0000 46.5842 -76.7941 -136.3100 -11.8568 -64.0600 -6.0398 27.6104 77.2745 -16.4729 2.3847 28.3887 -0.0000 -15.3032 14.5480 1.7880 -2.1007 17.9177 3.0317 0.6875 2.8938 1.8649 -98.7356 65.7394 160.9800 1.5460 0.2338 -56.3838 2.1935 1.3048 -6.8608 -14.7618 -11.6676 -12.3365 -2.0276 6.5590 9.0336 -5.1889 0.3082 3.5410 -5.2349 0.3426 0.4306 1.9273 30.4394 -7.8817 2.9460 -38.0696 0.7504 98.1234 58.5041 -161.9924 -4.4205 8.3602 47.2378 -4.0609 3.3877 35.2136 10.4368 -9.4113 13.9400 1.8033 3.9791 -15.0986 4.8986 3.0048 -9.3103 5.2244 0.3950 2.0147 
-0.0471 0.2256 1.0908 4.0996 36.7778 -7.2472 -4.5152 -80.0008 176.6331 8.8731 -62.5306 8.2576 -12.0255 78.1214 11.6230 -2.3858 28.4528 0.0000 53.8874 -78.1564 -129.3291 -12.4662 -66.6415 -6.7257 29.2009 77.9948 -18.1569 2.3847 28.3887 -0.0000 -15.4143 14.6129 1.7722 -2.1902 17.9503 2.9818 0.4637 2.8986 1.9442 -98.9485 65.4740 160.6620 2.0974 -1.1729 -56.3352 -0.0771 1.3741 -6.9803 -15.2997 -10.7829 -12.1480 -2.0276 6.5590 9.0336 -5.1889 0.3082 3.5410 -5.2349 0.3426 0.4306 2.0436 30.6868 -7.9156 2.7074 -38.5268 0.6955 98.1746 58.8820 -161.6873 -4.1730 7.7577 48.2518 -3.4879 3.7180 34.9292 10.2223 -9.5311 13.7374 1.8033 3.9791 -15.0986 4.8986 3.0048 -9.3103 5.2244 0.3950 2.0147 
-0.0474 0.2264 1.0789 4.0387 37.0746 -7.3011 -4.5540 -81.6301 176.3747 9.3361 -64.6548 8.8295 -12.0482 78.8106 11.7735 -2.3858 28.4528 0.0000 60.9070 -79.0404 -122.5464 -13.1514 -68.6696 -7.4631 30.5720 78.5058 -19.5617 2.3847 28.3887 -0.0000 -15.4864 14.6667 1.7544 -2.2638 17.9986 2.9169 0.2514 2.8873 2.0543 -99.1130 65.3134 160.3778 2.6165 -2.4162 -56.2413 -2.1727 1.4344 -7.0811 -15.8850 -10.1818 -11.9806 -2.0276 6.5590 9.0336 -5.1889 0.3082 3.5410 -5.2349 0.3426 0.4306 2.1954 30.8682 -8.1192 2.5632 -38.8812 0.7413 98.1936 59.2342 -161.4563 -3.9827 7.3158 49.0673 -3.0466 3.9663 34.6894 10.0559 -9.8391 13.5483 1.8033 3.9791 -15.0986 4.8986 3.0048 -9.3103 5.2244 0.3950 2.0147 
-0.0477 0.2273 1.0682 4.0115 37.3271 -7.3899 -4.3865 -83.0722 176.3708 9.8402 -66.4912 9.4214 -11.9460 79.3169 11.7817 -2.3858 28.4528 0.0000 68.1638 -79.6313 -115.4780 -14.0023 -70.4342 -8.3521 31.8024 78.8597 -20.7785 2.3847 28.3887 -0.0000 -15.5331 14.7236 1.7325 -2.3348 18.0990 2.8382 0.0186 2.8444 2.2080 -99.2522 65.2371 160.0842 3.1499 -3.7027 -56.1119 -4.4155 1.4938 -7.1732 -16.5951 -9.6786 -11.7938 -2.0276 6.5590 9.0336 -5.1889 0.3082 3.5410 -5.2349 0.3426 0.4306 2.4084 31.0075 -8.5318 2.4992 -39.1840 0.9041 98.1823 59.6145 -161.2667 -3.8180 6.9681 49.8579 -2.6706 4.1693 34.4243 9.8924 -10.2789 13.3224 1.8033 3.9791 -15.0986 4.8986 3.0048 -9.3103 5.2244 0.3950 2.0147 
-0.0478 0.2285 1.0568 3.9782 37.6065 -7.4798 -3.9956 -84.5945 176.5769 10.4322 -68.3501 10.0998 -11.6098 79.7850 11.5506 -2.3858 28.4528 0.0000 76.6478 -80.0432 -107.1863 -15.0642 -72.1964 -9.4518 33.0600 79.1392 -22.0174 2.3847 28.3887 -0.0000 -15.5696 14.7867 1.6992 -2.4196 18.2006 2.7595 -0.2494 2.8064 2.3749 -99.4140 65.1543 159.7400 3.6789 -5.2138 -55.8425 -6.9764 1.5600 -7.2729 -17.4362 -9.4956 -11.5427 -2.0276 6.5590 9.0336 -5.1889 0.3082 3.5410 -5.2349 0.3426 0.4306 2.6465 31.1595 -8.9832 2.4140 -39.5240 1.0776 98.1657 60.0563 -161.0440 -3.6489 6.5688 50.5909 -2.2567 4.3981 34.2196 9.7501 -11.0855 13.1012 1.8033 3.9791 -15.0986 4.8986 3.0048 -9.3103 5.2244 0.3950 2.0147 
-0.0479 0.2296 1.0473 3.8255 37.7783 -7.4182 -4.1676 -85.7949 176.1553 11.1607 -69.8985 10.8894 -11.3305 80.2179 11.2815 -2.3858 28.4528 0.0000 83.6176 -80.2816 -100.4566 -16.1377 -73.5855 -10.5537 34.0557 79.3256 -22.9988 2.3847 28.3887 -0.0000 -15.5462 14.8610 1.6520 -2.4436 18.2991 2.7412 -0.4387 2.7990 2.4044 -99.5642 65.1509 159.3521 4.0497 -6.3492 -55.4559 -8.9608 1.6137 -7.3529 -18.2653 -9.8666 -11.3963 -2.0276 6.5590 9.0336 -5.1889 0.3082 3.5410 -5.2349 0.3426 0.4306 2.7217 31.2000 -9.0065 2.1908 -39.7166 1.0386 98.1416 60.4945 -160.8290 -3.5500 6.1073 51.0323 -1.9878 4.5621 34.1715 9.4872 -11.7599 12.9244 1.8033 3.9791 -15.0986 4.8986 3.0048 -9.3103 5.2244 0.3950 2.0147 
-0.0479 0.2307 1.0383 3.6793 37.9369 -7.3582 -4.3233 -86.9081 175.7650 11.9279 -71.3004 11.7113 -10.9447 80.5898 10.9017 -2.3858 28.4528 0.0000 90.2933 -80.3623 -94.0026 -17.3063 -74.8317 -11.7484 34.9734 79.4589 -23.9008 2.3847 28.3887 -0.0000 -15.5082 14.9312 1.6013 -2.4644 18.3670 2.7230 -0.6288 2.8080 2.4349 -99.7141 65.1480 158.9650 4.4280 -7.4803 -55.0177 -11.0742 1.6654 -7.4276 -18.9765 -10.4092 -11.1870 -2.0276 6.5590 9.0336 -5.1889 0.3082 3.5410 -5.2349 0.3426 0.4306 2.7970 31.2405 -9.0298 1.9655 -39.9074 0.9966 98.1141 60.9312 -160.6116 -3.4758 5.6568 51.3803 -1.7299 4.7244 34.1687 9.2599 -12.6248 12.7634 1.8033 3.9791 -15.0986 4.8986 3.0048 -9.3103 5.2244 0.3950 2.0147 
-0.0480 0.2320 1.0289 3.5369 38.0366 -7.2605 -5.8093 -88.0086 174.0385 12.6912 -72.7457 12.5369 -10.4704 80.9231 10.4831 -2.3858 28.4528 0.0000 96.8595 -80.3560 -87.6648 -18.5156 -76.1058 -12.9916 35.8748 79.6227 -24.8249 2.3847 28.3887 -0.0000 -15.4343 15.0232 1.5366 -2.4620 18.4464 2.6404 -0.8630 2.8208 2.4822 -99.8647 65.2520 158.4689 4.7801 -8.4436 -54.4615 -13.0766 1.7198 -7.5083 -19.8412 -11.8183 -11.0670 -2.0276 6.5590 9.0336 -5.1889 0.3082 3.5410 -5.2349 0.3426 0.4306 2.8889 31.2244 -9.0554 1.6592 -40.0664 0.8490 98.0926 61.4561 -160.3070 -3.4720 5.1331 51.6553 -1.3080 4.9686 34.1343 9.1535 -13.8408 12.6593 1.8033 3.9791 -15.0986 4.8986 3.0048 -9.3103 5.2244 0.3950 2.0147 
-0.0481 0.2330 1.0217 3.4363 38.0613 -7.1637 -9.7224 -88.7970 169.9398 13.2240 -73.8327 13.1201 -9.9924 81.1320 10.0800 -2.3858 28.4528 0.0000 101.4924 -80.3061 -83.2055 -19.4199 -77.0569 -13.9252 36.4930 79.7648 -25.4790 2.3847 28.3887 -0.0000 -15.3400 15.1110 1.4759 -2.4330 18.4999 2.5285 -1.0758 2.8422 2.5318 -99.9791 65.4106 158.0054 5.0564 -9.0388 -53.9720 -14.5844 1.7635 -7.5741 -20.5804 -13.5161 -11.0314 -2.0276 6.5590 9.0336 -5.1889 0.3082 3.5410 -5.2349 0.3426 0.4306 2.9718 31.1704 -9.0764 1.3641 -40.1640 0.6573 98.0785 61.9242 -160.0070 -3.5482 4.6866 51.8407 -0.8584 5.2075 34.0248 9.1662 -15.0445 12.6155 1.8033 3.9791 -15.0986 4.8986 3.0048 -9.3103 5.2244 0.3950 2.0147 
-0.0483 0.2339 1.0156 3.3497 38.0575 -7.0873 -19.9110 -89.4447 159.5808 13.6971 -74.7467 13.6353 -9.4146 81.2801 9.5678 -2.3858 28.4528 0.0000 105.2602 -80.2138 -79.5880 -20.3224 -77.8514 -14.8514 36.9449 79.8641 -25.9427 2.3847 28.3887 -0.0000 -15.2164 15.1988 1.4142 -2.3836 18.5167 2.4186 -1.2914 2.8769 2.5892 -100.0872 65.5869 157.5313 5.4041 -9.5749 -53.5038 -16.0999 1.8060 -7.6360 -21.3399 -15.3430 -11.0046 -2.0276 6.5590 9.0336 -5.1889 0.3082 3.5410 -5.2349 0.3426 0.4306 3.0516 31.1117 -9.1007 1.0716 -40.2584 0.4727 98.0600 62.3951 -159.6977 -3.7006 4.2646 52.0466 -0.3564 5.4483 33.7960 9.2447 -16.3205 12.5670 1.8033 3.9791 -15.0986 4.8986 3.0048 -9.3103 5.2244 0.3950 2.0147 
-0.0483 0.2350 1.0094 3.2624 37.9718 -7.1162 -132.6242 -89.9051 46.7253 14.4033 -75.6238 14.3753 -8.8703 81.4178 9.0389 -2.3858 28.4528 0.0000 108.5374 -80.0290 -76.4085 -21.9675 -78.6262 -16.5091 37.1097 79.8227 -26.0209 2.3847 28.3887 -0.0000 -15.0550 15.2928 1.3760 -2.3444 18.6139 2.3467 -1.5411 2.7973 2.7318 -100.1422 66.0128 156.9014 6.0726 -10.0684 -52.9461 -17.9447 1.8536 -7.7020 -22.3066 -17.5137 -11.3137 -2.0276 6.5590 9.0336 -5.1889 0.3082 3.5410 -5.2349 0.3426 0.4306 3.0979 30.9871 -9.1734 0.8150 -40.3483 0.3981 98.0453 62.9473 -159.2891 -4.0583 3.8373 52.2833 0.8283 5.9657 33.2440 9.9421 -17.4209 12.5100 1.8033 3.9791 -15.0986 4.8986 3.0048 -9.3103 5.2244 0.3950 2.0147 
-0.0484 0.2359 1.0046 3.1963 37.8816 -7.1491 175.8968 -89.4953 -4.8728 14.9735 -76.2766 14.9707 -8.3638 81.4932 8.5464 -2.3858 28.4528 0.0000 110.8257 -79.8635 -74.1918 -23.4150 -79.1901 -17.9655 37.1772 79.7640 -26.0101 2.3847 28.3887 -0.0000 -14.8919 15.3744 1.3411 -2.2843 18.6820 2.2786 -1.7676 2.7380 2.8570 -100.1816 66.3809 156.3479 6.6943 -10.4509 -52.4895 -19.5345 1.8923 -7.7534 -23.1724 -19.4738 -11.5584 -2.0276 6.5590 9.0336 -5.1889 0.3082 3.5410 -5.2349 0.3426 0.4306 3.1378 30.8791 -9.2360 0.5923 -40.4241 0.3322 98.0255 63.4249 -158.9288 -4.4325 3.4950 52.5171 1.8726 6.3681 32.6242 10.5592 -18.4239 12.4413 1.8033 3.9791 -15.0986 4.8986 3.0048 -9.3103 5.2244 0.3950 2.0147 
-0.0484 0.2368 1.0004 3.1602 37.7836 -7.2362 168.4937 -89.1122 -12.3519 15.6814 -76.8015 15.6939 -7.8563 81.5389 7.9750 -2.3858 28.4528 0.0000 112.5818 -79.6486 -72.4788 -24.8787 -79.6663 -19.4365 37.3416 79.7305 -26.1042 2.3847 28.3887 -0.0000 -14.7494 15.4273 1.3223 -2.2652 18.8347 2.2441 -1.9685 2.5301 2.9865 -100.1535 66.8276 155.8472 7.3762 -10.6808 -52.1271 -20.8094 1.9273 -7.8027 -23.7828 -21.2462 -11.8303 -2.0276 6.5590 9.0336 -5.1889 0.3082 3.5410 -5.2349 0.3426 0.4306 3.2253 30.8836 -9.3179 0.3607 -40.6781 0.2456 98.0048 63.8725 -158.5698 -4.9832 3.0626 52.7721 3.0821 6.7979 31.9058 11.2103 -19.4182 12.6045 1.8033 3.9791 -15.0986 4.8986 3.0048 -9.3103 5.2244 0.3950 2.0147 
-0.0483 0.2378 0.9965 3.1367 37.6552 -7.3610 163.2419 -88.7644 -17.6615 16.4981 -77.2643 16.5215 -7.2730 81.5667 7.2831 -2.3858 28.4528 0.0000 113.9387 -79.4012 -71.1492 -26.4862 -80.0974 -21.0500 37.5568 79.6993 -26.2396 2.3847 28.3887 -0.0000 -14.5909 15.4749 1.3069 -2.2553 19.0273 2.2169 -2.1843 2.2353 3.1350 -100.0804 67.3677 155.3005 8.1776 -10.8590 -51.7639 -22.0885 1.9643 -7.8554 -24.3667 -23.1473 -12.1362 -2.0276 6.5590 9.0336 -5.1889 0.3082 3.5410 -5.2349 0.3426 0.4306 3.3472 30.9430 -9.4197 0.0945 -41.0481 0.1360 97.9768 64.3615 -158.1624 -5.7018 2.5359 53.0524 4.5278 7.2700 31.0635 11.9692 -20.5393 12.8712 1.8033 3.9791 -15.0986 4.8986 3.0048 -9.3103 5.2244 0.3950 2.0147 
-0.0482 0.2386 0.9938 3.1279 37.5444 -7.4848 158.8771 -88.5216 -22.0599 17.0054 -77.5722 17.0376 -6.6991 81.5537 6.6509 -2.3858 28.4528 0.0000 114.6687 -79.1865 -70.4282 -27.6359 -80.3922 -22.2050 37.6779 79.6446 -26.3092 2.3847 28.3887 -0.0000 -14.4476 15.5047 1.2881 -2.2537 19.1871 2.1884 -2.3733 1.9723 3.2816 -100.0221 67.7502 154.8965 8.7917 -10.9949 -51.5110 -22.9319 1.9940 -7.9003 -24.6716 -24.9471 -12.3162 -2.0276 6.5590 9.0336 -5.1889 0.3082 3.5410 -5.2349 0.3426 0.4306 3.4465 30.9584 -9.5417 -0.1186 -41.3262 0.0692 97.9477 64.7452 -157.8397 -6.2870 2.1795 53.3091 5.4710 7.5212 30.3954 12.3508 -21.8619 12.9536 1.8033 3.9791 -15.0986 4.8986 3.0048 -9.3103 5.2244 0.3950 2.0147 
-0.0479 0.2392 0.9917 3.1427 37.4598 -7.6667 153.0265 -88.2757 -27.9188 17.0909 -77.8147 17.1363 -5.8909 81.4598 5.8782 -2.3858 28.4528 0.0000 115.0930 -78.9051 -69.9892 -28.2842 -80.6548 -22.8626 37.6515 79.5197 -26.2867 2.3847 28.3887 -0.0000 -14.2931 15.5007 1.2566 -2.2881 19.3900 2.1533 -2.5900 1.6320 3.4928 -100.0013 67.9261 154.6818 9.2211 -11.1252 -51.4110 -23.0978 2.0177 -7.9470 -24.3573 -27.3671 -12.3023 -2.0276 6.5590 9.0336 -5.1889 0.3082 3.5410 -5.2349 0.3426 0.4306 3.5377 30.8698 -9.7761 -0.3003 -41.5148 0.0843 97.9157 65.0546 -157.5841 -6.7838 2.0610 53.6685 5.5860 7.4197 29.8305 11.9292 -24.3375 12.6809 1.8033 3.9791 -15.0986 4.8986 3.0048 -9.3103 5.2244 0.3950 2.0147 
-0.0475 0.2396 0.9906 3.1575 37.3619 -7.8228 147.4370 -88.1302 -33.5046 17.0501 -77.9456 17.1042 -5.1454 81.3800 5.1591 -2.3858 28.4528 0.0000 115.0195 -78.6933 -70.0406 -28.6918 -80.8135 -23.2758 37.6368 79.4132 -26.2663 2.3847 28.3887 -0.0000 -14.1530 15.4997 1.2256 -2.3150 19.5373 2.1177 -2.7762 1.3515 3.6773 -99.9818 68.0787 154.4939 9.5847 -11.2369 -51.2978 -23.2363 2.0386 -7.9872 -24.0867 -29.4183 -12.2724 -2.0276 6.5590 9.0336 -5.1889 0.3082 3.5410 -5.2349 0.3426 0.4306 3.6164 30.7926 -9.9794 -0.4564 -41.6764 0.0978 97.8851 65.3229 -157.3599 -7.2094 1.9432 53.9149 5.6641 7.3576 29.4680 11.5454 -26.4389 12.4221 1.8033 3.9791 -15.0986 4.8986 3.0048 -9.3103 5.2244 0.3950 2.0147 
-0.0472 0.2399 0.9901 3.1818 37.2602 -8.0035 141.2809 -88.0288 -39.6250 16.8499 -77.9897 16.9103 -4.4729 81.2433 4.4920 -2.3858 28.4528 0.0000 114.6569 -78.5034 -70.3532 -28.8169 -80.9112 -23.4056 37.3637 79.2579 -26.0329 2.3847 28.3887 -0.0000 -13.9868 15.4966 1.2158 -2.3238 19.6751 2.0763 -3.0011 1.1527 3.8536 -99.8587 68.3721 154.3787 9.4126 -10.8706 -51.5303 -23.0451 2.0595 -8.0338 -24.1882 -32.3866 -12.5608 -2.0276 6.5590 9.0336 -5.1889 0.3082 3.5410 -5.2349 0.3426 0.4306 3.5679 30.4662 -10.1368 -0.6002 -41.4634 0.1309 97.8743 65.4129 -157.2807 -7.4402 1.8660 54.3243 5.8193 7.3699 29.2468 11.4336 -29.4709 12.3876 1.8033 3.9791 -15.0986 4.8986 3.0048 -9.3103 5.2244 0.3950 2.0147 
-0.0469 0.2402 0.9906 3.2188 37.1219 -8.2113 132.3745 -87.9736 -48.4705 16.4432 -77.9166 16.5067 -3.6837 81.0710 3.7015 -2.3858 28.4528 0.0000 113.7074 -78.3304 -71.2279 -28.6527 -80.9201 -23.2433 37.0228 79.0711 -25.7354 2.3847 28.3887 -0.0000 -13.7830 15.4925 1.2034 -2.3192 19.7997 2.0206 -3.2598 0.9636 4.0506 -99.6931 68.7324 154.2638 9.0759 -10.3572 -51.8772 -22.7463 2.0828 -8.0864 -24.4363 -35.8491 -12.9669 -2.0276 6.5590 9.0336 -5.1889 0.3082 3.5410 -5.2349 0.3426 0.4306 3.4829 30.0440 -10.3026 -0.7542 -41.1363 0.1754 97.8673 65.4709 -157.2279 -7.6708 1.7891 54.8249 5.9977 7.4118 29.0949 11.3777 -33.0012 12.3821 1.8033 3.9791 -15.0986 4.8986 3.0048 -9.3103 5.2244 0.3950 2.0147 
-0.0466 0.2404 0.9919 3.2659 36.9811 -8.3866 122.8323 -87.9485 -57.9405 15.8880 -77.7516 15.9525 -3.0162 80.8785 3.0517 -2.3858 28.4528 0.0000 112.4398 -78.2185 -72.4133 -28.0955 -80.8493 -22.6869 36.6564 78.9036 -25.4220 2.3847 28.3887 -0.0000 -13.5839 15.4794 1.1808 -2.3059 19.9007 1.9680 -3.4975 0.8123 4.1946 -99.5481 69.0105 154.2168 8.8702 -10.1159 -52.2259 -22.5297 2.1026 -8.1307 -24.7221 -39.0226 -13.5429 -2.0276 6.5590 9.0336 -5.1889 0.3082 3.5410 -5.2349 0.3426 0.4306 3.3641 29.5691 -10.3367 -0.9653 -40.6957 0.0931 97.8635 65.4810 -157.2234 -7.8133 1.8100 55.3034 6.0360 7.4212 29.0384 11.2841 -36.1535 12.3326 1.8033 3.9791 -15.0986 4.8986 3.0048 -9.3103 5.2244 0.3950 2.0147 
-0.0463 0.2405 0.9938 3.3250 36.8336 -8.5407 112.2802 -87.9216 -68.4067 15.1817 -77.5061 15.2462 -2.4652 80.6444 2.5440 -2.3858 28.4528 0.0000 110.8786 -78.1484 -73.8828 -27.1420 -80.7134 -21.7345 36.2209 78.7425 -25.0648 2.3847 28.3887 -0.0000 -13.3772 15.4548 1.1487 -2.2859 19.9938 1.9195 -3.7348 0.6863 4.2879 -99.4165 69.2190 154.2491 8.8105 -10.1629 -52.6000 -22.3897 2.1232 -8.1737 -25.1083 -42.1584 -14.4065 -2.0276 6.5590 9.0336 -5.1889 0.3082 3.5410 -5.2349 0.3426 0.4306 3.1957 28.9843 -10.2197 -1.2616 -40.0767 -0.1432 97.8630 65.4355 -157.2753 -7.8587 1.9547 55.7868 5.9180 7.3871 29.0562 11.1279 -39.1726 12.2301 1.8033 3.9791 -15.0986 4.8986 3.0048 -9.3103 5.2244 0.3950 2.0147 
-0.0460 0.2405 0.9967 3.3896 36.6338 -8.7147 98.3130 -87.8173 -82.2653 14.2930 -77.1254 14.3552 -1.8382 80.3616 1.9616 -2.3858 28.4528 0.0000 108.6454 -78.0820 -76.0006 -25.8844 -80.4662 -20.4756 35.7280 78.5512 -24.6604 2.3847 28.3887 -0.0000 -13.1289 15.4245 1.1138 -2.2577 20.0645 1.8607 -4.0042 0.5596 4.3943 -99.2661 69.4548 154.2863 8.7625 -10.1979 -53.0045 -22.2280 2.1432 -8.2172 -25.6897 -45.6959 -15.4713 -2.0276 6.5590 9.0336 -5.1889 0.3082 3.5410 -5.2349 0.3426 0.4306 3.0054 28.3136 -10.0893 -1.5889 -39.3644 -0.4004 97.8622 65.3834 -157.3362 -7.9164 2.1250 56.2710 5.7726 7.3605 29.1348 10.9262 -42.5930 12.0734 1.8033 3.9791 -15.0986 4.8986 3.0048 -9.3103 5.2244 0.3950 2.0147 
-0.0456 0.2404 0.9998 3.4442 36.4443 -8.7900 86.0852 -87.6839 -94.4116 13.3045 -76.7343 13.3683 -1.2222 80.0958 1.4557 -2.3858 28.4528 0.0000 106.3897 -78.1051 -78.1502 -24.6965 -80.1571 -19.2839 35.2895 78.3543 -24.2578 2.3847 28.3887 -0.0000 -12.8757 15.3664 1.0356 -2.2237 20.1835 1.7505 -4.2282 0.3669 4.4655 -99.2725 69.3411 154.4870 8.4276 -9.9600 -53.3875 -22.3525 2.1630 -8.2540 -26.5991 -47.9585 -16.1219 -2.0276 6.5590 9.0336 -5.1889 0.3082 3.5410 -5.2349 0.3426 0.4306 2.7649 27.5128 -9.9001 -1.8679 -38.4996 -0.5812 97.8370 65.3373 -157.4541 -7.8683 2.6150 56.6571 5.6962 7.3655 29.2297 11.4384 -45.2501 12.5291 1.8033 3.9791 -15.0986 4.8986 3.0048 -9.3103 5.2244 0.3950 2.0147 
-0.0450 0.2403 1.0034 3.4895 36.2243 -8.8648 73.9913 -87.4314 -106.4173 12.2936 -76.2614 12.3578 -0.6590 79.8083 1.0000 -2.3858 28.4528 0.0000 103.7500 -78.1205 -80.6759 -23.4377 -79.7692 -18.0195 34.8242 78.1437 -23.8366 2.3847 28.3887 -0.0000 -12.6114 15.3050 0.9650 -2.1890 20.2692 1.6431 -4.4540 0.1883 4.5342 -99.2780 69.2256 154.6896 8.1461 -9.6698 -53.7204 -22.4745 2.1826 -8.2901 -27.5787 -50.1907 -16.8197 -2.0276 6.5590 9.0336 -5.1889 0.3082 3.5410 -5.2349 0.3426 0.4306 2.5256 26.6998 -9.7147 -2.1386 -37.6206 -0.7506 97.8114 65.2905 -157.5745 -7.8148 3.1134 56.9035 5.6047 7.3890 29.4119 11.9940 -47.8860 13.0033 1.8033 3.9791 -15.0986 4.8986 3.0048 -9.3103 5.2244 0.3950 2.0147 
-0.0443 0.2401 1.0084 3.5193 35.9310 -8.9172 60.5442 -87.0127 -119.7465 11.1453 -75.5785 11.2069 -0.0964 79.4439 0.5364 -2.3858 28.4528 0.0000 100.1071 -78.1662 -84.1755 -22.1230 -79.1663 -16.6911 34.2331 77.8859 -23.2470 2.3847 28.3887 -0.0000 -12.2894 15.2196 0.8880 -2.1370 20.3968 1.5004 -4.6984 -0.0845 4.5997 -99.3050 69.0344 154.9564 7.8756 -9.2663 -54.0484 -22.5632 2.2026 -8.3274 -28.8687 -52.6525 -17.8834 -2.0276 6.5590 9.0336 -5.1889 0.3082 3.5410 -5.2349 0.3426 0.4306 2.2531 25.6536 -9.5022 -2.4517 -36.5216 -0.9604 97.7904 65.1706 -157.7603 -7.7512 3.6435 57.0069 5.4277 7.4212 29.7497 12.3502 -50.7790 13.2431 1.8033 3.9791 -15.0986 4.8986 3.0048 -9.3103 5.2244 0.3950 2.0147 
-0.0435 0.2398 1.0141 3.5303 35.6131 -8.9394 49.0841 -86.4439 -131.0770 10.0808 -74.7785 10.1369 0.3652 79.0630 0.1511 -2.3858 28.4528 0.0000 95.9717 -78.2083 -88.1605 -20.9877 -78.4330 -15.5353 33.6122 77.6217 -22.5817 2.3847 28.3887 -0.0000 -11.9653 15.1254 0.8171 -2.0746 20.5314 1.3467 -4.9178 -0.3937 4.6512 -99.3457 68.8044 155.2361 7.6543 -8.8312 -54.3173 -22.6025 2.2213 -8.3627 -30.2738 -54.8634 -19.1514 -2.0276 6.5590 9.0336 -5.1889 0.3082 3.5410 -5.2349 0.3426 0.4306 1.9979 24.5666 -9.3028 -2.7476 -35.4028 -1.1690 97.7766 65.0021 -157.9758 -7.6893 4.1131 56.9686 5.1992 7.4547 30.1812 12.3939 -53.3810 13.1703 1.8033 3.9791 -15.0986 4.8986 3.0048 -9.3103 5.2244 0.3950 2.0147 
-0.0427 0.2396 1.0202 3.5310 35.2772 -8.9497 40.4202 -85.7319 -139.6134 9.1100 -73.9055 9.1596 0.7522 78.6736 -0.1660 -2.3858 28.4528 0.0000 91.5244 -78.1987 -92.4564 -19.9245 -77.6272 -14.4496 32.9709 77.3438 -21.8955 2.3847 28.3887 -0.0000 -11.6490 15.0317 0.7536 -2.0099 20.6268 1.2034 -5.1193 -0.6767 4.6867 -99.3757 68.5950 155.5006 7.4911 -8.3779 -54.5390 -22.6292 2.2358 -8.3906 -31.6620 -56.7945 -20.4007 -2.0276 6.5590 9.0336 -5.1889 0.3082 3.5410 -5.2349 0.3426 0.4306 1.7499 23.5186 -9.0669 -3.0335 -34.3234 -1.3813 97.7571 64.8550 -158.1810 -7.6483 4.5293 56.8306 4.9801 7.5047 30.6707 12.3798 -55.6743 13.0776 1.8033 3.9791 -15.0986 4.8986 3.0048 -9.3103 5.2244 0.3950 2.0147 
-0.0417 0.2393 1.0277 3.4985 34.8164 -8.8668 32.4071 -84.7750 -147.5228 8.1026 -72.8624 8.1461 1.1337 78.1965 -0.4798 -2.3858 28.4528 0.0000 85.7938 -78.1902 -98.0242 -18.9139 -76.6267 -13.4080 32.0579 76.9434 -20.9090 2.3847 28.3887 -0.0000 -11.2739 14.9315 0.6575 -1.9220 20.8283 1.0465 -5.3179 -1.1157 4.6214 -99.3572 68.4257 155.8383 7.3877 -7.6926 -54.8393 -22.5972 2.2516 -8.4213 -33.0999 -58.7390 -21.6719 -2.0276 6.5590 9.0336 -5.1889 0.3082 3.5410 -5.2349 0.3426 0.4306 1.3566 22.0885 -8.2802 -3.5290 -32.8549 -1.8869 97.6803 64.7987 -158.4365 -7.8137 4.7816 56.6804 4.8242 7.6026 31.2403 12.3362 -57.8626 13.2170 1.8033 3.9791 -15.0986 4.8986 3.0048 -9.3103 5.2244 0.3950 2.0147 
-0.0407 0.2389 1.0347 3.4682 34.3684 -8.7885 27.1502 -83.7880 -152.6778 7.2750 -71.8629 7.3137 1.4615 77.7659 -0.7393 -2.3858 28.4528 0.0000 80.3222 -78.0656 -103.3414 -18.0829 -75.6720 -12.5471 31.3158 76.5873 -20.0939 2.3847 28.3887 -0.0000 -10.9271 14.8330 0.5710 -1.8391 20.9584 0.9085 -5.4958 -1.4875 4.5594 -99.3385 68.2737 156.1394 7.3664 -7.0198 -55.0669 -22.5630 2.2653 -8.4479 -34.4102 -60.2945 -22.8469 -2.0276 6.5590 9.0336 -5.1889 0.3082 3.5410 -5.2349 0.3426 0.4306 1.0237 20.7989 -7.5886 -3.9430 -31.5302 -2.3116 97.6115 64.7479 -158.6672 -8.0156 5.0293 56.4372 4.6657 7.7071 31.8508 12.2430 -59.6378 13.2962 1.8033 3.9791 -15.0986 4.8986 3.0048 -9.3103 5.2244 0.3950 2.0147 
-0.0398 0.2386 1.0418 3.3723 33.8664 -8.5845 22.5780 -82.7606 -157.2138 6.6092 -70.9051 6.6428 1.6744 77.3581 -0.8987 -2.3858 28.4528 0.0000 74.5351 -77.9053 -109.0411 -17.3976 -74.6991 -11.8295 30.5856 76.2428 -19.2740 2.3847 28.3887 -0.0000 -10.5622 14.7392 0.4733 -1.7163 21.1279 0.7289 -5.6471 -1.8997 4.4588 -99.2614 68.2143 156.4687 7.4094 -6.1806 -55.3565 -22.4887 2.2757 -8.4691 -35.1575 -61.5551 -23.3745 -2.0276 6.5590 9.0336 -5.1889 0.3082 3.5410 -5.2349 0.3426 0.4306 0.6838 19.2635 -6.8167 -4.3615 -29.9522 -2.7364 97.5312 64.6958 -158.9276 -8.3576 5.1764 56.1692 4.7649 7.9453 32.5087 12.5444 -60.9939 13.7384 1.8033 3.9791 -15.0986 4.8986 3.0048 -9.3103 5.2244 0.3950 2.0147 
-0.0387 0.2382 1.0503 3.2266 33.2396 -8.2825 18.2809 -81.4718 -161.4956 5.9463 -69.7541 5.9726 1.8662 76.8823 -1.0380 -2.3858 28.4528 -0.0000 67.5730 -77.5710 -115.9283 -16.6840 -73.4978 -11.0745 29.7682 75.8430 -18.3391 2.3847 28.3887 -0.0000 -10.1400 14.6224 0.3573 -1.5552 21.2854 0.5045 -5.8052 -2.3643 4.3229 -99.1421 68.1992 156.8575 7.5743 -5.0701 -55.6737 -22.3781 2.2863 -8.4914 -35.5428 -62.6812 -23.4995 -2.0276 6.5590 9.0336 -5.1889 0.3082 3.5410 -5.2349 0.3426 0.4306 0.3162 17.3857 -5.9111 -4.8117 -28.0229 -3.1923 97.4343 64.6359 -159.2401 -8.8792 5.3101 55.7378 4.9990 8.3159 33.3736 13.0903 -62.1359 14.4344 1.8033 3.9791 -15.0986 4.8986 3.0048 -9.3103 5.2244 0.3950 2.0147 
-0.0373 0.2378 1.0598 3.1033 32.5594 -7.9887 14.8260 -80.0014 -164.8896 5.3632 -68.4229 5.3772 2.0180 76.3247 -1.1742 -2.3858 28.4528 -0.0000 60.3946 -76.9839 -122.9877 -15.9820 -72.1338 -10.3247 28.8971 75.3965 -17.3546 2.3847 28.3887 -0.0000 -9.7102 14.4858 0.2503 -1.3810 21.3923 0.2664 -5.9785 -2.8225 4.1795 -98.9741 68.2737 157.2618 7.8588 -3.7871 -56.0183 -22.2436 2.2945 -8.5096 -35.8131 -63.5439 -23.5830 -2.0276 6.5590 9.0336 -5.1889 0.3082 3.5410 -5.2349 0.3426 0.4306 -0.0160 15.3289 -5.1025 -5.1893 -25.9189 -3.5312 97.3240 64.5237 -159.6388 -9.5010 5.3791 55.2061 5.1774 8.7196 34.4015 13.4540 -62.9044 15.0770 1.8033 3.9791 -15.0986 4.8986 3.0048 -9.3103 5.2244 0.3950 2.0147 
-0.0361 0.2375 1.0685 3.0477 31.9496 -7.7607 12.2888 -78.6427 -167.3069 4.9961 -67.1651 4.9906 2.0510 75.7468 -1.2697 -2.3858 28.4528 -0.0000 54.4291 -76.2962 -128.7942 -15.4295 -70.8795 -9.7271 28.0411 74.9599 -16.4232 2.3847 28.3887 -0.0000 -9.3353 14.3628 0.1753 -1.2053 21.4926 0.0369 -6.1540 -3.2436 4.0437 -98.7349 68.5176 157.6358 8.1649 -2.4933 -56.4637 -22.0894 2.3005 -8.5236 -36.0648 -64.0700 -23.7553 -2.0276 6.5590 9.0336 -5.1889 0.3082 3.5410 -5.2349 0.3426 0.4306 -0.2684 13.2421 -4.5916 -5.4195 -23.7999 -3.6333 97.2025 64.3237 -160.1448 -10.1109 5.2609 54.8067 5.2611 9.0764 35.4021 13.4648 -63.1574 15.5537 1.8033 3.9791 -15.0986 4.8986 3.0048 -9.3103 5.2244 0.3950 2.0147 
-0.0345 0.2369 1.0790 2.9872 31.2248 -7.4965 9.9667 -76.9787 -169.4840 4.6075 -65.6321 4.5785 2.0759 75.0553 -1.3538 -2.3858 28.4528 -0.0000 48.0835 -75.2895 -134.9475 -14.8475 -69.3525 -9.0888 27.0709 74.4315 -15.3486 2.3847 28.3887 -0.0000 -8.8883 14.1919 0.0911 -0.9958 21.5401 -0.2124 -6.3611 -3.6995 3.8780 -98.4598 68.8018 158.0707 8.5730 -0.9412 -56.9427 -21.9099 2.3058 -8.5366 -36.0966 -64.3822 -23.7785 -2.0276 6.5590 9.0336 -5.1889 0.3082 3.5410 -5.2349 0.3426 0.4306 -0.5352 10.8203 -4.0172 -5.6615 -21.3446 -3.7234 97.0584 64.0918 -160.7300 -10.8568 5.1378 54.2465 5.3208 9.5196 36.6831 13.3348 -63.1195 16.0067 1.8033 3.9791 -15.0986 4.8986 3.0048 -9.3103 5.2244 0.3950 2.0147 
-0.0331 0.2363 1.0880 2.9000 30.5389 -7.2176 8.2876 -75.4681 -171.0817 4.3196 -64.3223 4.2702 2.0906 74.4968 -1.4263 -2.3858 28.4528 -0.0000 43.0537 -74.2698 -139.8449 -14.4651 -68.0187 -8.6521 26.3715 73.9887 -14.5543 2.3847 28.3887 -0.0000 -8.5215 14.0453 0.0205 -0.8428 21.6290 -0.4010 -6.5353 -4.2110 3.6990 -98.0731 69.3349 158.4838 9.0234 0.6426 -57.4597 -21.6996 2.3066 -8.5423 -36.3165 -64.3663 -24.1190 -2.0276 6.5590 9.0336 -5.1889 0.3082 3.5410 -5.2349 0.3426 0.4306 -0.7299 8.2556 -3.4631 -5.8939 -18.7871 -3.8504 96.9028 64.1504 -161.0861 -11.5289 5.5120 53.7497 5.1198 9.7696 37.8154 12.7438 -62.7645 15.9566 1.8033 3.9791 -15.0986 4.8986 3.0048 -9.3103 5.2244 0.3950 2.0147 
-0.0314 0.2354 1.0987 2.8032 29.7193 -6.8783 6.6880 -73.6549 -172.5966 4.0232 -62.7901 3.9501 2.1141 73.8664 -1.4990 -2.3858 28.4528 0.0000 37.8886 -72.9304 -144.8641 -14.0917 -66.4558 -8.2113 25.6364 73.4793 -13.6844 2.3847 28.3887 -0.0000 -8.0831 13.8452 -0.0653 -0.6627 21.6993 -0.5979 -6.7415 -4.8144 3.4718 -97.5849 70.0308 158.9748 9.5820 2.5618 -58.0768 -21.4452 2.3070 -8.5474 -36.3695 -64.0190 -24.4390 -2.0276 6.5590 9.0336 -5.1889 0.3082 3.5410 -5.2349 0.3426 0.4306 -0.9204 5.1401 -2.8124 -6.1485 -15.6916 -3.9847 96.7147 64.2817 -161.4699 -12.3402 6.0774 53.1373 4.7941 10.0431 39.2670 11.8242 -61.9897 15.7468 1.8033 3.9791 -15.0986 4.8986 3.0048 -9.3103 5.2244 0.3950 2.0147 
-0.0294 0.2343 1.1098 2.7150 28.8816 -6.5003 5.3614 -71.7530 -173.8519 3.8176 -61.1533 3.7103 2.2014 73.2188 -1.6580 -2.3858 28.4528 0.0000 33.2843 -71.4115 -149.3200 -13.7903 -64.7768 -7.8306 25.0264 72.9459 -12.8947 2.3847 28.3887 -0.0000 -7.6408 13.6224 -0.1729 -0.4751 21.7249 -0.8236 -6.9350 -5.4095 3.2693 -96.9373 71.0485 159.4447 10.2207 4.7210 -58.8698 -21.1648 2.3049 -8.5485 -36.1529 -63.3592 -24.5460 -2.0276 6.5590 9.0336 -5.1889 0.3082 3.5410 -5.2349 0.3426 0.4306 -1.0745 1.9550 -2.3872 -6.3223 -12.5454 -3.9146 96.4087 64.7380 -161.8975 -13.1882 7.0135 52.7312 4.3808 10.2808 40.8148 10.8572 -61.0423 15.4792 1.8033 3.9791 -15.0986 4.8986 3.0048 -9.3103 5.2244 0.3950 2.0147 
-0.0275 0.2334 1.1200 2.6313 28.1148 -6.1211 4.3313 -70.0070 -174.8471 3.7279 -59.6442 3.5778 2.2777 72.6439 -1.8383 -2.3858 28.4528 0.0000 29.6057 -69.9425 -152.8760 -13.6005 -63.2033 -7.5575 24.5393 72.4593 -12.2075 2.3847 28.3887 -0.0000 -7.2397 13.4370 -0.2820 -0.2974 21.7501 -1.0588 -7.0916 -5.9569 3.1157 -96.1508 72.3378 159.8203 10.8604 6.9008 -59.8435 -20.8873 2.3008 -8.5456 -35.7713 -62.5285 -24.4852 -2.0276 6.5590 9.0336 -5.1889 0.3082 3.5410 -5.2349 0.3426 0.4306 -1.1980 -0.9776 -2.2645 -6.4119 -9.6687 -3.6331 95.9958 65.5287 -162.3284 -13.9503 8.2682 52.6987 3.9399 10.4231 42.1763 9.9840 -60.1376 15.1990 1.8033 3.9791 -15.0986 4.8986 3.0048 -9.3103 5.2244 0.3950 2.0147 
-0.0253 0.2320 1.1317 2.5380 27.2454 -5.6949 3.3438 -67.9818 -175.8038 3.6367 -57.8859 3.4347 2.2970 71.9779 -1.9652 -2.3858 28.4528 0.0000 25.9824 -68.1667 -156.3640 -13.4033 -61.3629 -7.2585 23.9053 71.8846 -11.3238 2.3847 28.3887 -0.0000 -6.7712 13.2001 -0.3906 -0.0936 21.7284 -1.2924 -7.2718 -6.5462 2.9279 -95.2246 73.7986 160.2016 11.6222 9.3781 -60.9671 -20.5652 2.2931 -8.5371 -35.1131 -61.2876 -24.3238 -2.0276 6.5590 9.0336 -5.1889 0.3082 3.5410 -5.2349 0.3426 0.4306 -1.3302 -4.2834 -2.1367 -6.5197 -6.4307 -3.3017 95.5321 66.4232 -162.8162 -14.8304 9.6849 52.6534 3.4204 10.5745 43.7949 8.8974 -58.7897 14.8908 1.8033 3.9791 -15.0986 4.8986 3.0048 -9.3103 5.2244 0.3950 2.0147 
-0.0236 0.2306 1.1418 2.4940 26.4158 -5.3100 2.4379 -66.1299 -176.6552 3.6552 -56.3502 3.3912 2.2286 71.3774 -2.0504 -2.3858 28.4528 0.0000 23.1284 -66.4794 -159.1099 -12.6574 -59.7836 -6.5000 23.1620 71.4592 -10.6813 2.3847 28.3887 -0.0000 -6.3568 13.0129 -0.4857 0.0750 21.7599 -1.5471 -7.4164 -7.1414 2.7987 -94.3617 75.0783 160.5699 12.4903 11.2946 -62.1086 -20.2347 2.2825 -8.5233 -34.0964 -59.8693 -24.0933 -2.0276 6.5590 9.0336 -5.1889 0.3082 3.5410 -5.2349 0.3426 0.4306 -1.4472 -7.5729 -2.3061 -6.6024 -3.2784 -2.8191 95.0938 67.2906 -163.2577 -15.6870 10.8835 52.7366 2.9932 10.7009 45.1858 7.6817 -57.3098 14.3590 1.8033 3.9791 -15.0986 4.8986 3.0048 -9.3103 5.2244 0.3950 2.0147 
-0.0218 0.2286 1.1530 2.4318 25.4517 -4.8992 1.5395 -63.9949 -177.5016 3.6863 -54.6318 3.3476 1.9922 70.7195 -1.9947 -2.3858 28.4528 0.0000 20.3203 -64.4989 -161.8109 -11.9020 -57.9943 -5.7363 22.2268 70.9772 -9.8813 2.3847 28.3887 -0.0000 -5.8423 12.7939 -0.5461 0.2926 21.7608 -1.7970 -7.5843 -7.7988 2.6313 -93.3154 76.5499 160.9296 13.5079 13.4731 -63.5262 -19.8471 2.2693 -8.5053 -32.7922 -57.9650 -23.8261 -2.0276 6.5590 9.0336 -5.1889 0.3082 3.5410 -5.2349 0.3426 0.4306 -1.5948 -11.3353 -2.5133 -6.7267 0.3218 -2.2527 94.5936 68.2865 -163.7637 -16.6346 12.2330 52.8481 2.4981 10.8196 46.7754 6.2855 -55.3060 13.8490 1.8033 3.9791 -15.0986 4.8986 3.0048 -9.3103 5.2244 0.3950 2.0147 
-0.0202 0.2261 1.1637 2.5046 24.6833 -4.6076 0.8075 -62.0478 -178.1061 3.6390 -52.8767 3.2696 1.9201 70.0408 -2.0610 -2.3858 28.4528 0.0000 18.1472 -62.6518 -163.7997 -11.1716 -56.2279 -5.0143 21.3714 70.4286 -9.1680 2.3847 28.3887 -0.0000 -5.3228 12.3760 -0.6287 0.4621 21.5946 -1.9800 -7.7138 -8.3573 2.3943 -93.1198 76.7563 161.5536 14.4045 14.7013 -64.1916 -19.4758 2.2549 -8.4848 -31.1759 -55.8875 -23.6007 -2.0276 6.5590 9.0336 -5.1889 0.3082 3.5410 -5.2349 0.3426 0.4306 -1.6653 -13.2515 -2.2679 -6.8572 2.2213 -2.1571 94.2600 68.8825 -164.1978 -17.4515 13.3515 52.3509 1.9897 10.9401 48.4709 4.9330 -53.1355 13.4248 1.8033 3.9791 -15.0986 4.8986 3.0048 -9.3103 5.2244 0.3950 2.0147 
-0.0184 0.2226 1.1765 2.7081 23.8949 -4.3321 0.3435 -59.7857 -178.3953 3.6818 -50.6699 3.1490 1.9695 69.1873 -2.2354 -2.3858 28.4528 0.0000 15.9734 -60.4727 -165.6857 -10.3182 -54.0534 -4.1909 20.4396 69.6985 -8.4172 2.3847 28.3887 -0.0000 -4.6783 11.7021 -0.7608 0.6213 21.2583 -2.1416 -7.8410 -8.9718 2.0349 -93.5907 75.9136 162.5367 15.3429 15.3899 -64.3114 -19.0275 2.2354 -8.4558 -28.9609 -53.1447 -23.4195 -2.0276 6.5590 9.0336 -5.1889 0.3082 3.5410 -5.2349 0.3426 0.4306 -1.6692 -14.0352 -1.5635 -6.9934 3.1154 -2.4543 93.9925 69.2753 -164.6754 -18.3275 14.5487 51.2757 1.3687 11.0597 50.5531 3.3517 -50.2900 13.0303 1.8033 3.9791 -15.0986 4.8986 3.0048 -9.3103 5.2244 0.3950 2.0147 
-0.0169 0.2193 1.1876 2.8761 23.1972 -4.0877 -0.2197 -57.7641 -178.7924 3.6311 -48.7104 3.0435 1.9363 68.4377 -2.3059 -2.3858 28.4528 0.0000 14.2696 -58.5042 -167.1494 -9.6415 -52.1059 -3.5501 19.6219 69.0455 -7.7704 2.3847 28.3887 -0.0000 -4.0988 11.0985 -0.8501 0.7715 20.9257 -2.2495 -7.9568 -9.4915 1.7103 -93.9290 75.1863 163.3251 16.1403 15.9614 -64.4123 -18.6223 2.2175 -8.4288 -26.9648 -50.5571 -23.2875 -2.0276 6.5590 9.0336 -5.1889 0.3082 3.5410 -5.2349 0.3426 0.4306 -1.6705 -14.6823 -1.0018 -7.0955 3.8659 -2.6757 93.7950 69.5044 -165.1224 -19.0596 15.5043 50.3486 0.8393 11.1252 52.3086 2.0235 -47.5792 12.8273 1.8033 3.9791 -15.0986 4.8986 3.0048 -9.3103 5.2244 0.3950 2.0147 
-0.0158 0.2156 1.1984 2.9829 22.5583 -3.8443 -0.7423 -55.7400 -179.1749 3.5803 -46.7145 2.9117 1.6771 67.6226 -2.1886 -2.3858 28.4528 0.0000 12.6846 -56.5438 -168.5008 -8.9672 -50.1081 -2.9334 18.4501 68.3046 -6.8544 2.3847 28.3887 -0.0000 -3.5508 10.4325 -0.7968 1.0045 20.5532 -2.3383 -8.1027 -10.0152 1.4349 -94.1562 74.5845 164.0172 17.0455 16.3761 -64.4942 -18.1760 2.1950 -8.3937 -24.3950 -47.7168 -22.5241 -2.0276 6.5590 9.0336 -5.1889 0.3082 3.5410 -5.2349 0.3426 0.4306 -1.7275 -14.9345 -0.9916 -7.1430 4.2661 -2.5248 93.9101 68.5810 -165.8058 -19.6500 15.5346 48.9645 0.3184 11.2180 54.1996 0.5540 -44.4019 12.7586 1.8033 3.9791 -15.0986 4.8986 3.0048 -9.3103 5.2244 0.3950 2.0147 
-0.0148 0.2114 1.2094 3.1036 21.7754 -3.5404 -1.2950 -53.4711 -179.5955 3.5518 -44.6772 2.7925 1.4191 66.8434 -2.0550 -2.3858 28.4528 0.0000 11.0752 -54.3087 -169.8830 -8.2987 -48.0310 -2.3449 17.3608 67.5879 -6.0456 2.3847 28.3887 -0.0000 -2.9486 9.7286 -0.7577 1.2293 20.0806 -2.3716 -8.2684 -10.5679 1.0999 -94.3692 73.9115 164.7495 17.2515 16.4273 -59.9164 -17.0688 6.3900 -16.3399 -21.7339 -44.4114 -21.9176 -2.0276 6.5590 9.0336 -5.1889 0.3082 3.5410 -5.2349 0.3426 0.4306 -1.7912 -15.2159 -0.9809 -7.1910 4.7134 -2.3560 93.9994 67.5500 -166.5286 -20.3342 15.6081 47.7541 -0.1738 11.2259 55.8419 -0.9600 -40.7441 12.8404 1.8033 3.9791 -15.0986 4.8986 3.0048 -9.3103 5.2244 0.3950 2.0147 
-0.0140 0.2069 1.2198 3.2314 20.9923 -3.1767 -1.8137 -51.2152 179.9570 3.4962 -42.7468 2.6580 1.2829 66.1486 -1.9963 -2.3858 28.4528 0.0000 9.6037 -52.0323 -171.1850 -7.6627 -45.9800 -1.8101 16.3626 66.9757 -5.3135 2.3847 28.3887 -0.0000 -2.3315 9.0013 -0.7390 1.4432 19.3975 -2.3642 -8.4278 -10.9568 0.7398 -94.5681 73.1549 165.5029 17.8144 16.5254 -57.8340 -16.0704 8.1821 -20.1069 -19.0453 -40.9648 -21.0785 -2.0276 6.5590 9.0336 -5.1889 0.3082 3.5410 -5.2349 0.3426 0.4306 -1.8240 -15.2473 -0.8894 -7.2466 4.9864 -2.2733 94.0194 66.5378 -167.3029 -21.0294 15.6613 46.9339 -0.5966 11.1428 57.0718 -2.4130 -37.0258 12.9024 1.8033 3.9791 -15.0986 4.8986 3.0048 -9.3103 5.2244 0.3950 2.0147 
-0.0134 0.2027 1.2286 3.3411 20.3090 -2.8290 -2.2466 -49.2251 179.5551 3.4418 -41.0739 2.5372 1.1689 65.5682 -1.9267 -2.3858 28.4528 0.0000 8.4113 -49.9895 -172.2583 -7.1318 -44.1432 -1.3831 15.5159 66.4617 -4.7017 2.3847 28.3887 -0.0000 -1.7770 8.3380 -0.7243 1.6137 18.6426 -2.3130 -8.5642 -11.2042 0.4022 -94.7184 72.4482 166.1603 18.3645 16.5901 -56.4777 -15.2239 9.2541 -22.6031 -16.8101 -37.8571 -20.3606 -2.0276 6.5590 9.0336 -5.1889 0.3082 3.5410 -5.2349 0.3426 0.4306 -1.8406 -15.1727 -0.7750 -7.2961 5.1576 -2.2350 94.0041 65.6297 -168.0708 -21.6688 15.6601 46.4164 -0.9380 11.0223 57.9689 -3.6054 -33.7386 12.9988 1.8033 3.9791 -15.0986 4.8986 3.0048 -9.3103 5.2244 0.3950 2.0147 
-0.0129 0.1976 1.2380 3.4546 19.4968 -2.4268 -2.6795 -46.9248 179.1299 3.3766 -39.1878 2.3989 1.0386 64.9647 -1.8277 -2.3858 28.4528 0.0000 7.1841 -47.5984 -173.3771 -6.5435 -42.0180 -0.9353 14.5627 65.8929 -4.0301 2.3847 28.3887 -0.0000 -1.1423 7.6043 -0.7061 1.7612 17.6663 -2.2211 -8.7041 -11.3726 0.0343 -94.8231 71.7210 166.8776 18.9729 16.6983 -55.1755 -14.2653 10.2101 -25.0718 -14.5498 -34.3224 -19.7301 -2.0276 6.5590 9.0336 -5.1889 0.3082 3.5410 -5.2349 0.3426 0.4306 -1.8566 -15.0207 -0.6704 -7.3505 5.3113 -2.1924 93.9229 64.7937 -168.7772 -22.3623 15.8682 45.8322 -1.3306 10.8333 58.9173 -4.8098 -30.1011 13.1975 1.8033 3.9791 -15.0986 4.8986 3.0048 -9.3103 5.2244 0.3950 2.0147 
-0.0124 0.1929 1.2454 3.5394 18.6818 -2.0632 -2.9676 -44.8284 178.8021 3.2868 -37.5850 2.2608 1.0326 64.5916 -1.8190 -2.3858 28.4528 0.0000 6.2480 -45.3891 -174.2753 -5.9847 -40.1642 -0.5408 13.7149 65.5081 -3.4657 2.3847 28.3887 -0.0000 -0.5786 7.0416 -0.7043 1.8247 16.7253 -2.1748 -8.7878 -11.3239 -0.2002 -94.8135 71.3040 167.4991 19.4097 16.8669 -54.2217 -13.3911 10.9488 -27.1778 -12.8217 -31.2283 -19.2621 -2.0276 6.5590 9.0336 -5.1889 0.3082 3.5410 -5.2349 0.3426 0.4306 -1.8620 -14.7023 -0.6502 -7.4038 5.3306 -2.1590 93.7841 64.5371 -169.2823 -22.9250 16.4572 45.4792 -1.7274 10.5873 59.7741 -5.7086 -27.1136 13.4119 1.8033 3.9791 -15.0986 4.8986 3.0048 -9.3103 5.2244 0.3950 2.0147 
-0.0120 0.1869 1.2524 3.6132 17.7990 -1.6671 -3.3050 -42.4413 178.4427 3.1959 -35.6942 2.1095 0.9031 64.2305 -1.6824 -2.3858 28.4528 0.0000 5.3542 -42.8652 -175.1674 -5.4063 -38.0207 -0.1602 12.8434 65.1641 -2.9406 2.3847 28.3887 -0.0000 0.0710 6.3705 -0.6763 1.8716 15.3498 -2.0499 -8.8669 -11.1148 -0.4687 -94.7871 70.8396 168.1754 19.9185 17.0730 -53.2240 -12.4125 11.6394 -29.3881 -11.1764 -27.9899 -18.8684 -2.0276 6.5590 9.0336 -5.1889 0.3082 3.5410 -5.2349 0.3426 0.4306 -1.8680 -14.3481 -0.6277 -7.4573 5.3526 -2.1214 93.6252 64.2520 -169.8401 -23.5900 17.0964 44.9206 -2.1904 10.3051 60.8733 -6.5608 -24.0296 13.6781 1.8033 3.9791 -15.0986 4.8986 3.0048 -9.3103 5.2244 0.3950 2.0147 
-0.0114 0.1808 1.2584 3.5784 16.6881 -1.4317 -3.2650 -39.8982 178.4210 3.0224 -33.9734 1.9233 0.9216 63.9279 -1.6259 -2.3858 28.4528 0.0000 4.8437 -40.2673 -175.7052 -4.9248 -36.1929 0.1308 12.0957 64.8840 -2.4962 2.3847 28.3887 -0.0000 0.6828 5.9563 -0.6441 1.8755 14.0918 -1.8026 -8.8945 -10.6027 -0.5689 -94.7076 70.6033 168.7426 20.2369 17.1866 -52.5590 -11.5804 12.0986 -31.1097 -10.0785 -25.5499 -18.9903 -2.0276 6.5590 9.0336 -5.1889 0.3082 3.5410 -5.2349 0.3426 0.4306 -1.8904 -13.7968 -0.7345 -7.4977 5.1631 -2.0506 93.4995 63.9346 -170.3096 -24.0537 17.4961 44.4735 -2.5810 10.0426 61.8181 -7.1489 -21.4804 14.0812 1.8033 3.9791 -15.0986 4.8986 3.0048 -9.3103 5.2244 0.3950 2.0147 
-0.0109 0.1732 1.2648 3.5264 15.3470 -1.2160 -3.1441 -36.9062 178.4654 2.8162 -31.9803 1.7135 0.9298 63.5642 -1.5175 -2.3858 28.4528 0.0000 4.3964 -37.2347 -176.1933 -4.4121 -34.1264 0.4119 11.3128 64.5577 -2.0647 2.3847 28.3887 -0.0000 1.3855 5.5928 -0.6015 1.8683 12.7231 -1.4838 -8.9095 -9.9614 -0.6515 -94.5991 70.3831 169.3748 20.5138 17.2674 -51.9604 -10.6661 12.4795 -32.8505 -9.0909 -23.1878 -19.2629 -2.0276 6.5590 9.0336 -5.1889 0.3082 3.5410 -5.2349 0.3426 0.4306 -1.9186 -13.1061 -0.8896 -7.5368 4.8917 -1.9602 93.3567 63.5568 -170.8317 -24.4762 17.9034 44.0422 -3.0046 9.7188 62.8272 -7.6523 -18.9410 14.5603 1.8033 3.9791 -15.0986 4.8986 3.0048 -9.3103 5.2244 0.3950 2.0147 
-0.0105 0.1652 1.2709 3.4992 14.0602 -1.0750 -3.0307 -34.0454 178.5540 2.6248 -30.0458 1.5238 0.8822 62.9690 -1.3354 -2.3858 28.4528 0.0000 4.0473 -34.3768 -176.5457 -3.9305 -32.2273 0.6484 10.5665 64.0954 -1.6772 2.3847 28.3887 -0.0000 2.0845 5.3086 -0.5561 1.8575 11.6439 -1.1697 -8.9311 -9.4531 -0.6992 -94.4813 70.2085 169.9743 20.6991 17.3078 -51.4506 -9.7760 12.7670 -34.4706 -8.3714 -21.2672 -19.4590 -2.0276 6.5590 9.0336 -5.1889 0.3082 3.5410 -5.2349 0.3426 0.4306 -1.9596 -12.3876 -1.0701 -7.5616 4.5805 -1.8745 93.2052 63.2119 -171.3448 -24.7884 18.3390 43.8050 -3.3589 9.4174 63.6894 -7.8942 -17.0731 14.9432 1.8033 3.9791 -15.0986 4.8986 3.0048 -9.3103 5.2244 0.3950 2.0147 
-0.0101 0.1577 1.2758 3.4972 12.9695 -1.0458 -2.9278 -31.6402 178.7131 2.4625 -28.3939 1.3700 0.8062 62.1348 -1.1294 -2.3858 28.4528 0.0000 3.8167 -32.0454 -176.7225 -3.5217 -30.7807 0.8315 9.9075 63.5250 -1.3426 2.3847 28.3887 -0.0000 2.6967 5.1042 -0.5012 1.8395 10.9046 -0.8565 -8.9624 -9.1032 -0.7004 -94.3688 70.1139 170.4688 20.7524 17.2978 -50.9732 -8.9786 13.0122 -35.9753 -7.9751 -19.9832 -19.5152 -2.0276 6.5590 9.0336 -5.1889 0.3082 3.5410 -5.2349 0.3426 0.4306 -2.0135 -11.7106 -1.2643 -7.5677 4.2496 -1.8042 93.0627 62.9485 -171.7926 -24.9801 18.7605 43.7633 -3.6100 9.2083 64.3996 -7.8396 -16.1312 15.1670 1.8033 3.9791 -15.0986 4.8986 3.0048 -9.3103 5.2244 0.3950 2.0147 
-0.0099 0.1484 1.2812 3.5005 11.6961 -1.0209 -2.8376 -28.9045 178.8733 2.2964 -26.5677 1.2141 0.8669 62.1727 -1.0656 -2.3858 28.4528 0.0000 3.5907 -29.4100 -176.9106 -3.0656 -29.2318 1.0164 9.3956 63.9557 -1.1659 2.3847 28.3887 -0.0000 3.3978 4.8998 -0.4334 1.8316 10.2551 -0.5122 -8.9978 -8.7927 -0.7082 -94.2345 70.0035 171.0462 20.7558 17.2536 -50.4774 -8.0549 13.2283 -37.6730 -7.7702 -19.0131 -19.5639 -2.0276 6.5590 9.0336 -5.1889 0.3082 3.5410 -5.2349 0.3426 0.4306 -2.0735 -10.9168 -1.4901 -7.5677 3.8628 -1.7221 92.8917 62.6403 -172.3139 -25.1338 19.2644 43.7944 -3.8918 8.9466 65.1807 -7.5734 -15.5802 15.3806 1.8033 3.9791 -15.0986 4.8986 3.0048 -9.3103 5.2244 0.3950 2.0147 
-0.0100 0.1415 1.2853 3.3558 11.3524 -0.8508 -2.7399 -27.4761 178.7749 2.2522 -25.1203 1.1336 0.7466 61.8758 -0.9284 -2.3858 28.4528 0.0000 3.5425 -27.9601 -177.1540 -2.7593 -27.7053 1.1103 8.6648 63.5292 -0.6638 2.3847 28.3887 -0.0000 4.0500 4.5501 -0.3828 1.8959 8.9211 -0.2067 -8.9651 -8.3849 -0.8006 -94.1412 69.9294 171.4391 20.9198 17.4490 -50.1075 -7.3410 13.3079 -38.8736 -7.8905 -18.5206 -19.7213 -2.0276 6.5590 9.0336 -5.1889 0.3082 3.5410 -5.2349 0.3426 0.4306 -2.1447 -10.3922 -1.6342 -7.5774 3.7596 -1.6679 92.7390 62.5384 -172.7196 -25.4144 19.7431 43.7857 -4.1862 8.5908 65.7643 -7.2977 -15.3765 15.4565 1.8033 3.9791 -15.0986 4.8986 3.0048 -9.3103 5.2244 0.3950 2.0147 
-0.0101 0.1341 1.2895 3.1927 10.9778 -0.6638 -2.6285 -25.9001 178.6616 2.2196 -23.5644 1.0545 0.5909 61.5863 -0.7599 -2.3858 28.4528 0.0000 3.5072 -26.3406 -177.4109 -2.4296 -26.0042 1.1918 7.9488 63.0487 -0.2220 2.3847 28.3887 -0.0000 4.7852 4.1815 -0.3240 1.9806 7.4290 0.1021 -8.9167 -7.9377 -0.8913 -94.0333 69.8451 171.8864 21.2211 17.7353 -49.8440 -6.5830 13.2905 -39.9993 -8.2433 -18.4279 -19.8953 -2.0276 6.5590 9.0336 -5.1889 0.3082 3.5410 -5.2349 0.3426 0.4306 -2.2246 -9.7933 -1.7969 -7.5825 3.6448 -1.6055 92.5630 62.4243 -173.1823 -25.7867 20.3040 43.7528 -4.4955 8.1623 66.2872 -6.8095 -15.6301 15.5191 1.8033 3.9791 -15.0986 4.8986 3.0048 -9.3103 5.2244 0.3950 2.0147 
-0.0102 0.1276 1.2927 3.0651 10.6958 -0.5440 -2.5254 -24.5462 178.6080 2.1926 -22.2312 0.9877 0.4805 61.3634 -0.6387 -2.3858 28.4528 0.0000 3.4940 -24.9602 -177.5755 -2.1222 -24.5585 1.2578 7.3446 62.7410 0.1227 2.3847 28.3887 -0.0000 5.4299 3.8879 -0.2684 2.0399 5.8826 0.4199 -8.8536 -7.3863 -0.9453 -93.9332 69.7867 172.2831 21.6691 17.9288 -49.7107 -5.9262 13.2324 -40.9366 -8.7339 -18.9298 -20.4214 -2.0276 6.5590 9.0336 -5.1889 0.3082 3.5410 -5.2349 0.3426 0.4306 -2.2790 -9.2679 -1.9481 -7.5982 3.5978 -1.5698 92.4063 62.3705 -173.5790 -26.2008 20.8299 43.6980 -4.7417 7.7863 66.6625 -6.1927 -16.3027 15.6581 1.8033 3.9791 -15.0986 4.8986 3.0048 -9.3103 5.2244 0.3950 2.0147 
-0.0102 0.1204 1.2959 2.9460 10.4483 -0.4654 -2.4104 -23.1232 178.6015 2.1632 -20.8046 0.9168 0.3888 61.1316 -0.5346 -2.3858 28.4528 0.0000 3.4946 -23.5363 -177.6900 -1.7673 -23.0659 1.3252 6.7026 62.5401 0.4632 2.3847 28.3887 -0.0000 6.1224 3.5902 -0.2011 2.0940 3.9917 0.8258 -8.7691 -6.6760 -0.9875 -93.8193 69.7422 172.7167 22.3396 18.0196 -49.6186 -5.2073 13.1491 -41.9790 -9.4883 -20.0631 -21.4755 -2.0276 6.5590 9.0336 -5.1889 0.3082 3.5410 -5.2349 0.3426 0.4306 -2.3192 -8.7010 -2.1222 -7.6280 3.5773 -1.5562 92.2355 62.3669 -173.9971 -26.7419 21.4387 43.6200 -4.9875 7.3859 67.0231 -5.3207 -17.4879 15.9338 1.8033 3.9791 -15.0986 4.8986 3.0048 -9.3103 5.2244 0.3950 2.0147 
-0.0102 0.1118 1.2994 2.8911 9.9705 -0.3851 -2.3432 -21.2805 178.5968 2.1205 -19.1996 0.8348 0.2912 60.8726 -0.4031 -2.3858 28.4528 0.0000 3.4202 -21.6758 -177.8362 -1.3881 -21.3819 1.3719 6.0721 62.3486 0.7545 2.3847 28.3887 -0.0000 6.9026 3.2981 -0.1283 2.1499 2.0977 1.2184 -8.6835 -5.9358 -1.0228 -93.6739 69.6583 173.2800 23.0789 18.1710 -49.5947 -4.3720 12.9889 -43.1308 -10.7160 -21.8199 -22.6419 -2.0276 6.5590 9.0336 -5.1889 0.3082 3.5410 -5.2349 0.3426 0.4306 -2.3501 -7.9265 -2.2953 -7.6452 3.4440 -1.5259 92.0230 62.3782 -174.5138 -27.3957 22.0994 43.5838 -5.2676 6.8911 67.3777 -4.0750 -19.3876 16.3487 1.8033 3.9791 -15.0986 4.8986 3.0048 -9.3103 5.2244 0.3950 2.0147 
-0.0102 0.1064 1.3014 3.0240 9.2919 -0.3505 -2.4352 -19.7618 178.6029 2.0458 -18.2484 0.7715 0.2803 60.6743 -0.3138 -2.3858 28.4528 0.0000 3.2087 -20.1286 -177.9613 -1.2036 -20.4279 1.3780 5.7248 62.2871 0.9522 2.3847 28.3887 -0.0000 7.3191 3.2359 -0.1071 2.1273 1.5009 1.3402 -8.6677 -5.5253 -1.0216 -93.5661 69.5443 173.7195 23.2613 18.2909 -49.6841 -3.8677 12.8480 -43.7695 -11.6423 -23.0984 -23.0000 -2.0276 6.5590 9.0336 -5.1889 0.3082 3.5410 -5.2349 0.3426 0.4306 -2.3386 -7.2535 -2.3343 -7.6338 3.2094 -1.4754 91.8754 62.4153 -174.8675 -27.6598 22.5477 43.7288 -5.4311 6.5702 67.5121 -3.1882 -20.7897 16.6964 1.8033 3.9791 -15.0986 4.8986 3.0048 -9.3103 5.2244 0.3950 2.0147 
-0.0102 0.1009 1.3036 3.1764 8.5259 -0.3058 -2.5468 -18.1263 178.6035 1.9768 -17.2265 0.7092 0.2205 60.4223 -0.1693 -2.3858 28.4528 0.0000 2.9793 -18.4558 -178.0924 -1.0109 -19.3958 1.3754 5.3892 62.1825 1.1198 2.3847 28.3887 -0.0000 7.7713 3.1647 -0.0845 2.1065 1.0952 1.4020 -8.6529 -5.1895 -1.0043 -93.4414 69.4152 174.2160 23.3837 18.3879 -49.8506 -3.3575 12.6333 -44.3213 -12.8060 -24.7103 -23.4896 -2.0276 6.5590 9.0336 -5.1889 0.3082 3.5410 -5.2349 0.3426 0.4306 -2.3251 -6.4899 -2.3787 -7.6171 2.9454 -1.4182 91.7083 62.4579 -175.2692 -27.9178 23.0652 43.9467 -5.6065 6.2000 67.5859 -2.0804 -22.5667 17.1656 1.8033 3.9791 -15.0986 4.8986 3.0048 -9.3103 5.2244 0.3950 2.0147 
-0.0102 0.0955 1.3057 3.2676 7.8962 -0.2409 -2.5771 -16.6329 178.5906 1.8444 -16.1961 0.6309 0.2447 60.1702 -0.0547 -2.3858 28.4528 0.0000 2.7818 -16.9200 -178.2238 -0.6784 -18.2876 1.4045 4.8272 61.9388 1.3911 2.3847 28.3887 -0.0000 8.2959 3.0485 -0.0506 2.1018 0.3111 1.5036 -8.5901 -4.7438 -1.0072 -93.3235 69.2338 174.7006 23.5423 18.3877 -49.9058 -2.7483 12.3475 -44.8627 -14.2200 -26.9096 -23.9522 -2.0276 6.5590 9.0336 -5.1889 0.3082 3.5410 -5.2349 0.3426 0.4306 -2.2903 -5.7020 -2.3777 -7.6152 2.7047 -1.4049 91.5617 62.5223 -175.6180 -28.2787 23.6656 44.0183 -5.7662 5.8374 67.6316 -0.5916 -24.8495 17.7308 1.8033 3.9791 -15.0986 4.8986 3.0048 -9.3103 5.2244 0.3950 2.0147 
-0.0102 0.0908 1.3075 3.3034 7.4324 -0.1653 -2.5455 -15.4378 178.5637 1.6875 -15.3271 0.5564 0.3118 59.9679 0.0383 -2.3858 28.4528 0.0000 2.6291 -15.6667 -178.3452 -0.2898 -17.2765 1.4454 4.2287 61.6314 1.6359 2.3847 28.3887 -0.0000 8.8105 2.9082 -0.0146 2.1095 -0.6095 1.6051 -8.4975 -4.2936 -1.0203 -93.2210 69.0312 175.1266 23.7335 18.3277 -49.9060 -2.1856 12.0226 -45.2890 -15.6827 -29.3275 -24.4135 -2.0276 6.5590 9.0336 -5.1889 0.3082 3.5410 -5.2349 0.3426 0.4306 -2.2435 -4.9743 -2.3436 -7.6218 2.5059 -1.4256 91.4451 62.5963 -175.8928 -28.6688 24.2690 43.9851 -5.8973 5.5160 67.6381 1.0726 -27.3108 18.3784 1.8033 3.9791 -15.0986 4.8986 3.0048 -9.3103 5.2244 0.3950 2.0147 
-0.0102 0.0872 1.3089 3.3422 7.0192 -0.1079 -2.5314 -14.4717 178.5474 1.6214 -14.6777 0.5166 0.2896 59.8182 0.1385 -2.3858 28.4528 0.0000 2.5145 -14.6352 -178.4357 -0.0299 -16.5001 1.4567 3.8671 61.4389 1.7485 2.3847 28.3887 -0.0000 9.2228 2.7922 0.0146 2.1061 -1.2111 1.6586 -8.4216 -3.9999 -1.0262 -93.1284 68.8467 175.5010 23.8418 18.3724 -49.9337 -1.7456 11.7306 -45.5509 -17.1591 -31.4767 -25.0694 -2.0276 6.5590 9.0336 -5.1889 0.3082 3.5410 -5.2349 0.3426 0.4306 -2.2015 -4.4040 -2.3050 -7.6223 2.3693 -1.4441 91.3504 62.6510 -176.1186 -28.9817 24.7833 43.9773 -6.0037 5.2422 67.6053 2.6176 -29.5076 19.0876 1.8033 3.9791 -15.0986 4.8986 3.0048 -9.3103 5.2244 0.3950 2.0147 
-0.0100 0.0832 1.3104 3.4214 6.4829 -0.0822 -2.5580 -13.3344 178.5741 1.7776 -13.9365 0.5287 0.0758 59.6229 0.2104 -2.3858 28.4528 0.0000 2.4346 -13.4405 -178.4873 0.0363 -15.7255 1.4082 3.7244 61.4793 1.8306 2.3847 28.3887 -0.0000 9.6324 2.6805 0.0430 2.0589 -1.5949 1.7238 -8.3524 -3.8199 -1.0433 -93.0097 68.5892 175.9707 23.7815 18.8585 -49.9214 -1.3538 11.4426 -45.7327 -19.5241 -33.9122 -26.5042 -2.0276 6.5590 9.0336 -5.1889 0.3082 3.5410 -5.2349 0.3426 0.4306 -2.1442 -3.9996 -2.2168 -7.6160 2.3598 -1.4689 91.2646 62.6723 -176.3277 -29.3056 25.3321 43.9818 -6.1088 4.9497 67.5178 4.5917 -32.0708 20.1740 1.8033 3.9791 -15.0986 4.8986 3.0048 -9.3103 5.2244 0.3950 2.0147 
-0.0098 0.0802 1.3115 3.4900 6.0235 -0.0538 -2.5845 -12.4486 178.5899 1.9289 -13.4088 0.5442 -0.1264 59.4740 0.2763 -2.3858 28.4528 0.0000 2.3679 -12.4543 -178.5356 0.0601 -15.1167 1.3612 3.6801 61.5264 1.8468 2.3847 28.3887 -0.0000 9.9471 2.5849 0.0623 2.0030 -1.6949 1.7429 -8.2942 -3.7737 -1.0560 -92.9047 68.3688 176.3699 23.7526 19.2870 -49.9898 -1.0413 11.1711 -45.7767 -21.6643 -35.9591 -27.8963 -2.0276 6.5590 9.0336 -5.1889 0.3082 3.5410 -5.2349 0.3426 0.4306 -2.0956 -3.6530 -2.1418 -7.6054 2.3530 -1.4905 91.1911 62.6908 -176.5069 -29.5322 25.8108 44.0674 -6.1949 4.6975 67.3857 6.3745 -34.2420 21.2447 1.8033 3.9791 -15.0986 4.8986 3.0048 -9.3103 5.2244 0.3950 2.0147 
-0.0095 0.0771 1.3125 3.4204 5.4610 0.0348 -2.4753 -11.6293 178.5628 2.2231 -13.2371 0.6048 -0.4505 59.6048 0.3277 -2.3858 28.4528 0.0000 2.3788 -11.3976 -178.6463 -0.0513 -14.5931 1.2869 3.7356 61.5104 1.9028 2.3847 28.3887 -0.0000 10.3311 2.4987 0.0574 1.9884 -1.6322 1.7171 -8.1759 -3.8295 -1.0771 -92.7960 68.0922 176.7800 23.8448 19.6217 -50.1229 -0.7207 10.8446 -45.6961 -24.1141 -38.2343 -29.5204 -2.0276 6.5590 9.0336 -5.1889 0.3082 3.5410 -5.2349 0.3426 0.4306 -2.0376 -3.4898 -2.0738 -7.5826 2.4489 -1.4439 91.1057 62.8404 -176.6991 -29.8490 26.3893 44.3124 -6.2862 4.4043 67.1202 8.5597 -36.6783 22.6612 1.8033 3.9791 -15.0986 4.8986 3.0048 -9.3103 5.2244 0.3950 2.0147 
-0.0091 0.0742 1.3132 3.2977 4.8857 0.1423 -2.3168 -10.9535 178.5169 2.5701 -13.3343 0.6894 -0.7978 59.8856 0.3479 -2.3858 28.4528 0.0000 2.4237 -10.4184 -178.7776 -0.2351 -14.2154 1.2088 3.8780 61.4993 1.9422 2.3847 28.3887 -0.0000 10.7020 2.4213 0.0419 1.9841 -1.3978 1.6514 -8.0361 -3.9764 -1.0957 -92.6892 67.8073 177.1702 23.9840 19.9025 -50.2953 -0.4195 10.5075 -45.5333 -26.6087 -40.3846 -31.2602 -2.0276 6.5590 9.0336 -5.1889 0.3082 3.5410 -5.2349 0.3426 0.4306 -1.9788 -3.4117 -2.0122 -7.5513 2.5832 -1.3724 91.0204 63.0368 -176.8870 -30.1741 26.9813 44.6418 -6.3752 4.1105 66.7876 10.8532 -38.9937 24.2521 1.8033 3.9791 -15.0986 4.8986 3.0048 -9.3103 5.2244 0.3950 2.0147 
-0.0088 0.0720 1.3138 3.1831 4.4262 0.2240 -2.1843 -10.4419 178.4846 2.8195 -13.4494 0.7534 -1.0349 60.1217 0.3478 -2.3858 28.4528 0.0000 2.4900 -9.6547 -178.8755 -0.4214 -13.9440 1.1410 4.0537 61.5042 1.9461 2.3847 28.3887 -0.0000 11.0098 2.3519 0.0342 1.9819 -1.1406 1.5853 -7.9091 -4.1506 -1.1024 -92.6035 67.5605 177.4753 24.1113 20.1469 -50.4245 -0.1967 10.2416 -45.3629 -28.9161 -42.2090 -32.9275 -2.0276 6.5590 9.0336 -5.1889 0.3082 3.5410 -5.2349 0.3426 0.4306 -1.9374 -3.4293 -1.9906 -7.5153 2.7497 -1.2999 90.9480 63.1574 -177.0547 -30.4385 27.4237 44.9099 -6.4593 3.8480 66.4952 12.8911 -40.9164 25.7359 1.8033 3.9791 -15.0986 4.8986 3.0048 -9.3103 5.2244 0.3950 2.0147 
-0.0084 0.0697 1.3145 3.0353 3.9872 0.2936 -2.0423 -9.9126 178.4663 2.9740 -13.4868 0.7916 -1.1743 60.3191 0.3395 -2.3858 28.4528 0.0000 2.6193 -8.8931 -178.9525 -0.6403 -13.6266 1.0637 4.2661 61.4909 1.9430 2.3847 28.3887 -0.0000 11.3570 2.2677 0.0386 1.9930 -0.8748 1.5148 -7.7556 -4.3799 -1.0940 -92.5244 67.2810 177.7556 24.2562 20.4161 -50.4943 -0.0131 10.0056 -45.1743 -31.7816 -44.2906 -35.0372 -2.0276 6.5590 9.0336 -5.1889 0.3082 3.5410 -5.2349 0.3426 0.4306 -1.9102 -3.6263 -2.0317 -7.4620 3.0413 -1.1951 90.8677 63.1907 -177.2538 -30.7148 27.7727 45.1281 -6.5695 3.5341 66.1978 15.2293 -43.0229 27.5094 1.8033 3.9791 -15.0986 4.8986 3.0048 -9.3103 5.2244 0.3950 2.0147 
-0.0080 0.0677 1.3150 2.9037 3.5943 0.3579 -1.9142 -9.4011 178.4456 3.1152 -13.4554 0.8228 -1.3002 60.4688 0.3292 -2.3858 28.4528 0.0000 2.7352 -8.1797 -179.0186 -0.8556 -13.2522 0.9853 4.4719 61.4206 1.9418 2.3847 28.3887 -0.0000 11.6478 2.1906 0.0392 1.9987 -0.5326 1.4157 -7.6126 -4.6368 -1.0742 -92.4512 67.0304 178.0051 24.3418 20.6379 -50.5387 0.1610 9.8055 -45.0588 -34.3787 -45.9729 -37.0332 -2.0276 6.5590 9.0336 -5.1889 0.3082 3.5410 -5.2349 0.3426 0.4306 -1.8859 -3.8030 -2.0685 -7.4087 3.3036 -1.1024 90.7957 63.2208 -177.4325 -30.9325 28.0818 45.3117 -6.6717 3.2549 65.9532 17.3500 -44.7332 29.1881 1.8033 3.9791 -15.0986 4.8986 3.0048 -9.3103 5.2244 0.3950 2.0147 
-0.0076 0.0655 1.3155 2.7727 3.1768 0.3726 -1.7469 -8.7941 178.4853 3.0359 -13.2964 0.7949 -1.1997 60.6060 0.3018 -2.3858 28.4528 0.0000 2.8611 -7.4583 -179.0284 -1.1026 -12.9093 0.9048 4.7515 61.4284 1.8922 2.3847 28.3887 -0.0000 11.9556 2.1360 0.0565 1.9985 -0.2331 1.3329 -7.4510 -4.8638 -1.0105 -92.4047 66.8375 178.1626 24.4249 20.8930 -50.4828 0.3199 9.6217 -44.9497 -37.2431 -47.4663 -39.2575 -2.0276 6.5590 9.0336 -5.1889 0.3082 3.5410 -5.2349 0.3426 0.4306 -1.8699 -4.0906 -2.1775 -7.3332 3.6181 -0.9796 90.7463 63.1823 -177.5614 -31.1372 28.2753 45.3871 -6.7380 3.0378 65.7048 19.8760 -46.3772 31.2277 1.8033 3.9791 -15.0986 4.8986 3.0048 -9.3103 5.2244 0.3950 2.0147 
-0.0070 0.0635 1.3159 2.6459 2.7678 0.3807 -1.5803 -8.2110 178.5290 2.9283 -13.1534 0.7620 -1.0678 60.7467 0.2703 -2.3858 28.4528 0.0000 2.9853 -6.7739 -179.0301 -1.3480 -12.5861 0.8288 5.0399 61.4356 1.8315 2.3847 28.3887 -0.0000 12.2329 2.0852 0.0742 1.9894 0.1513 1.2261 -7.2855 -5.1287 -0.9333 -92.3630 66.6582 178.3023 24.4891 21.1393 -50.4161 0.4740 9.4497 -44.8592 -39.9849 -48.6932 -41.4371 -2.0276 6.5590 9.0336 -5.1889 0.3082 3.5410 -5.2349 0.3426 0.4306 -1.8561 -4.3861 -2.2936 -7.2516 3.9321 -0.8574 90.7014 63.1353 -177.6797 -31.3174 28.4477 45.4519 -6.7981 2.8376 65.4610 22.3471 -47.7560 33.2742 1.8033 3.9791 -15.0986 4.8986 3.0048 -9.3103 5.2244 0.3950 2.0147 
-0.0065 0.0618 1.3161 2.5369 2.4195 0.3509 -1.4329 -7.7080 178.6079 2.8176 -13.0136 0.7290 -0.9277 60.8374 0.2317 -2.3858 28.4528 0.0000 3.1009 -6.2542 -178.9929 -1.4765 -12.4299 0.7909 5.2321 61.5181 1.7533 2.3847 28.3887 -0.0000 12.4573 2.0512 0.0939 1.9736 0.4925 1.1679 -7.1403 -5.3495 -0.8629 -92.3357 66.5697 178.3891 24.5524 21.3663 -50.3571 0.6101 9.2969 -44.7736 -42.2542 -49.5627 -43.2735 -2.0276 6.5590 9.0336 -5.1889 0.3082 3.5410 -5.2349 0.3426 0.4306 -1.8423 -4.6294 -2.3730 -7.1761 4.1852 -0.7747 90.6758 63.1110 -177.7461 -31.4706 28.5785 45.5015 -6.8627 2.6437 65.2400 24.3657 -48.7810 34.9673 1.8033 3.9791 -15.0986 4.8986 3.0048 -9.3103 5.2244 0.3950 2.0147 
-0.0059 0.0599 1.3163 2.4136 2.0297 0.2739 -1.2616 -7.1262 178.7462 2.6705 -12.8183 0.6855 -0.7378 60.8972 0.1747 -2.3858 28.4528 0.0000 3.2413 -5.7404 -178.9059 -1.5223 -12.3959 0.7789 5.3831 61.7063 1.6323 2.3847 28.3887 -0.0000 12.6968 2.0247 0.1210 1.9478 0.8736 1.1489 -6.9729 -5.5824 -0.7810 -92.3158 66.5478 178.4482 24.6327 21.6401 -50.2872 0.7678 9.1181 -44.6638 -44.6655 -50.3371 -45.2498 -2.0276 6.5590 9.0336 -5.1889 0.3082 3.5410 -5.2349 0.3426 0.4306 -1.8242 -4.8916 -2.4385 -7.0842 4.4513 -0.7075 90.6628 63.1026 -177.7798 -31.6402 28.7058 45.5497 -6.9514 2.3992 64.9787 26.4761 -49.7615 36.7550 1.8033 3.9791 -15.0986 4.8986 3.0048 -9.3103 5.2244 0.3950 2.0147 
-0.0052 0.0582 1.3164 2.2921 1.6618 0.2080 -1.0977 -6.5700 178.8684 2.5364 -12.6276 0.6461 -0.5614 60.9485 0.1183 -2.3858 28.4528 0.0000 3.3766 -5.2384 -178.8298 -1.5511 -12.3354 0.7690 5.5088 61.8620 1.5198 2.3847 28.3887 -0.0000 12.9145 1.9962 0.1425 1.9212 1.2808 1.1158 -6.8040 -5.8319 -0.7007 -92.2992 66.5330 178.4972 24.6979 21.9005 -50.2127 0.9215 8.9460 -44.5592 -46.8070 -50.9038 -47.0261 -2.0276 6.5590 9.0336 -5.1889 0.3082 3.5410 -5.2349 0.3426 0.4306 -1.8075 -5.1473 -2.4981 -6.9863 4.7081 -0.6411 90.6516 63.1059 -177.8079 -31.7898 28.8263 45.5982 -7.0386 2.1648 64.7294 28.3677 -50.5049 38.3803 1.8033 3.9791 -15.0986 4.8986 3.0048 -9.3103 5.2244 0.3950 2.0147 
-0.0047 0.0568 1.3164 2.1847 1.4358 0.1974 -0.9705 -6.2747 178.9141 2.4907 -12.6325 0.6363 -0.4888 61.0173 0.0825 -2.3858 28.4528 0.0000 3.4817 -4.9182 -178.8144 -1.4549 -12.3010 0.7875 5.4360 61.8926 1.4887 2.3847 28.3887 -0.0000 13.1079 1.9605 0.1519 1.9098 1.4795 1.0793 -6.6649 -6.0108 -0.6672 -92.3062 66.5689 178.4740 24.8097 22.1320 -50.1289 1.0511 8.7913 -44.4363 -48.5005 -51.2700 -48.4474 -2.0276 6.5590 9.0336 -5.1889 0.3082 3.5410 -5.2349 0.3426 0.4306 -1.7989 -5.3618 -2.5179 -6.8826 4.9008 -0.5669 90.6527 63.1933 -177.7971 -31.9531 28.9140 45.6336 -7.1085 1.9745 64.5100 29.8381 -50.9572 39.6318 1.8033 3.9791 -15.0986 4.8986 3.0048 -9.3103 5.2244 0.3950 2.0147 
-0.0042 0.0552 1.3165 2.0613 1.1763 0.1875 -0.8224 -5.9167 178.9641 2.4379 -12.6101 0.6237 -0.4002 61.0866 0.0376 -2.3858 28.4528 -0.0000 3.6079 -4.5314 -178.7978 -1.3449 -12.2412 0.8071 5.3616 61.9266 1.4492 2.3847 28.3887 -0.0000 13.3126 1.9192 0.1600 1.8950 1.7535 1.0284 -6.4991 -6.2384 -0.6252 -92.3142 66.6100 178.4475 24.8864 22.3799 -50.0164 1.2711 8.6184 -44.3051 -50.2826 -51.5705 -49.9484 -2.0276 6.5590 9.0336 -5.1889 0.3082 3.5410 -5.2349 0.3426 0.4306 -1.7891 -5.6083 -2.5405 -6.7577 5.1227 -0.4833 90.6540 63.2937 -177.7847 -32.1143 29.0118 45.6768 -7.1895 1.7598 64.2687 31.3028 -51.3021 40.8863 1.8033 3.9791 -15.0986 4.8986 3.0048 -9.3103 5.2244 0.3950 2.0147 
-0.0037 0.0539 1.3164 1.9725 1.0014 0.1930 -0.7126 -5.6688 178.9895 2.4261 -12.6037 0.6208 -0.3575 61.1580 0.0003 -2.3858 28.4528 -0.0000 3.6783 -4.2393 -178.7940 -1.3336 -12.1724 0.8050 5.3614 61.9321 1.4356 2.3847 28.3887 -0.0000 13.4590 1.8778 0.1613 1.8640 1.9685 0.9874 -6.3557 -6.4375 -0.6131 -92.3139 66.6435 178.4456 24.9921 22.5557 -49.9477 1.3778 8.4701 -44.1902 -51.4719 -51.6609 -50.9587 -2.0276 6.5590 9.0336 -5.1889 0.3082 3.5410 -5.2349 0.3426 0.4306 -1.7699 -5.8275 -2.5385 -6.6454 5.3138 -0.4193 90.6581 63.3805 -177.7662 -32.2457 29.0413 45.7133 -7.2381 1.6159 64.0732 32.4185 -51.3958 41.8204 1.8033 3.9791 -15.0986 4.8986 3.0048 -9.3103 5.2244 0.3950 2.0147 
-0.0032 0.0525 1.3164 1.8851 0.8393 0.2093 -0.6017 -5.4356 179.0054 2.4378 -12.6104 0.6236 -0.3344 61.2494 -0.0408 -2.3858 28.4528 0.0000 3.7294 -3.9423 -178.7971 -1.3824 -12.0868 0.7892 5.4090 61.9219 1.4343 2.3847 28.3887 -0.0000 13.5969 1.8267 0.1588 1.8151 2.2052 0.9419 -6.1909 -6.6699 -0.6166 -92.3080 66.6798 178.4593 25.1123 22.7184 -49.8854 1.5085 8.3044 -44.0616 -52.5605 -51.6405 -51.8853 -2.0276 6.5590 9.0336 -5.1889 0.3082 3.5410 -5.2349 0.3426 0.4306 -1.7400 -6.0808 -2.5202 -6.5128 5.5303 -0.3534 90.6649 63.4789 -177.7395 -32.3878 29.0346 45.7555 -7.2770 1.4850 63.8631 33.4794 -51.3082 42.6831 1.8033 3.9791 -15.0986 4.8986 3.0048 -9.3103 5.2244 0.3950 2.0147 
-0.0026 0.0511 1.3163 1.7923 0.6938 0.2229 -0.4864 -5.2135 179.0237 2.4571 -12.6036 0.6275 -0.3180 61.3239 -0.0830 -2.3858 28.4528 0.0000 3.8016 -3.6666 -178.7961 -1.4355 -12.0071 0.7730 5.4742 61.9205 1.4175 2.3847 28.3887 -0.0000 13.7231 1.7738 0.1577 1.7706 2.4519 0.8946 -6.0151 -6.9119 -0.6143 -92.3067 66.7218 178.4597 25.2248 22.8722 -49.8162 1.6421 8.1425 -43.9383 -53.3652 -51.5056 -52.5656 -2.0276 6.5590 9.0336 -5.1889 0.3082 3.5410 -5.2349 0.3426 0.4306 -1.7112 -6.3246 -2.5149 -6.3728 5.7338 -0.2834 90.6677 63.5633 -177.7241 -32.5164 29.0096 45.7955 -7.3297 1.3342 63.6628 34.2645 -51.1108 43.3229 1.8033 3.9791 -15.0986 4.8986 3.0048 -9.3103 5.2244 0.3950 2.0147 
-0.0022 0.0500 1.3163 1.6944 0.6225 0.2216 -0.3719 -5.0676 179.0525 2.4993 -12.5658 0.6349 -0.3297 61.3365 -0.1191 -2.3858 28.4528 0.0000 3.9341 -3.5120 -178.7813 -1.4950 -11.9801 0.7589 5.5833 61.9567 1.3571 2.3847 28.3887 -0.0000 13.8384 1.7227 0.1657 1.7516 2.5980 0.8677 -5.8414 -7.1051 -0.6022 -92.3200 66.7766 178.4161 25.3372 22.9922 -49.7441 1.7701 8.0024 -43.8263 -53.8488 -51.3043 -52.9689 -2.0276 6.5590 9.0336 -5.1889 0.3082 3.5410 -5.2349 0.3426 0.4306 -1.6902 -6.5042 -2.5542 -6.2427 5.8660 -0.2046 90.6573 63.5904 -177.7481 -32.6190 28.9289 45.8144 -7.4210 1.1272 63.5070 34.6850 -50.9346 43.7161 1.8033 3.9791 -15.0986 4.8986 3.0048 -9.3103 5.2244 0.3950 2.0147 
-0.0016 0.0488 1.3162 1.5820 0.5407 0.2203 -0.2407 -4.9050 179.0837 2.5479 -12.5290 0.6436 -0.3444 61.3525 -0.1591 -2.3858 28.4528 0.0000 4.0860 -3.3364 -178.7660 -1.5632 -11.9456 0.7426 5.7058 61.9927 1.2910 2.3847 28.3887 -0.0000 13.9574 1.6640 0.1746 1.7306 2.7829 0.8339 -5.6363 -7.3354 -0.5858 -92.3352 66.8393 178.3660 25.4595 23.1274 -49.6660 1.9149 7.8460 -43.7015 -54.1586 -50.9881 -53.2154 -2.0276 6.5590 9.0336 -5.1889 0.3082 3.5410 -5.2349 0.3426 0.4306 -1.6662 -6.7103 -2.5990 -6.0879 6.0180 -0.1154 90.6454 63.6215 -177.7758 -32.7380 28.8382 45.8393 -7.5255 0.8941 63.3327 34.9492 -50.6243 43.9728 1.8033 3.9791 -15.0986 4.8986 3.0048 -9.3103 5.2244 0.3950 2.0147 
-0.0012 0.0478 1.3162 1.4824 0.4817 0.2144 -0.1267 -4.7839 179.1142 2.5391 -12.5053 0.6405 -0.2990 61.3638 -0.2039 -2.3858 28.4528 0.0000 4.1949 -3.2151 -178.7484 -1.5403 -11.9390 0.7469 5.7293 62.0582 1.2380 2.3847 28.3887 -0.0000 14.0377 1.6188 0.1787 1.7003 2.9179 0.8275 -5.4575 -7.5095 -0.5885 -92.3362 66.8955 178.3576 25.5583 23.2306 -49.6341 2.0370 7.7135 -43.5927 -54.2288 -50.6579 -53.2486 -2.0276 6.5590 9.0336 -5.1889 0.3082 3.5410 -5.2349 0.3426 0.4306 -1.6324 -6.8721 -2.6001 -5.9539 6.1411 -0.0653 90.6454 63.6590 -177.7724 -32.8329 28.8088 45.8560 -7.5909 0.7387 63.1842 35.0273 -50.2387 43.9998 1.8033 3.9791 -15.0986 4.8986 3.0048 -9.3103 5.2244 0.3950 2.0147 
-0.0007 0.0466 1.3161 1.3677 0.4185 0.2055 0.0036 -4.6573 179.1507 2.5104 -12.4885 0.6335 -0.2250 61.3778 -0.2597 -2.3858 28.4528 0.0000 4.3112 -3.0890 -178.7267 -1.4845 -11.9349 0.7583 5.7241 62.1393 1.1813 2.3847 28.3887 -0.0000 14.1251 1.5692 0.1824 1.6615 3.0572 0.8275 -5.2488 -7.6969 -0.5958 -92.3330 66.9603 178.3610 25.6698 23.3444 -49.6161 2.1822 7.5567 -43.4628 -54.0979 -50.1883 -53.0950 -2.0276 6.5590 9.0336 -5.1889 0.3082 3.5410 -5.2349 0.3426 0.4306 -1.5888 -7.0510 -2.5872 -5.7972 6.2788 -0.0186 90.6490 63.7057 -177.7585 -32.9885 28.8017 45.8923 -7.5857 0.5697 63.0082 34.8687 -49.6133 43.7986 1.8033 3.9791 -15.0986 4.8986 3.0048 -9.3103 5.2244 0.3950 2.0147 
-0.0001 0.0454 1.3160 1.2613 0.3567 0.1941 0.1940 -4.5322 179.2014 2.5363 -12.4767 0.6234 -0.1227 61.4059 -0.3318 -2.3858 28.4528 0.0000 4.4221 -2.9589 -178.6978 -1.4258 -11.9156 0.7692 5.7275 62.2195 1.1109 2.3847 28.3887 -0.0000 14.2423 1.5223 0.1856 1.6146 3.1735 0.8148 -5.0344 -7.8687 -0.5910 -92.3296 67.0244 178.3649 25.7789 23.4491 -49.6010 2.3645 7.3641 -43.3140 -53.6336 -49.4914 -52.6327 -2.0276 6.5590 9.0336 -5.1889 0.3082 3.5410 -5.2349 0.3426 0.4306 -1.5512 -7.2293 -2.5808 -5.6319 6.4170 0.0259 90.6531 63.7508 -177.7434 -33.0779 28.8044 45.9097 -7.7151 0.3622 62.7922 34.5999 -48.8164 43.4569 1.8033 3.9791 -15.0986 4.8986 3.0048 -9.3103 5.2244 0.3950 2.0147 
0.0006 0.0443 1.3159 1.1813 0.3042 0.1796 0.2945 -4.4229 179.2520 2.4839 -12.4698 0.6093 0.0053 61.4481 -0.4115 -2.3858 28.4528 0.0000 4.5109 -2.8447 -178.6638 -1.3700 -11.8925 0.7793 5.7435 62.3011 1.0290 2.3847 28.3887 -0.0000 14.3613 1.4857 0.1881 1.5634 3.2590 0.7923 -4.8417 -8.0032 -0.5737 -92.3263 67.0793 178.3692 25.8669 23.5240 -49.5915 2.5547 7.1670 -43.1715 -52.8342 -48.6398 -51.8667 -2.0276 6.5590 9.0336 -5.1889 0.3082 3.5410 -5.2349 0.3426 0.4306 -1.5280 -7.3854 -2.5866 -5.4763 6.5398 0.0625 90.6576 63.7879 -177.7283 -33.1589 28.8403 45.9340 -7.8172 0.1563 62.5702 34.0823 -47.8197 42.8944 1.8033 3.9791 -15.0986 4.8986 3.0048 -9.3103 5.2244 0.3950 2.0147 
0.0015 0.0431 1.3159 1.0934 0.2466 0.1647 0.3123 -4.3068 179.3037 2.3340 -12.4755 0.5946 0.1550 61.5022 -0.5101 -2.3858 28.4528 0.0000 4.6086 -2.7175 -178.6240 -1.3089 -11.8560 0.7895 5.7651 62.3813 0.9342 2.3847 28.3887 -0.0000 14.5076 1.4454 0.1895 1.5047 3.3584 0.7556 -4.6241 -8.1541 -0.5478 -92.3228 67.1398 178.3739 25.9552 23.6028 -49.5846 2.7954 6.9221 -42.9987 -51.4440 -47.3796 -50.5627 -2.0276 6.5590 9.0336 -5.1889 0.3082 3.5410 -5.2349 0.3426 0.4306 -1.5024 -7.5568 -2.5928 -5.3006 6.6747 0.1016 90.6624 63.8287 -177.7117 -33.2522 28.8820 45.9704 -7.9495 -0.1075 62.2964 33.0808 -46.3518 41.8767 1.8033 3.9791 -15.0986 4.8986 3.0048 -9.3103 5.2244 0.3950 2.0147 
0.0023 0.0421 1.3158 1.0412 0.2447 0.1485 0.3798 -4.2613 179.3624 2.2830 -12.4678 0.5832 0.2695 61.5132 -0.5883 -2.3858 28.4528 0.0000 4.6718 -2.6662 -178.5776 -1.3379 -11.8401 0.7825 5.8679 62.4051 0.8460 2.3847 28.3887 -0.0000 14.6402 1.4052 0.1950 1.4430 3.3842 0.7169 -4.4298 -8.2660 -0.5086 -92.3187 67.1800 178.3821 26.0268 23.6446 -49.5788 3.0352 6.6815 -42.8387 -49.7163 -45.9240 -48.9619 -2.0276 6.5590 9.0336 -5.1889 0.3082 3.5410 -5.2349 0.3426 0.4306 -1.4843 -7.7141 -2.6055 -5.1427 6.7998 0.1190 90.6581 63.8280 -177.7228 -33.3336 28.9066 46.0062 -8.1137 -0.4439 62.0391 31.7007 -44.7755 40.5782 1.8033 3.9791 -15.0986 4.8986 3.0048 -9.3103 5.2244 0.3950 2.0147 
0.0034 0.0409 1.3157 0.9843 0.2466 0.1313 0.4547 -4.2224 179.4319 2.2262 -12.4576 0.5705 0.4038 61.5137 -0.6838 -2.3858 28.4528 0.0000 4.7422 -2.6214 -178.5214 -1.3776 -11.8543 0.7752 6.0084 62.4497 0.7265 2.3847 28.3887 -0.0000 14.7914 1.3593 0.1999 1.3675 3.4068 0.6854 -4.2059 -8.3899 -0.4674 -92.3141 67.2245 178.3918 26.0959 23.6843 -49.5677 3.3392 6.3807 -42.6361 -47.1905 -43.8051 -46.6508 -2.0276 6.5590 9.0336 -5.1889 0.3082 3.5410 -5.2349 0.3426 0.4306 -1.4642 -7.8927 -2.6203 -4.9596 6.9416 0.1362 90.6526 63.8241 -177.7377 -33.4295 28.9357 46.0543 -8.3245 -0.8679 61.7215 29.6456 -42.4775 38.6683 1.8033 3.9791 -15.0986 4.8986 3.0048 -9.3103 5.2244 0.3950 2.0147 
0.0046 0.0397 1.3156 0.9262 0.2112 0.1275 0.5309 -4.1643 179.4939 2.2012 -12.4658 0.5654 0.5278 61.5508 -0.8037 -2.3858 28.4528 0.0000 4.8076 -2.5275 -178.4733 -1.4202 -11.8690 0.7674 6.1638 62.5359 0.5944 2.3847 28.3887 -0.0000 14.9180 1.3279 0.1994 1.2887 3.4573 0.6609 -3.9811 -8.4994 -0.4370 -92.3125 67.2626 178.3929 26.1224 23.7069 -49.5478 3.6548 6.0713 -42.4252 -44.3227 -41.2960 -44.0627 -2.0276 6.5590 9.0336 -5.1889 0.3082 3.5410 -5.2349 0.3426 0.4306 -1.4396 -8.0270 -2.6322 -4.7752 7.0431 0.1418 90.6507 63.8119 -177.7435 -33.5100 28.9617 46.1036 -8.5197 -1.2586 61.3998 27.3277 -39.6993 36.4944 1.8033 3.9791 -15.0986 4.8986 3.0048 -9.3103 5.2244 0.3950 2.0147 
0.0055 0.0386 1.3155 0.8733 0.1458 0.1333 0.6553 -4.0819 179.5348 2.2639 -12.4758 0.5673 0.6046 61.6175 -0.9030 -2.3858 28.4528 0.0000 4.8600 -2.3931 -178.4480 -1.4615 -11.8531 0.7579 6.2835 62.6288 0.5033 2.3847 28.3887 -0.0000 14.9787 1.3132 0.1969 1.2244 3.5471 0.6433 -3.7801 -8.5932 -0.4196 -92.3138 67.2908 178.3861 26.1258 23.7190 -49.5294 3.8959 5.8351 -42.2582 -42.0450 -39.1794 -42.0349 -2.0276 6.5590 9.0336 -5.1889 0.3082 3.5410 -5.2349 0.3426 0.4306 -1.4134 -8.1068 -2.6402 -4.6095 7.0970 0.1367 90.6526 63.7933 -177.7407 -33.5576 28.9786 46.1284 -8.6474 -1.5151 61.1611 25.5160 -37.3146 34.7777 1.8033 3.9791 -15.0986 4.8986 3.0048 -9.3103 5.2244 0.3950 2.0147 
0.0062 0.0374 1.3155 0.8140 0.0747 0.1390 0.6863 -3.9841 179.5605 2.2258 -12.4704 0.5683 0.6681 61.6809 -0.9853 -2.3858 28.4528 0.0000 4.9178 -2.2451 -178.4299 -1.5049 -11.8278 0.7473 6.3927 62.7223 0.4274 2.3847 28.3887 -0.0000 14.9984 1.2956 0.1954 1.1576 3.6707 0.6322 -3.5484 -8.7102 -0.4026 -92.3156 67.3228 178.3777 26.1382 23.7358 -49.5128 4.1221 5.6133 -42.0932 -39.8960 -37.0588 -40.1473 -2.0276 6.5590 9.0336 -5.1889 0.3082 3.5410 -5.2349 0.3426 0.4306 -1.3850 -8.1964 -2.6526 -4.4163 7.1569 0.1317 90.6548 63.7724 -177.7368 -33.6051 28.9971 46.1415 -8.7661 -1.7490 60.9396 23.8129 -34.9346 33.1823 1.8033 3.9791 -15.0986 4.8986 3.0048 -9.3103 5.2244 0.3950 2.0147 
0.0067 0.0364 1.3154 0.7740 0.0634 0.1503 0.7296 -3.9728 179.5684 2.1981 -12.4980 0.5647 0.7204 61.6887 -1.0217 -2.3858 28.4528 0.0000 5.0374 -2.1797 -178.4243 -1.3994 -11.8192 0.7529 6.3924 62.7230 0.3935 2.3847 28.3887 -0.0000 14.9762 1.2833 0.1580 1.0925 3.6885 0.6742 -3.3353 -8.7801 -0.3939 -92.3207 67.3481 178.3596 26.1612 23.7537 -49.4751 4.2835 5.4516 -41.9747 -38.3366 -35.4374 -38.7953 -2.0276 6.5590 9.0336 -5.1889 0.3082 3.5410 -5.2349 0.3426 0.4306 -1.3841 -8.2531 -2.7301 -4.2203 7.1929 0.1580 90.6605 63.7574 -177.7236 -33.6488 29.0251 46.1318 -8.8803 -1.9644 60.7738 22.5466 -33.1863 32.0678 1.8033 3.9791 -15.0986 4.8986 3.0048 -9.3103 5.2244 0.3950 2.0147 
0.0069 0.0355 1.3153 0.7355 0.0525 0.1594 0.7706 -3.9558 179.5684 2.1714 -12.5155 0.5607 0.7543 61.6938 -1.0366 -2.3858 28.4528 -0.0000 5.0268 -2.1195 -178.4304 -1.4228 -11.8019 0.7576 6.3736 62.7160 0.3828 2.3847 28.3887 -0.0000 14.9240 1.2491 0.2024 1.0400 3.7584 0.5692 -3.1175 -8.8760 -0.3175 -92.3257 67.3726 178.3421 26.1932 23.7742 -49.4419 4.3946 5.3377 -41.8875 -37.2537 -34.2696 -37.8649 -2.0276 6.5590 9.0336 -5.1889 0.3082 3.5410 -5.2349 0.3426 0.4306 -1.3832 -8.3077 -2.8047 -4.0287 7.2273 0.1829 90.6660 63.7429 -177.7108 -33.6847 29.0505 46.1099 -8.9624 -2.1178 60.6583 21.6660 -31.9350 31.3060 1.8033 3.9791 -15.0986 4.8986 3.0048 -9.3103 5.2244 0.3950 2.0147 
