HIERARCHY
ROOT Hips
{
	OFFSET 0.0000 0.0000 0.0000
	CHANNELS 6 Xposition Yposition Zposition Zrotation Xrotation Yrotation 
	JOINT LeftUpLeg
	{
		OFFSET 0.1261 -0.0140 -0.0652
		CHANNELS 3 Zrotation Xrotation Yrotation 
		JOINT LeftLeg
		{
			OFFSET 0.0000 0.0000 0.5699
			CHANNELS 3 Zrotation Xrotation Yrotation 
			JOINT LeftFoot
			{
				OFFSET 0.0000 0.0000 0.5444
				CHANNELS 3 Zrotation Xrotation Yrotation 
				JOINT LeftToeBase
				{
					OFFSET 0.0000 0.0000 0.2071
					CHANNELS 3 Zrotation Xrotation Yrotation 
					JOINT Site
					{
						OFFSET 0.0000 0.0000 0.2071

					}
				}
			}
		}
	}
	JOINT RightUpLeg
	{
		OFFSET -0.1240 -0.0084 -0.0652
		CHANNELS 3 Zrotation Xrotation Yrotation 
		JOINT RightLeg
		{
			OFFSET 0.0000 0.0000 0.5700
			CHANNELS 3 Zrotation Xrotation Yrotation 
			JOINT RightFoot
			{
				OFFSET 0.0000 0.0000 0.5444
				CHANNELS 3 Zrotation Xrotation Yrotation 
				JOINT RightToeBase
				{
					OFFSET 0.0000 0.0000 0.2075
					CHANNELS 3 Zrotation Xrotation Yrotation 
					JOINT Site
					{
						OFFSET 0.0000 0.0000 0.2075

					}
				}
			}
		}
	}
	JOINT Spine
	{
		OFFSET 0.0002 -0.0078 0.1174
		CHANNELS 3 Zrotation Xrotation Yrotation 
		JOINT Spine1
		{
			OFFSET 0.0000 0.0000 0.1373
			CHANNELS 3 Zrotation Xrotation Yrotation 
			JOINT Spine2
			{
				OFFSET 0.0000 0.0000 0.1569
				CHANNELS 3 Zrotation Xrotation Yrotation 
				JOINT LeftShoulder
				{
					OFFSET 0.0805 -0.0025 0.1601
					CHANNELS 3 Zrotation Xrotation Yrotation 
					JOINT LeftArm
					{
						OFFSET 0.0000 0.0000 0.1644
						CHANNELS 3 Zrotation Xrotation Yrotation 
						JOINT LeftForeArm
						{
							OFFSET 0.0000 0.0000 0.3646
							CHANNELS 3 Zrotation Xrotation Yrotation 
							JOINT LeftHand
							{
								OFFSET 0.0000 0.0000 0.3608
								CHANNELS 3 Zrotation Xrotation Yrotation 
								JOINT LeftHandIndex1
								{
									OFFSET 0.0000 0.0000 0.0860
									CHANNELS 3 Zrotation Xrotation Yrotation 
									JOINT LeftHandIndex2
									{
										OFFSET 0.0000 0.0000 0.0472
										CHANNELS 3 Zrotation Xrotation Yrotation 
										JOINT LeftHandIndex3
										{
											OFFSET -0.0043 -0.0006 0.0382
											CHANNELS 3 Zrotation Xrotation Yrotation 
											JOINT Site
											{
												OFFSET -0.0043 -0.0006 0.0382

											}
										}
									}
								}
							}
						}
					}
				}
				JOINT Neck
				{
					OFFSET 0.0000 0.0000 0.1765
					CHANNELS 3 Zrotation Xrotation Yrotation 
					JOINT Head
					{
						OFFSET 0.0000 -0.0017 0.0779
						CHANNELS 3 Zrotation Xrotation Yrotation 
						JOINT Site
						{
							OFFSET 0.0000 -0.0017 0.0779

						}
					}
				}
				JOINT RightShoulder
				{
					OFFSET -0.0804 0.0003 0.1597
					CHANNELS 3 Zrotation Xrotation Yrotation 
					JOINT RightArm
					{
						OFFSET 0.0000 0.0000 0.1642
						CHANNELS 3 Zrotation Xrotation Yrotation 
						JOINT RightForeArm
						{
							OFFSET 0.0000 0.0000 0.3656
							CHANNELS 3 Zrotation Xrotation Yrotation 
							JOINT RightHand
							{
								OFFSET 0.0000 0.0000 0.3606
								CHANNELS 3 Zrotation Xrotation Yrotation 
								JOINT RightHandIndex1
								{
									OFFSET 0.0000 0.0000 0.0700
									CHANNELS 3 Zrotation Xrotation Yrotation 
									JOINT RightHandIndex2
									{
										OFFSET 0.0000 0.0000 0.0523
										CHANNELS 3 Zrotation Xrotation Yrotation 
										JOINT RightHandIndex3
										{
											OFFSET 0.0090 -0.0008 0.0422
											CHANNELS 3 Zrotation Xrotation Yrotation 
											JOINT Site
											{
												OFFSET 0.0090 -0.0008 0.0422

											}
										}
									}
								}
							}
						}
					}
				}
			}
		}
	}
}

MOTION
Frames: 135
Frame Time: 0.033333
0.0000 0.0431 1.2764 -0.0911 2.4084 0.5218 -2.9987 -5.4771 178.8437 2.2945 -13.0507 0.6126 -0.0336 71.1768 -0.1667 -2.3858 28.4528 0.0000 10.5770 -5.0021 -179.0884 -0.7975 -11.4604 0.8657 5.2565 70.0835 1.0802 2.3847 28.3887 -0.0000 -4.2905 6.6834 0.9808 -1.9971 -4.0725 -0.1452 6.3411 7.1065 -0.3915 -91.1878 69.9143 -177.8698 -8.2123 3.6529 -20.5981 25.8516 -2.0429 -7.5377 -10.8091 -30.3286 -4.9308 -2.0276 6.5590 9.0336 -5.1889 0.3082 3.5410 -5.2349 0.3426 0.4306 4.3322 17.4566 -6.5823 1.3391 -12.8342 2.1144 89.0398 68.8567 177.4175 9.2255 8.0673 1.7447 -24.0398 -12.2873 36.0242 8.7134 -30.3981 7.3481 1.8033 3.9791 -15.0986 4.8986 3.0048 -9.3103 5.2244 0.3950 2.0147 
-0.0000 0.0439 1.2767 -0.0826 2.5708 0.5257 -3.0048 -5.6223 178.8188 2.2575 -12.9006 0.5974 -0.0432 71.0006 -0.1188 -2.3858 28.4528 0.0000 10.5537 -5.1213 -179.0481 -0.7940 -11.2648 0.8518 5.2404 69.9041 1.0887 2.3847 28.3887 -0.0000 -4.4013 6.8373 1.0124 -2.0269 -4.5018 -0.1689 6.3977 7.7040 -0.4409 -91.1457 69.6238 -177.7715 -7.9764 3.5930 -20.6847 25.6263 -2.2495 -8.4492 -10.6619 -31.2853 -5.1590 -2.0276 6.5590 9.0336 -5.1889 0.3082 3.5410 -5.2349 0.3426 0.4306 4.4193 18.2159 -6.8217 1.4162 -13.3482 2.1201 88.9823 68.4574 177.2995 8.9751 8.0437 2.1011 -23.9666 -12.3184 36.2674 8.5029 -31.2043 7.3584 1.8033 3.9791 -15.0986 4.8986 3.0048 -9.3103 5.2244 0.3950 2.0147 
-0.0003 0.0462 1.2774 -0.0617 2.9967 0.5420 -3.0209 -6.0536 178.7441 2.1630 -12.5836 0.5623 -0.0640 70.5623 0.0011 -2.3858 28.4528 0.0000 10.4946 -5.4789 -178.9488 -0.7837 -10.8146 0.8201 5.2206 69.4501 1.0867 2.3847 28.3887 -0.0000 -4.6988 7.2419 1.0903 -2.1124 -5.5258 -0.2175 6.5583 9.2224 -0.5777 -91.0311 68.8618 -177.5173 -7.2699 3.7029 -21.4031 25.0637 -2.5716 -10.1136 -10.3500 -33.7600 -5.8299 -2.0276 6.5590 9.0336 -5.1889 0.3082 3.5410 -5.2349 0.3426 0.4306 4.6654 20.2059 -7.4587 1.6316 -14.6916 2.1370 88.8256 67.4101 176.9948 8.2865 8.2377 3.1241 -23.8078 -12.3767 36.8018 7.9777 -33.3087 7.4232 1.8033 3.9791 -15.0986 4.8986 3.0048 -9.3103 5.2244 0.3950 2.0147 
-0.0006 0.0491 1.2778 -0.0137 3.5622 0.5766 -3.0879 -6.8309 178.6258 2.1578 -12.5967 0.5618 -0.2295 70.3357 0.1835 -2.3858 28.4528 0.0000 10.3985 -6.1450 -178.8570 -0.7828 -10.6238 0.8060 5.2394 69.0776 1.0535 2.3847 28.3887 -0.0000 -4.9041 7.6123 1.1624 -2.1655 -6.5476 -0.2916 6.5797 10.5545 -0.6799 -90.9517 68.3073 -177.3584 -6.5460 4.4497 -22.5242 24.4530 -2.6383 -10.9488 -10.4742 -36.4995 -6.8101 -2.0276 6.5590 9.0336 -5.1889 0.3082 3.5410 -5.2349 0.3426 0.4306 4.7072 21.8668 -7.9457 1.8941 -15.9422 2.1978 88.6797 66.3803 176.7452 7.4313 8.7927 4.1499 -23.5273 -12.2672 37.2009 7.6157 -35.6100 7.6827 1.8033 3.9791 -15.0986 4.8986 3.0048 -9.3103 5.2244 0.3950 2.0147 
-0.0010 0.0525 1.2780 0.0383 4.1568 0.6126 -3.2015 -7.7339 178.4909 2.1259 -12.7579 0.5709 -0.4002 70.1647 0.3627 -2.3858 28.4528 0.0000 10.3021 -6.9431 -178.7671 -0.7818 -10.5934 0.8039 5.3099 68.7551 0.9682 2.3847 28.3887 -0.0000 -5.1049 7.9912 1.2327 -2.2165 -7.4051 -0.3418 6.5934 11.8101 -0.7837 -90.8729 67.7641 -177.2081 -5.7304 5.4924 -24.3566 23.8720 -2.4429 -10.7668 -10.7993 -39.2608 -7.9887 -2.0276 6.5590 9.0336 -5.1889 0.3082 3.5410 -5.2349 0.3426 0.4306 4.7395 23.5279 -8.4239 2.1779 -17.2055 2.2743 88.5276 65.3307 176.4998 6.5033 9.5872 5.4137 -23.2812 -12.0787 37.3760 7.3261 -37.9454 8.0523 1.8033 3.9791 -15.0986 4.8986 3.0048 -9.3103 5.2244 0.3950 2.0147 
-0.0015 0.0564 1.2781 0.0991 4.8740 0.6587 -3.2177 -8.8244 178.3448 2.2021 -12.9574 0.5796 -0.5857 69.9824 0.5687 -2.3858 28.4528 0.0000 10.1679 -7.8950 -178.6634 -0.8759 -10.5381 0.7824 5.4784 68.3938 0.8749 2.3847 28.3887 -0.0000 -5.2935 8.3796 1.2887 -2.2646 -8.2679 -0.3730 6.5663 13.0438 -0.9081 -90.8249 67.0892 -177.1789 -4.7476 6.5892 -26.7685 22.9949 -1.9661 -9.5722 -11.6842 -42.0672 -9.5695 -2.0276 6.5590 9.0336 -5.1889 0.3082 3.5410 -5.2349 0.3426 0.4306 4.6767 24.9107 -8.7419 2.4331 -18.2910 2.2985 88.4204 64.1785 176.4051 5.3126 10.3630 6.7782 -22.9081 -11.7203 37.4168 7.2193 -40.3134 8.7170 1.8033 3.9791 -15.0986 4.8986 3.0048 -9.3103 5.2244 0.3950 2.0147 
-0.0020 0.0608 1.2785 0.1684 5.7258 0.7204 -3.3712 -10.0618 178.1498 2.1528 -13.1198 0.5836 -0.7846 69.7661 0.8023 -2.3858 28.4528 -0.0000 9.9862 -8.9483 -178.5483 -1.1092 -10.3396 0.7257 5.7676 67.9551 0.7931 2.3847 28.3887 -0.0000 -5.4431 8.7491 1.3155 -2.2974 -9.1192 -0.3885 6.4718 14.1752 -1.0444 -90.8318 66.2675 -177.3260 -3.7079 7.4252 -29.1702 21.6783 -1.4165 -8.0934 -13.3077 -44.7267 -11.5858 -2.0276 6.5590 9.0336 -5.1889 0.3082 3.5410 -5.2349 0.3426 0.4306 4.4587 25.7797 -8.7951 2.6129 -19.0382 2.2345 88.3979 62.9567 176.5317 3.8782 10.8146 7.9864 -22.2983 -11.2195 37.5772 7.3984 -42.5449 9.7564 1.8033 3.9791 -15.0986 4.8986 3.0048 -9.3103 5.2244 0.3950 2.0147 
-0.0024 0.0649 1.2788 0.2302 6.4960 0.7681 -3.4794 -11.2050 177.9840 2.1474 -13.2979 0.5901 -0.9525 69.5712 0.9916 -2.3858 28.4528 -0.0000 9.8182 -9.9353 -178.4433 -1.3301 -10.2083 0.6789 6.0619 67.5657 0.6818 2.3847 28.3887 -0.0000 -5.5638 9.0891 1.3389 -2.3018 -9.5532 -0.3675 6.3867 15.0352 -1.1602 -90.8421 65.5355 -177.4533 -2.9839 7.8875 -30.6177 20.4576 -1.2655 -8.3266 -14.9805 -46.9271 -13.5712 -2.0276 6.5590 9.0336 -5.1889 0.3082 3.5410 -5.2349 0.3426 0.4306 4.2639 26.5546 -8.8356 2.7733 -19.7024 2.1823 88.3834 61.8685 176.6393 2.6888 10.9948 9.0348 -21.6887 -10.8598 38.0731 7.6708 -44.4149 10.7997 1.8033 3.9791 -15.0986 4.8986 3.0048 -9.3103 5.2244 0.3950 2.0147 
-0.0026 0.0702 1.2786 0.3865 7.5231 0.7723 -3.7071 -12.8686 177.8327 2.0916 -13.8001 0.5986 -1.0749 69.3241 1.1940 -2.3858 28.4528 -0.0000 9.6197 -11.5152 -178.2577 -1.4105 -10.6083 0.6887 6.3915 67.3594 0.4063 2.3847 28.3887 -0.0000 -5.7165 9.3422 1.3353 -2.3018 -10.3978 -0.3764 6.2491 15.8504 -1.2053 -91.1482 65.2124 -178.3145 -2.1916 8.8344 -30.1661 19.5352 -1.4577 -10.4700 -16.9184 -48.8028 -15.7763 -2.0276 6.5590 9.0336 -5.1889 0.3082 3.5410 -5.2349 0.3426 0.4306 4.0106 26.7474 -8.7949 2.8772 -20.0405 2.1517 88.6667 61.4438 177.3608 1.1219 12.0034 9.1012 -21.1432 -10.6045 38.7407 8.0709 -46.3098 11.9535 1.8033 3.9791 -15.0986 4.8986 3.0048 -9.3103 5.2244 0.3950 2.0147 
-0.0028 0.0765 1.2785 0.5596 8.6606 0.7677 -3.9624 -14.6953 177.6613 2.0401 -14.2610 0.6055 -1.2038 68.9614 1.4002 -2.3858 28.4528 0.0000 9.3980 -13.2529 -178.0445 -1.5213 -10.9519 0.6896 6.7803 67.0358 0.0814 2.3847 28.3887 -0.0000 -5.8769 9.6342 1.3297 -2.2673 -10.8749 -0.3275 6.0914 16.5237 -1.2501 -91.4983 64.8773 -179.2660 -1.2522 10.0157 -30.3819 18.5638 -1.4767 -11.9680 -19.2135 -50.6050 -18.3433 -2.0276 6.5590 9.0336 -5.1889 0.3082 3.5410 -5.2349 0.3426 0.4306 3.7332 26.9376 -8.7464 2.9880 -20.3964 2.1197 88.9916 61.0065 178.1574 -0.6456 13.2196 9.5748 -20.5861 -10.2822 39.3132 8.6135 -48.1845 13.3220 1.8033 3.9791 -15.0986 4.8986 3.0048 -9.3103 5.2244 0.3950 2.0147 
-0.0030 0.0831 1.2781 0.6980 9.8593 0.7320 -4.1846 -16.6175 177.5099 2.0234 -14.7570 0.6219 -1.3822 68.6705 1.6252 -2.3858 28.4528 0.0000 9.2510 -15.1554 -177.7889 -1.6233 -11.4715 0.7015 7.1698 66.8317 -0.2539 2.3847 28.3887 -0.0000 -6.0270 9.9209 1.3564 -2.2078 -11.1961 -0.2998 5.9337 16.9813 -1.1932 -91.9050 64.8451 179.6601 -0.2731 11.5754 -31.3100 18.1119 -1.3406 -11.8738 -21.1299 -52.1161 -20.5626 -2.0276 6.5590 9.0336 -5.1889 0.3082 3.5410 -5.2349 0.3426 0.4306 3.4841 26.5350 -8.8072 3.0468 -20.4103 2.0463 89.3809 60.6815 179.0750 -2.3639 14.6438 10.1744 -19.9503 -9.8037 39.6679 9.5157 -49.9015 14.7463 1.8033 3.9791 -15.0986 4.8986 3.0048 -9.3103 5.2244 0.3950 2.0147 
-0.0033 0.0896 1.2776 0.8088 11.0556 0.6808 -4.3814 -18.5324 177.3681 2.0322 -15.2933 0.6462 -1.5923 68.4698 1.8590 -2.3858 28.4528 -0.0000 9.1600 -17.0949 -177.5202 -1.7232 -12.1254 0.7198 7.5761 66.7505 -0.6099 2.3847 28.3887 -0.0000 -6.1666 10.1993 1.3989 -2.1329 -11.3883 -0.2822 5.7801 17.2802 -1.0753 -92.3257 65.0050 178.5396 0.6936 13.2905 -33.2699 18.0147 -0.9699 -9.5295 -22.6919 -53.3324 -22.4564 -2.0276 6.5590 9.0336 -5.1889 0.3082 3.5410 -5.2349 0.3426 0.4306 3.2613 25.7772 -8.9399 3.0715 -20.2092 1.9475 89.7980 60.4395 -179.9638 -3.9873 16.0583 10.9451 -19.2957 -9.2317 39.8031 10.6048 -51.3748 16.1509 1.8033 3.9791 -15.0986 4.8986 3.0048 -9.3103 5.2244 0.3950 2.0147 
-0.0038 0.0959 1.2771 0.9679 12.3056 0.6459 -4.6464 -20.5042 177.1737 2.0884 -15.8958 0.6865 -1.8663 68.3162 2.1166 -2.3858 28.4528 -0.0000 9.0213 -19.0725 -177.2837 -1.7931 -12.8321 0.7455 7.9540 66.7000 -0.9678 2.3847 28.3887 -0.0000 -6.3226 10.4395 1.4223 -2.0795 -11.4651 -0.2673 5.6146 17.4566 -0.9744 -92.7230 65.1516 177.4664 1.8081 15.0635 -37.7175 17.9203 0.0317 -2.2534 -24.1367 -54.2476 -24.2318 -2.0276 6.5590 9.0336 -5.1889 0.3082 3.5410 -5.2349 0.3426 0.4306 3.0515 25.0982 -9.0273 3.0889 -20.0525 1.8494 90.2068 60.2540 -179.0347 -5.5384 17.2993 11.9322 -18.6807 -8.6636 39.8359 11.6754 -52.5322 17.5268 1.8033 3.9791 -15.0986 4.8986 3.0048 -9.3103 5.2244 0.3950 2.0147 
-0.0049 0.1035 1.2765 1.5315 14.2711 0.6983 -5.4505 -23.3424 176.6371 2.4405 -16.6227 0.8179 -2.5981 68.0589 2.5803 -2.3858 28.4528 -0.0000 8.4340 -21.7269 -177.1587 -1.5754 -13.4132 0.8294 7.7820 66.3441 -1.0344 2.3847 28.3887 -0.0000 -6.6345 10.3727 1.3550 -2.2397 -11.7121 -0.3964 5.3398 17.2412 -0.9794 -93.1008 65.2248 176.4434 2.8078 15.9330 -38.3165 17.7167 0.0518 -2.4121 -25.2390 -54.7138 -25.6619 -2.0276 6.5590 9.0336 -5.1889 0.3082 3.5410 -5.2349 0.3426 0.4306 2.8759 24.7768 -8.7744 3.0577 -20.1775 1.7419 90.6437 60.4019 -178.0322 -7.2495 18.7334 12.9173 -18.0609 -8.1236 39.9679 12.8254 -53.2546 18.9825 1.8033 3.9791 -15.0986 4.8986 3.0048 -9.3103 5.2244 0.3950 2.0147 
-0.0062 0.1107 1.2761 2.0966 16.2464 0.7286 -6.2943 -26.0748 176.0486 2.7987 -17.2782 0.9559 -3.2547 67.8348 2.9535 -2.3858 28.4528 0.0000 7.8427 -24.3442 -177.0586 -1.3670 -14.0899 0.9213 7.7468 66.1268 -1.2440 2.3847 28.3887 -0.0000 -6.9442 10.3538 1.2802 -2.3602 -11.3411 -0.4333 5.0626 16.7401 -1.0004 -93.4760 65.3007 175.4202 3.6203 16.5635 -39.0691 17.5072 0.0746 -2.5674 -26.1613 -54.9229 -26.9228 -2.0276 6.5590 9.0336 -5.1889 0.3082 3.5410 -5.2349 0.3426 0.4306 2.7024 24.4547 -8.5237 3.0278 -20.2999 1.6326 91.0768 60.5534 -177.0285 -8.9991 20.0429 14.2308 -17.3948 -7.6409 40.4389 13.8688 -53.6877 20.3242 1.8033 3.9791 -15.0986 4.8986 3.0048 -9.3103 5.2244 0.3950 2.0147 
-0.0078 0.1183 1.2755 2.7591 18.2556 0.6813 -7.2907 -28.8072 175.4077 3.1592 -17.9127 1.1011 -4.0642 67.0059 3.5189 -2.3858 28.4528 0.0000 7.1742 -27.1035 -176.9597 -1.4513 -15.0974 0.9637 7.9466 65.8632 -1.4062 2.3847 28.3887 -0.0000 -7.2976 10.3974 1.1937 -2.4870 -10.1988 -0.2657 4.7659 15.8712 -1.1659 -93.8105 65.5275 174.4587 4.3170 17.1586 -40.2284 17.3019 0.1006 -2.7419 -27.0381 -54.9552 -28.0899 -2.0276 6.5590 9.0336 -5.1889 0.3082 3.5410 -5.2349 0.3426 0.4306 2.5232 24.1727 -8.0188 2.9253 -20.5172 1.3837 91.5036 60.8604 -176.0089 -10.6282 21.4965 16.1280 -16.8572 -7.2733 41.0084 14.8114 -53.7797 21.5046 1.8033 3.9791 -15.0986 4.8986 3.0048 -9.3103 5.2244 0.3950 2.0147 
-0.0095 0.1254 1.2750 3.4171 20.0772 0.5766 -8.2817 -31.2256 174.7830 3.4808 -18.3380 1.2279 -4.7459 66.7235 3.9622 -2.3858 28.4528 0.0000 6.5363 -29.6449 -176.8689 -1.7048 -16.0719 0.9538 8.3012 65.5035 -1.5699 2.3847 28.3887 -0.0000 -7.6409 10.4334 1.1070 -2.6090 -8.8006 -0.0527 4.4835 14.9158 -1.3778 -94.0816 65.8153 173.6296 4.7981 17.5856 -41.4547 17.1172 0.1273 -2.9026 -27.6412 -54.7503 -28.9296 -2.0276 6.5590 9.0336 -5.1889 0.3082 3.5410 -5.2349 0.3426 0.4306 2.3614 23.9421 -7.4250 2.7920 -20.7631 1.0799 91.8764 61.2233 -175.0842 -11.9844 22.7068 18.2500 -16.4750 -6.9753 41.3728 15.4689 -53.5276 22.3402 1.8033 3.9791 -15.0986 4.8986 3.0048 -9.3103 5.2244 0.3950 2.0147 
-0.0115 0.1333 1.2739 4.0194 21.7677 0.4409 -9.2304 -33.6548 174.1345 3.7468 -18.9092 1.3513 -5.2753 66.8881 4.2759 -2.3858 28.4528 0.0000 5.9598 -32.2922 -176.7934 -1.9132 -17.3174 0.9633 8.9475 66.3976 -2.0595 2.3847 28.3887 -0.0000 -7.9699 10.5555 1.0280 -2.6735 -6.9885 0.1785 4.2141 13.9091 -1.6057 -94.3397 66.3098 172.7321 5.1401 17.9492 -42.9501 16.9337 0.1592 -3.0896 -27.9583 -54.2370 -29.5086 -2.0276 6.5590 9.0336 -5.1889 0.3082 3.5410 -5.2349 0.3426 0.4306 2.1484 23.6287 -6.8338 2.6699 -21.0229 0.7777 92.2505 61.6410 -174.1210 -13.1330 23.7797 20.8691 -16.0692 -6.5771 41.4742 16.2040 -52.9411 23.1140 1.8033 3.9791 -15.0986 4.8986 3.0048 -9.3103 5.2244 0.3950 2.0147 
-0.0132 0.1401 1.2717 4.1910 22.4154 0.3699 -9.5885 -35.3154 173.7921 3.7678 -20.1098 1.4409 -5.5620 67.0962 4.5977 -2.3858 28.4528 0.0000 5.8173 -34.1733 -176.7598 -1.8879 -18.9830 1.0609 9.1670 66.7219 -2.3492 2.3847 28.3887 -0.0000 -8.1202 10.9071 1.0004 -2.5577 -4.8067 0.4826 4.0962 13.1569 -1.8248 -94.4627 67.1418 172.0182 5.2393 18.3088 -44.6132 16.8342 0.1893 -3.2598 -27.9251 -53.6139 -29.6827 -2.0276 6.5590 9.0336 -5.1889 0.3082 3.5410 -5.2349 0.3426 0.4306 1.8833 23.2283 -6.4871 2.6271 -21.2204 0.6088 92.4914 62.0285 -173.4562 -13.4305 24.5715 23.2592 -15.6897 -6.1786 41.4419 17.2409 -52.2582 23.8336 1.8033 3.9791 -15.0986 4.8986 3.0048 -9.3103 5.2244 0.3950 2.0147 
-0.0152 0.1485 1.2691 4.3670 23.0749 0.3103 -9.9902 -37.1387 173.3843 3.7945 -21.2678 1.5299 -5.8414 67.1007 4.9224 -2.3858 28.4528 0.0000 5.6906 -36.2452 -176.7205 -1.8783 -20.5842 1.1501 9.3853 66.8000 -2.6289 2.3847 28.3887 -0.0000 -8.2489 11.2021 0.9509 -2.4188 -2.6648 0.6825 3.9634 12.4210 -1.9967 -94.5619 67.9629 171.2923 5.1016 18.4499 -46.1835 16.7336 0.2216 -3.4254 -27.5516 -52.7033 -29.5197 -2.0276 6.5590 9.0336 -5.1889 0.3082 3.5410 -5.2349 0.3426 0.4306 1.6246 22.8307 -6.1484 2.5854 -21.4134 0.4380 92.7230 62.4121 -172.7943 -13.4960 25.0595 25.2822 -15.2652 -5.8489 41.8812 17.9582 -51.2750 24.2501 1.8033 3.9791 -15.0986 4.8986 3.0048 -9.3103 5.2244 0.3950 2.0147 
-0.0167 0.1583 1.2658 4.0871 23.8876 0.2894 -9.9011 -39.2927 173.1218 3.8244 -22.5324 1.6277 -5.9427 66.9944 5.0878 -2.3858 28.4528 0.0000 6.1683 -38.6212 -176.3956 -2.0784 -22.0866 1.1545 9.9384 66.7197 -3.0545 2.3847 28.3887 -0.0000 -8.2906 11.4807 0.8902 -2.1102 -0.7587 0.9408 3.9283 11.7284 -2.0018 -94.5593 69.0136 170.6391 4.8549 18.5689 -47.8325 16.3641 0.2580 -3.5978 -27.4597 -51.8263 -29.3255 -2.0276 6.5590 9.0336 -5.1889 0.3082 3.5410 -5.2349 0.3426 0.4306 1.3825 22.2589 -6.0382 2.5876 -21.4662 0.4069 92.8967 63.1933 -172.1287 -13.5625 25.8022 27.4433 -14.7299 -5.4309 42.3855 18.9280 -50.1909 24.6451 1.8033 3.9791 -15.0986 4.8986 3.0048 -9.3103 5.2244 0.3950 2.0147 
-0.0183 0.1682 1.2620 3.6922 24.7120 0.2963 -9.7101 -41.4638 172.8704 3.8637 -23.7826 1.7288 -6.0923 66.8611 5.3113 -2.3858 28.4528 0.0000 6.8018 -40.9571 -176.0062 -2.3377 -23.4226 1.1172 10.4706 66.5496 -3.4055 2.3847 28.3887 -0.0000 -8.2951 11.7662 0.8271 -1.7635 0.9747 1.1352 3.9143 11.1021 -1.9412 -94.5044 70.1047 169.9805 4.5438 18.6437 -49.4213 15.9357 0.2970 -3.7670 -27.1943 -50.7460 -28.8939 -2.0276 6.5590 9.0336 -5.1889 0.3082 3.5410 -5.2349 0.3426 0.4306 1.1476 21.6537 -5.9852 2.6012 -21.4855 0.4061 93.0408 64.0566 -171.4552 -13.5140 26.4705 29.4890 -14.1866 -4.9809 42.8142 19.7148 -48.8703 24.8230 1.8033 3.9791 -15.0986 4.8986 3.0048 -9.3103 5.2244 0.3950 2.0147 
-0.0199 0.1769 1.2580 3.4142 25.5072 0.1820 -9.5167 -43.4357 172.7596 3.9649 -24.8188 1.8421 -6.2940 66.6763 5.5385 -2.3858 28.4528 0.0000 7.4195 -43.1096 -175.5032 -2.7203 -24.7040 1.0144 11.0698 66.4122 -3.6969 2.3847 28.3887 -0.0000 -8.3046 12.0571 0.7313 -1.4477 2.5993 1.3954 3.8498 10.5603 -1.9755 -94.5342 70.6972 169.3105 4.0539 18.3726 -50.7864 15.4889 0.3386 -3.9395 -26.5823 -49.2986 -28.1155 -2.0276 6.5590 9.0336 -5.1889 0.3082 3.5410 -5.2349 0.3426 0.4306 0.8520 21.4436 -5.6758 2.5720 -21.8600 0.2193 93.1947 64.7350 -170.7687 -13.3140 26.7539 31.3481 -13.6560 -4.4821 42.9605 20.0661 -47.1373 24.6374 1.8033 3.9791 -15.0986 4.8986 3.0048 -9.3103 5.2244 0.3950 2.0147 
-0.0215 0.1842 1.2535 3.4376 26.3515 -0.2900 -9.0909 -45.2132 173.1463 4.2195 -25.4395 1.9950 -6.2894 66.2954 5.5401 -2.3858 28.4528 0.0000 8.2189 -45.1692 -174.5498 -3.4477 -26.1494 0.7488 12.2549 66.3642 -4.1159 2.3847 28.3887 -0.0000 -8.3296 12.3727 0.5212 -1.1685 4.4374 1.8972 3.6422 10.0248 -2.2649 -94.8895 70.0439 168.6341 3.1156 17.2284 -51.9403 14.9467 0.3890 -4.1378 -25.4632 -47.1252 -26.7980 -2.0276 6.5590 9.0336 -5.1889 0.3082 3.5410 -5.2349 0.3426 0.4306 0.3493 22.2456 -4.6356 2.4090 -23.2118 -0.4851 93.4294 65.0007 -170.0092 -12.8516 26.2023 33.0016 -13.0556 -3.8590 42.7474 19.7738 -44.5311 23.8877 1.8033 3.9791 -15.0986 4.8986 3.0048 -9.3103 5.2244 0.3950 2.0147 
-0.0277 0.2009 1.2352 3.6025 28.9413 -2.2717 -8.1559 -50.6149 174.5465 5.2036 -28.1131 2.6549 -7.9330 66.3738 6.3432 -2.3858 28.4528 0.0000 10.7174 -51.4096 -171.1792 -6.0488 -31.3708 -0.4699 15.0391 67.3722 -5.0565 2.3847 28.3887 -0.0000 -8.7537 13.2103 0.7057 -0.5456 9.9385 1.3775 2.8865 8.0871 -0.9359 -95.5544 69.5945 166.7314 0.7463 14.5735 -55.3176 13.3254 0.5531 -4.7195 -21.6590 -39.0522 -21.8568 -2.0276 6.5590 9.0336 -5.1889 0.3082 3.5410 -5.2349 0.3426 0.4306 0.0698 25.1581 -4.8420 2.6902 -27.5299 -0.8132 94.8385 63.1745 -167.2589 -10.1414 22.0146 34.8980 -11.4060 -2.1995 42.1565 17.0495 -34.4849 20.5452 1.8033 3.9791 -15.0986 4.8986 3.0048 -9.3103 5.2244 0.3950 2.0147 
-0.0281 0.2017 1.2338 3.6161 29.1004 -2.3988 -8.0900 -51.0171 174.6369 5.2721 -28.4349 2.7156 -8.0546 66.4747 6.4239 -2.3858 28.4528 0.0000 10.9378 -51.8486 -170.9212 -6.2137 -31.8130 -0.5628 15.2874 67.5018 -5.2017 2.3847 28.3887 -0.0000 -8.8124 13.2513 0.7381 -0.5467 10.1678 1.3742 2.8479 8.0053 -0.8438 -95.5821 69.6038 166.6250 0.6066 14.4273 -55.4501 13.2334 0.5631 -4.7494 -21.4422 -38.5333 -21.5642 -2.0276 6.5590 9.0336 -5.1889 0.3082 3.5410 -5.2349 0.3426 0.4306 0.0885 25.3372 -4.9353 2.7293 -27.7823 -0.7824 94.9390 63.0070 -167.0953 -9.9816 21.7393 35.0352 -11.3133 -2.1053 42.0828 16.8571 -33.8419 20.3423 1.8033 3.9791 -15.0986 4.8986 3.0048 -9.3103 5.2244 0.3950 2.0147 
-0.0284 0.2024 1.2327 3.6109 29.2347 -2.4875 -8.0170 -51.3614 174.7062 5.2945 -28.7250 2.7518 -8.0807 66.5382 6.4446 -2.3858 28.4528 0.0000 11.1371 -52.2116 -170.7113 -6.2974 -32.1712 -0.6130 15.4104 67.6044 -5.2728 2.3847 28.3887 -0.0000 -8.8530 13.2821 0.7555 -0.5396 10.3676 1.3862 2.8257 7.9246 -0.7853 -95.6116 69.5838 166.5437 0.5008 14.2734 -55.5661 13.1648 0.5712 -4.7765 -21.2443 -38.0770 -21.3226 -2.0276 6.5590 9.0336 -5.1889 0.3082 3.5410 -5.2349 0.3426 0.4306 0.1056 25.4672 -4.9732 2.7478 -27.9702 -0.7660 95.0057 62.8898 -166.9908 -9.8886 21.4928 35.2108 -11.2101 -2.0063 42.0076 16.7205 -33.3160 20.1861 1.8033 3.9791 -15.0986 4.8986 3.0048 -9.3103 5.2244 0.3950 2.0147 
-0.0289 0.2037 1.2303 3.5988 29.4889 -2.6520 -7.8809 -52.0441 174.8289 5.3422 -29.3341 2.8284 -8.1442 66.6863 6.5008 -2.3858 28.4528 0.0000 11.5327 -52.9227 -170.3039 -6.4613 -32.8917 -0.7142 15.6643 67.8153 -5.4277 2.3847 28.3887 -0.0000 -8.9352 13.3467 0.7868 -0.5319 10.7559 1.4181 2.7837 7.7672 -0.6772 -95.6683 69.5457 166.3881 0.2864 13.9685 -55.7827 13.0335 0.5867 -4.8271 -20.8691 -37.1967 -20.8648 -2.0276 6.5590 9.0336 -5.1889 0.3082 3.5410 -5.2349 0.3426 0.4306 0.1386 25.7163 -5.0459 2.7838 -28.3300 -0.7337 95.1340 62.6655 -166.7910 -9.7056 21.0185 35.5821 -11.0123 -1.8158 41.8367 16.4580 -32.3039 19.8896 1.8033 3.9791 -15.0986 4.8986 3.0048 -9.3103 5.2244 0.3950 2.0147 
-0.0312 0.2080 1.2209 3.5817 30.4145 -3.2373 -7.4138 -54.6863 175.2229 5.5564 -31.8789 3.1627 -8.4815 67.3981 6.8559 -2.3858 28.4528 0.0000 13.1418 -55.6193 -168.6919 -7.0887 -35.7410 -1.1349 16.7791 68.6825 -6.1754 2.3847 28.3887 -0.0000 -9.2926 13.5789 0.8999 -0.5893 12.1288 1.6372 2.6417 7.2108 -0.3413 -95.8719 69.4104 165.8349 -0.5954 12.8357 -56.4628 12.5667 0.6432 -5.0055 -19.5811 -34.0247 -19.2986 -2.0276 6.5590 9.0336 -5.1889 0.3082 3.5410 -5.2349 0.3426 0.4306 0.2597 26.6039 -5.3074 2.9171 -29.6117 -0.6113 95.5965 61.8694 -166.0832 -9.0284 19.3224 37.2341 -10.3039 -1.1374 40.9367 15.5236 -28.6752 18.8742 1.8033 3.9791 -15.0986 4.8986 3.0048 -9.3103 5.2244 0.3950 2.0147 
-0.0335 0.2117 1.2107 3.5616 31.2988 -3.7814 -6.9745 -57.3845 175.5552 5.8165 -34.6785 3.5559 -8.9703 68.2755 7.3946 -2.3858 28.4528 0.0000 14.9888 -58.3103 -166.8992 -7.7519 -38.7097 -1.6302 18.0602 69.6090 -7.1210 2.3847 28.3887 -0.0000 -9.6806 13.8226 1.0210 -0.7266 13.2650 1.9505 2.5176 6.7633 -0.0749 -96.0645 69.2959 165.3064 -1.4903 11.7440 -56.9919 12.1360 0.6978 -5.1715 -18.4473 -31.0445 -17.9284 -2.0276 6.5590 9.0336 -5.1889 0.3082 3.5410 -5.2349 0.3426 0.4306 0.3818 27.4443 -5.5565 3.0501 -30.8312 -0.4849 96.0451 61.1129 -165.4133 -8.3527 17.6837 38.9996 -9.6141 -0.5146 39.8975 14.6627 -25.2876 17.9983 1.8033 3.9791 -15.0986 4.8986 3.0048 -9.3103 5.2244 0.3950 2.0147 
-0.0360 0.2148 1.1996 3.4862 32.0451 -4.1239 -6.8932 -60.0452 175.4437 5.9716 -37.7929 3.9249 -9.4744 69.4584 8.0111 -2.3858 28.4528 0.0000 16.7483 -60.9070 -165.3253 -8.1922 -41.7429 -2.0290 18.7857 70.5045 -7.7269 2.3847 28.3887 -0.0000 -10.0356 14.1082 1.1609 -0.8337 14.3235 2.1684 2.4241 6.4011 0.0907 -96.1396 69.4684 164.8497 -2.2525 10.9676 -57.6647 11.8696 0.7502 -5.3302 -17.2689 -28.0544 -16.5744 -2.0276 6.5590 9.0336 -5.1889 0.3082 3.5410 -5.2349 0.3426 0.4306 0.5098 27.9804 -5.6828 3.1111 -31.7347 -0.4273 96.4034 60.5023 -164.8969 -7.6791 16.1183 40.8871 -9.0322 -0.0148 38.9382 13.7281 -22.1797 17.0604 1.8033 3.9791 -15.0986 4.8986 3.0048 -9.3103 5.2244 0.3950 2.0147 
-0.0383 0.2174 1.1882 3.3910 32.7801 -4.5067 -6.8013 -62.6618 175.3690 6.1801 -40.8865 4.3289 -10.1774 70.6582 8.7829 -2.3858 28.4528 0.0000 18.8602 -63.4625 -163.3957 -8.7017 -44.7918 -2.5065 19.5822 71.4243 -8.4430 2.3847 28.3887 -0.0000 -10.3849 14.3555 1.3591 -0.9668 14.9665 2.4371 2.3427 6.2285 0.2240 -96.2109 69.6399 164.3927 -2.8212 10.3086 -58.1951 11.6193 0.8016 -5.4774 -16.2360 -25.3166 -15.4027 -2.0276 6.5590 9.0336 -5.1889 0.3082 3.5410 -5.2349 0.3426 0.4306 0.6389 28.5128 -5.8106 3.1750 -32.6316 -0.3641 96.7631 59.8985 -164.3865 -7.0492 14.5967 42.4235 -8.4488 0.4472 38.2413 12.8862 -19.3406 16.2697 1.8033 3.9791 -15.0986 4.8986 3.0048 -9.3103 5.2244 0.3950 2.0147 
-0.0401 0.2192 1.1752 3.4805 33.4653 -4.9974 -6.6130 -65.4031 175.4669 6.4325 -44.2966 4.7949 -10.6805 71.9919 9.4331 -2.3858 28.4528 0.0000 21.5871 -66.0942 -160.7962 -9.1917 -48.2465 -3.0202 20.8472 72.6016 -9.6453 2.3847 28.3887 -0.0000 -10.7525 14.5346 1.4833 -1.1655 15.4241 2.6669 2.2519 6.1291 0.4010 -96.7178 68.6896 163.8345 -2.9632 8.1570 -58.2899 10.7065 0.8581 -5.6231 -15.3959 -22.3767 -14.5545 -2.0276 6.5590 9.0336 -5.1889 0.3082 3.5410 -5.2349 0.3426 0.4306 0.8036 28.9497 -6.0244 3.2847 -33.3930 -0.1944 97.0771 59.4075 -163.9332 -6.4561 13.1885 43.9033 -7.7993 0.9243 37.5046 12.2059 -16.8315 15.6060 1.8033 3.9791 -15.0986 4.8986 3.0048 -9.3103 5.2244 0.3950 2.0147 
-0.0415 0.2203 1.1616 3.7043 34.0899 -5.5361 -6.3149 -68.0722 175.7244 6.7262 -47.6741 5.2932 -11.0063 73.3039 9.9575 -2.3858 28.4528 0.0000 24.9211 -68.5828 -157.5424 -9.6828 -51.7201 -3.5640 22.4878 73.8371 -11.2183 2.3847 28.3887 -0.0000 -11.1254 14.6569 1.5459 -1.4130 15.7233 2.8600 2.1592 6.0900 0.6042 -97.4929 67.0243 163.2155 -2.8049 5.1005 -58.0372 9.3824 0.9159 -5.7550 -14.6800 -19.5437 -13.9411 -2.0276 6.5590 9.0336 -5.1889 0.3082 3.5410 -5.2349 0.3426 0.4306 0.9880 29.3081 -6.2898 3.4242 -34.0386 0.0444 97.3503 59.0078 -163.5325 -5.9152 11.9124 45.2912 -7.1233 1.3857 36.7374 11.6759 -14.7437 15.0782 1.8033 3.9791 -15.0986 4.8986 3.0048 -9.3103 5.2244 0.3950 2.0147 
-0.0427 0.2214 1.1478 3.9136 34.6913 -6.0695 -5.9315 -70.6412 176.0578 7.0808 -50.8992 5.8314 -11.4493 74.5356 10.5807 -2.3858 28.4528 0.0000 28.9845 -70.8944 -153.5650 -10.2503 -55.0334 -4.1864 24.2598 74.9795 -12.9419 2.3847 28.3887 -0.0000 -11.5065 14.7604 1.6349 -1.6783 15.8804 3.0764 2.0728 6.1071 0.7970 -98.2012 65.5480 162.5859 -2.5565 2.2892 -57.6964 8.0256 0.9731 -5.8821 -14.0765 -17.0938 -13.4133 -2.0276 6.5590 9.0336 -5.1889 0.3082 3.5410 -5.2349 0.3426 0.4306 1.1852 29.6573 -6.5877 3.5798 -34.6700 0.3140 97.6194 58.6295 -163.0518 -5.3925 10.6974 46.4934 -6.4307 1.8291 36.0218 11.2315 -12.9886 14.6688 1.8033 3.9791 -15.0986 4.8986 3.0048 -9.3103 5.2244 0.3950 2.0147 
-0.0441 0.2230 1.1326 3.9050 35.2402 -6.5494 -5.4186 -73.2051 176.4070 7.5200 -54.1973 6.4510 -12.3100 75.6757 11.5008 -2.3858 28.4528 0.0000 34.1595 -73.1149 -148.5821 -10.7466 -58.3544 -4.7718 25.4770 75.9916 -14.3325 2.3847 28.3887 -0.0000 -11.9086 14.8987 1.8809 -1.9153 16.1680 3.3602 2.0083 5.9954 0.9845 -98.3807 65.7349 161.9397 -2.2065 1.0284 -57.6974 6.1754 1.0391 -6.0167 -14.2534 -15.1503 -13.0162 -2.0276 6.5590 9.0336 -5.1889 0.3082 3.5410 -5.2349 0.3426 0.4306 1.4939 29.9418 -7.1891 3.8528 -35.2038 0.8272 97.8388 58.4328 -162.6717 -4.9127 9.6545 47.9872 -5.5679 2.3460 35.2862 10.9876 -11.5543 14.4416 1.8033 3.9791 -15.0986 4.8986 3.0048 -9.3103 5.2244 0.3950 2.0147 
-0.0449 0.2243 1.1198 3.9318 35.7105 -6.9807 -4.7207 -75.2699 177.0102 7.9351 -56.7602 7.0001 -12.9152 76.5442 12.1497 -2.3858 28.4528 0.0000 39.5063 -74.7482 -143.3495 -11.2457 -60.9863 -5.3387 26.7412 76.7919 -15.7214 2.3847 28.3887 -0.0000 -12.2534 14.9739 2.0732 -2.1127 16.2281 3.5385 1.9486 5.9853 1.1811 -98.5367 65.9008 161.3648 -1.8099 -0.0440 -57.5752 4.5511 1.0957 -6.1280 -14.4560 -13.8201 -12.7211 -2.0276 6.5590 9.0336 -5.1889 0.3082 3.5410 -5.2349 0.3426 0.4306 1.7705 30.1904 -7.7241 4.1019 -35.6727 1.2911 98.0340 58.2596 -162.3381 -4.5276 8.7657 48.9865 -4.8103 2.7839 34.8098 10.8391 -10.6679 14.3323 1.8033 3.9791 -15.0986 4.8986 3.0048 -9.3103 5.2244 0.3950 2.0147 
-0.0456 0.2253 1.1066 3.8172 36.1185 -7.0703 -4.7022 -77.2688 176.7558 8.3341 -59.3936 7.5467 -13.4447 77.4771 12.8133 -2.3858 28.4528 0.0000 44.9767 -76.2554 -138.1728 -11.7299 -63.4889 -5.8965 28.1038 77.5224 -17.2023 2.3847 28.3887 -0.0000 -12.5239 15.0384 2.1458 -2.2477 16.3083 3.6217 1.9269 5.9714 1.2152 -98.7153 65.7649 161.0104 -1.3662 -1.2604 -57.5712 2.6386 1.1529 -6.2333 -14.8359 -12.4401 -12.4829 -2.0276 6.5590 9.0336 -5.1889 0.3082 3.5410 -5.2349 0.3426 0.4306 1.9163 30.4157 -7.8786 4.1943 -36.0788 1.4864 98.1185 58.4676 -162.0537 -4.2216 8.1330 50.0688 -4.2334 3.1046 34.3678 10.6028 -10.0824 14.0898 1.8033 3.9791 -15.0986 4.8986 3.0048 -9.3103 5.2244 0.3950 2.0147 
-0.0462 0.2262 1.0934 3.6607 36.4954 -7.0480 -5.0196 -79.1793 176.1190 8.7558 -61.9311 8.1088 -13.8766 78.3838 13.3956 -2.3858 28.4528 0.0000 51.1005 -77.5883 -132.3855 -12.2560 -65.8536 -6.4932 29.5594 78.1951 -18.7630 2.3847 28.3887 -0.0000 -12.7673 15.0911 2.1755 -2.3627 16.3438 3.6694 1.9182 5.9804 1.1967 -98.9052 65.5277 160.7264 -0.8895 -2.5323 -57.5520 0.6149 1.2096 -6.3316 -15.2981 -11.2618 -12.2585 -2.0276 6.5590 9.0336 -5.1889 0.3082 3.5410 -5.2349 0.3426 0.4306 2.0200 30.6367 -7.9086 4.2350 -36.4693 1.5943 98.1651 58.8045 -161.7806 -3.9553 7.5920 51.0860 -3.7156 3.3841 33.9772 10.3790 -9.8058 13.8435 1.8033 3.9791 -15.0986 4.8986 3.0048 -9.3103 5.2244 0.3950 2.0147 
-0.0467 0.2271 1.0809 3.5213 36.8298 -7.0383 -5.3795 -80.9162 175.4753 9.2223 -64.2126 8.6944 -14.2052 79.1691 13.8513 -2.3858 28.4528 0.0000 57.9035 -78.6428 -125.8816 -12.8862 -67.9922 -7.1821 31.0169 78.7698 -20.2915 2.3847 28.3887 -0.0000 -12.9960 15.1352 2.2008 -2.4729 16.3586 3.7030 1.9025 5.9934 1.2001 -99.0831 65.3299 160.4410 -0.3823 -3.8051 -57.4679 -1.4518 1.2645 -6.4215 -15.8324 -10.3319 -12.0369 -2.0276 6.5590 9.0336 -5.1889 0.3082 3.5410 -5.2349 0.3426 0.4306 2.1498 30.8380 -8.0307 4.3102 -36.8333 1.7534 98.1965 59.1511 -161.5273 -3.7160 7.1141 51.9805 -3.2357 3.6363 33.6317 10.1953 -9.7775 13.6212 1.8033 3.9791 -15.0986 4.8986 3.0048 -9.3103 5.2244 0.3950 2.0147 
-0.0469 0.2280 1.0695 3.4138 37.0973 -7.0699 -5.6419 -82.4420 174.9870 9.7645 -66.2050 9.3315 -14.4309 79.7522 14.1794 -2.3858 28.4528 0.0000 65.0722 -79.3802 -118.9615 -13.7335 -69.8746 -8.0700 32.3380 79.1781 -21.6210 2.3847 28.3887 -0.0000 -13.2027 15.1831 2.2259 -2.5761 16.4612 3.7140 1.8628 5.9485 1.2668 -99.2247 65.2521 160.1422 0.1870 -5.1356 -57.3515 -3.7307 1.3198 -6.5071 -16.5377 -9.4079 -11.8065 -2.0276 6.5590 9.0336 -5.1889 0.3082 3.5410 -5.2349 0.3426 0.4306 2.3662 30.9801 -8.4502 4.4976 -37.1205 2.0793 98.1859 59.5375 -161.3346 -3.4974 6.7724 52.8513 -2.8487 3.8291 33.2735 9.9960 -9.8237 13.3365 1.8033 3.9791 -15.0986 4.8986 3.0048 -9.3103 5.2244 0.3950 2.0147 
-0.0470 0.2293 1.0580 3.3008 37.3955 -7.1030 -5.9399 -83.9993 174.4527 10.3616 -68.1320 10.0188 -14.4210 80.2628 14.2703 -2.3858 28.4528 0.0000 73.3901 -79.9248 -110.8895 -14.7484 -71.6701 -9.1234 33.6024 79.4865 -22.8860 2.3847 28.3887 -0.0000 -13.4247 15.2318 2.2456 -2.6955 16.5575 3.7414 1.8175 5.9058 1.3364 -99.3859 65.1644 159.8035 0.7576 -6.6844 -57.1109 -6.3035 1.3807 -6.5983 -17.3628 -8.7532 -11.5122 -2.0276 6.5590 9.0336 -5.1889 0.3082 3.5410 -5.2349 0.3426 0.4306 2.6136 31.1391 -8.9277 4.7144 -37.4443 2.4548 98.1708 59.9757 -161.1132 -3.2766 6.4105 53.6622 -2.4215 4.0417 32.9465 9.8325 -10.2056 13.0635 1.8033 3.9791 -15.0986 4.8986 3.0048 -9.3103 5.2244 0.3950 2.0147 
-0.0471 0.2304 1.0481 3.0809 37.5863 -6.9970 -6.9325 -85.2368 173.1696 11.0905 -69.7455 10.8128 -14.4392 80.7298 14.2973 -2.3858 28.4528 0.0000 80.4363 -80.2683 -104.1280 -15.7759 -73.0937 -10.1801 34.6016 79.6953 -23.8892 2.3847 28.3887 -0.0000 -13.5658 15.2950 2.2439 -2.7556 16.6554 3.8132 1.8195 5.8906 1.2881 -99.5353 65.1515 159.4268 1.1646 -7.8890 -56.7460 -8.3844 1.4301 -6.6709 -18.1153 -8.6810 -11.3103 -2.0276 6.5590 9.0336 -5.1889 0.3082 3.5410 -5.2349 0.3426 0.4306 2.7073 31.1922 -9.0020 4.7731 -37.6361 2.6100 98.1486 60.4071 -160.9007 -3.1111 5.9787 54.1430 -2.1379 4.1989 32.8428 9.5684 -10.5468 12.8511 1.8033 3.9791 -15.0986 4.8986 3.0048 -9.3103 5.2244 0.3950 2.0147 
-0.0471 0.2316 1.0388 2.8467 37.7600 -6.8703 -8.5919 -86.3948 171.2172 11.9015 -71.2378 11.6820 -14.3735 81.1518 14.2264 -2.3858 28.4528 0.0000 87.3953 -80.4581 -97.4509 -16.9142 -74.3877 -11.3452 35.5252 79.8514 -24.8158 2.3847 28.3887 -0.0000 -13.6922 15.3570 2.2361 -2.8080 16.7275 3.8935 1.8280 5.8918 1.2223 -99.6867 65.1485 159.0358 1.5642 -9.0712 -56.3103 -10.4435 1.4774 -6.7377 -18.8898 -8.8975 -11.0983 -2.0276 6.5590 9.0336 -5.1889 0.3082 3.5410 -5.2349 0.3426 0.4306 2.7832 31.2331 -9.0256 4.8131 -37.8153 2.7410 98.1218 60.8478 -160.6816 -2.9657 5.5397 54.5026 -1.8762 4.3534 32.8197 9.3165 -11.0635 12.6602 1.8033 3.9791 -15.0986 4.8986 3.0048 -9.3103 5.2244 0.3950 2.0147 
-0.0471 0.2327 1.0301 2.6264 37.8861 -6.7287 -11.8314 -87.4130 167.7053 12.6714 -72.5773 12.5068 -14.2516 81.4999 14.1222 -2.3858 28.4528 0.0000 93.6736 -80.5301 -91.4341 -18.0131 -75.5344 -12.4719 36.3207 79.9907 -25.6346 2.3847 28.3887 -0.0000 -13.7983 15.4227 2.2246 -2.8445 16.7885 3.9426 1.8298 5.8961 1.1625 -99.8264 65.1995 158.6220 1.9370 -10.0751 -55.8289 -12.3118 1.5216 -6.8008 -19.6504 -9.5913 -10.9330 -2.0276 6.5590 9.0336 -5.1889 0.3082 3.5410 -5.2349 0.3426 0.4306 2.8614 31.2423 -9.0484 4.8311 -37.9660 2.8228 98.0992 61.2970 -160.4355 -2.8714 5.1112 54.7542 -1.5573 4.5351 32.8021 9.1577 -11.7713 12.5226 1.8033 3.9791 -15.0986 4.8986 3.0048 -9.3103 5.2244 0.3950 2.0147 
-0.0472 0.2340 1.0213 2.3943 37.9313 -6.5286 -20.6913 -88.3490 158.5570 13.3780 -73.9497 13.2762 -14.0656 81.8026 14.0080 -2.3858 28.4528 0.0000 99.6210 -80.5613 -85.7649 -19.0395 -76.6916 -13.5340 37.0240 80.1784 -26.4085 2.3847 28.3887 -0.0000 -13.8839 15.5161 2.2067 -2.8503 16.8696 3.9253 1.8157 5.8922 1.1082 -99.9607 65.3847 158.0810 2.3032 -10.8375 -55.2346 -14.0703 1.5685 -6.8713 -20.5032 -11.2006 -10.8858 -2.0276 6.5590 9.0336 -5.1889 0.3082 3.5410 -5.2349 0.3426 0.4306 2.9583 31.1792 -9.0730 4.8003 -38.0764 2.8025 98.0845 61.8436 -160.0861 -2.8627 4.6166 54.9263 -1.0347 4.8082 32.7079 9.1491 -12.8105 12.4578 1.8033 3.9791 -15.0986 4.8986 3.0048 -9.3103 5.2244 0.3950 2.0147 
-0.0473 0.2350 1.0148 2.2066 37.9451 -6.3674 -36.7521 -88.9611 142.2601 13.9137 -74.9400 13.8573 -13.7426 81.9931 13.7401 -2.3858 28.4528 0.0000 103.8567 -80.5309 -81.7491 -19.8732 -77.5103 -14.3930 37.4430 80.3002 -26.8705 2.3847 28.3887 -0.0000 -13.9277 15.5996 2.1871 -2.8296 16.8835 3.9099 1.8035 5.9147 1.0601 -100.0752 65.5462 157.6077 2.6940 -11.4495 -54.7400 -15.5918 1.6065 -6.9255 -21.2614 -12.7643 -10.8320 -2.0276 6.5590 9.0336 -5.1889 0.3082 3.5410 -5.2349 0.3426 0.4306 3.0425 31.1242 -9.0943 4.7734 -38.1724 2.7852 98.0661 62.3188 -159.7776 -2.9308 4.2229 55.0902 -0.5748 5.0243 32.5038 9.1695 -13.8515 12.4031 1.8033 3.9791 -15.0986 4.8986 3.0048 -9.3103 5.2244 0.3950 2.0147 
-0.0472 0.2360 1.0093 2.0246 37.8797 -6.3079 -61.4742 -89.3505 117.3484 14.5765 -75.7488 14.5515 -13.5446 82.1542 13.5386 -2.3858 28.4528 0.0000 106.9889 -80.4312 -78.7716 -21.1664 -78.1826 -15.6975 37.4918 80.2895 -26.8753 2.3847 28.3887 -0.0000 -13.9553 15.6807 2.1986 -2.8128 16.9590 3.9430 1.7826 5.8430 1.0825 -100.1279 65.8941 157.0780 3.2954 -11.9457 -54.2341 -17.1525 1.6422 -6.9737 -22.0592 -14.3494 -11.0761 -2.0276 6.5590 9.0336 -5.1889 0.3082 3.5410 -5.2349 0.3426 0.4306 3.0851 31.0218 -9.1531 4.8140 -38.2458 2.8882 98.0547 62.7880 -159.4353 -3.1412 3.8700 55.2406 0.3889 5.4421 32.0842 9.7121 -14.5588 12.3576 1.8033 3.9791 -15.0986 4.8986 3.0048 -9.3103 5.2244 0.3950 2.0147 
-0.0472 0.2371 1.0035 1.8272 37.7873 -6.2593 -114.1912 -89.4507 64.4256 15.3336 -76.5681 15.3398 -13.2667 82.2905 13.2536 -2.3858 28.4528 0.0000 110.0480 -80.2934 -75.8713 -22.7479 -78.8468 -17.2892 37.4296 80.2387 -26.7506 2.3847 28.3887 -0.0000 -13.9645 15.7697 2.2123 -2.7795 17.0367 3.9875 1.7577 5.7583 1.1142 -100.1754 66.3172 156.4443 4.0680 -12.4669 -53.6690 -18.9749 1.6838 -7.0284 -23.0290 -16.3206 -11.3684 -2.0276 6.5590 9.0336 -5.1889 0.3082 3.5410 -5.2349 0.3426 0.4306 3.1309 30.8978 -9.2252 4.8679 -38.3292 3.0206 98.0347 63.3361 -159.0247 -3.4733 3.5008 55.4559 1.5828 5.8970 31.3894 10.4122 -15.4386 12.2916 1.8033 3.9791 -15.0986 4.8986 3.0048 -9.3103 5.2244 0.3950 2.0147 
-0.0472 0.2381 0.9991 1.6953 37.7057 -6.2680 -146.4774 -89.2519 32.0010 16.0824 -77.1456 16.1071 -12.9698 82.3698 12.8951 -2.3858 28.4528 0.0000 112.1840 -80.1262 -73.8391 -24.1326 -79.3274 -18.6808 37.4488 80.2053 -26.7183 2.3847 28.3887 -0.0000 -13.9882 15.8103 2.2323 -2.7787 17.1696 4.0532 1.7478 5.5695 1.1503 -100.1636 66.7441 155.9304 4.8002 -12.7875 -53.2480 -20.3215 1.7158 -7.0717 -23.6878 -17.9407 -11.6398 -2.0276 6.5590 9.0336 -5.1889 0.3082 3.5410 -5.2349 0.3426 0.4306 3.2065 30.8744 -9.3022 4.9172 -38.5387 3.1401 98.0142 63.7904 -158.6647 -3.9151 3.1280 55.6726 2.7526 6.2944 30.6506 11.0440 -16.2336 12.4055 1.8033 3.9791 -15.0986 4.8986 3.0048 -9.3103 5.2244 0.3950 2.0147 
-0.0471 0.2390 0.9954 1.5919 37.6158 -6.3185 -162.4334 -89.0109 15.9424 16.8997 -77.6001 16.9357 -12.6428 82.4253 12.4557 -2.3858 28.4528 0.0000 113.7727 -79.9312 -72.3267 -25.4845 -79.7189 -20.0379 37.5361 80.1867 -26.7563 2.3847 28.3887 -0.0000 -14.0263 15.8254 2.2624 -2.8025 17.3539 4.1399 1.7486 5.2817 1.1950 -100.1017 67.2210 155.4505 5.5683 -12.9971 -52.8878 -21.4468 1.7438 -7.1108 -24.1807 -19.4373 -11.9249 -2.0276 6.5590 9.0336 -5.1889 0.3082 3.5410 -5.2349 0.3426 0.4306 3.3140 30.9269 -9.3920 4.9690 -38.8692 3.2646 97.9915 64.2219 -158.3061 -4.4759 2.7030 55.8945 4.0298 6.6915 29.8567 11.6943 -17.0417 12.6597 1.8033 3.9791 -15.0986 4.8986 3.0048 -9.3103 5.2244 0.3950 2.0147 
-0.0470 0.2400 0.9920 1.4843 37.4994 -6.3860 -172.7841 -88.7821 5.4912 17.6832 -78.0056 17.7296 -12.1955 82.4609 11.8960 -2.3858 28.4528 0.0000 114.9828 -79.7227 -71.1883 -26.8624 -80.0632 -21.4200 37.5888 80.1463 -26.7560 2.3847 28.3887 -0.0000 -14.0607 15.8396 2.2918 -2.8269 17.5390 4.2325 1.7479 4.9599 1.2566 -100.0248 67.7264 154.9254 6.4199 -13.2163 -52.5037 -22.6087 1.7745 -7.1539 -24.6760 -21.2446 -12.2019 -2.0276 6.5590 9.0336 -5.1889 0.3082 3.5410 -5.2349 0.3426 0.4306 3.4341 30.9704 -9.5100 5.0368 -39.2264 3.4226 97.9585 64.6961 -157.9055 -5.1186 2.2771 56.1379 5.3524 7.0498 28.9873 12.3269 -18.1526 12.8620 1.8033 3.9791 -15.0986 4.8986 3.0048 -9.3103 5.2244 0.3950 2.0147 
-0.0466 0.2406 0.9899 1.4238 37.4509 -6.4965 178.6676 -88.6035 -3.1108 17.8304 -78.2595 17.8898 -11.5384 82.4019 11.2565 -2.3858 28.4528 0.0000 115.6795 -79.4825 -70.5251 -27.4037 -80.3005 -21.9697 37.4589 80.0382 -26.6488 2.3847 28.3887 -0.0000 -14.1085 15.8066 2.3061 -2.8895 17.7389 4.3104 1.7374 4.6235 1.3700 -100.0063 67.8858 154.7312 6.8698 -13.3672 -52.3987 -22.7555 1.7944 -7.1932 -24.3945 -23.3124 -12.2156 -2.0276 6.5590 9.0336 -5.1889 0.3082 3.5410 -5.2349 0.3426 0.4306 3.5168 30.8902 -9.7225 5.1486 -39.3963 3.6472 97.9306 64.9762 -157.6743 -5.5228 2.2510 56.4622 5.4608 6.9342 28.3827 11.9652 -20.2701 12.6451 1.8033 3.9791 -15.0986 4.8986 3.0048 -9.3103 5.2244 0.3950 2.0147 
-0.0462 0.2412 0.9885 1.3664 37.3758 -6.6109 171.0707 -88.4983 -10.7493 17.8450 -78.4319 17.9145 -10.8041 82.3417 10.5346 -2.3858 28.4528 0.0000 115.8785 -79.2689 -70.3486 -27.7972 -80.4668 -22.3691 37.3316 79.9278 -26.5351 2.3847 28.3887 -0.0000 -14.1508 15.7771 2.3166 -2.9501 17.9092 4.3836 1.7273 4.2941 1.4892 -99.9856 68.0498 154.5296 7.3335 -13.5249 -52.2609 -22.9004 1.8141 -7.2317 -24.1123 -25.4124 -12.2147 -2.0276 6.5590 9.0336 -5.1889 0.3082 3.5410 -5.2349 0.3426 0.4306 3.6015 30.8072 -9.9409 5.2652 -39.5696 3.8819 97.8988 65.2642 -157.4339 -5.9361 2.2141 56.7279 5.5504 6.8413 27.8919 11.5812 -22.4234 12.4043 1.8033 3.9791 -15.0986 4.8986 3.0048 -9.3103 5.2244 0.3950 2.0147 
-0.0459 0.2416 0.9879 1.3210 37.2987 -6.7371 164.0235 -88.4576 -17.8079 17.6970 -78.5094 17.7736 -10.1413 82.2454 9.8658 -2.3858 28.4528 0.0000 115.7213 -79.0937 -70.5037 -27.9241 -80.5605 -22.5003 37.0116 79.7895 -26.2606 2.3847 28.3887 -0.0000 -14.1817 15.7490 2.3417 -2.9966 18.0557 4.4503 1.6949 4.0537 1.5931 -99.8851 68.3136 154.3969 7.3311 -13.2546 -52.3954 -22.7730 1.8297 -7.2677 -24.1237 -27.9834 -12.4553 -2.0276 6.5590 9.0336 -5.1889 0.3082 3.5410 -5.2349 0.3426 0.4306 3.5816 30.5349 -10.1100 5.3639 -39.4377 4.0751 97.8834 65.3955 -157.3195 -6.1835 2.2060 57.0739 5.6876 6.8133 27.5668 11.4223 -25.0560 12.3509 1.8033 3.9791 -15.0986 4.8986 3.0048 -9.3103 5.2244 0.3950 2.0147 
-0.0455 0.2419 0.9881 1.2842 37.1997 -6.8871 154.9768 -88.4835 -26.8418 17.3475 -78.4848 17.4284 -9.3980 82.1112 9.1040 -2.3858 28.4528 0.0000 115.0761 -78.9365 -71.1241 -27.7852 -80.5755 -22.3636 36.5631 79.6159 -25.8749 2.3847 28.3887 -0.0000 -14.2022 15.7185 2.3729 -3.0327 18.1925 4.5131 1.6453 3.8419 1.7039 -99.7237 68.6665 154.2852 7.0438 -12.7120 -52.7218 -22.4709 1.8465 -7.3088 -24.3435 -31.1489 -12.8771 -2.0276 6.5590 9.0336 -5.1889 0.3082 3.5410 -5.2349 0.3426 0.4306 3.4986 30.1212 -10.2722 5.4625 -39.1144 4.2653 97.8765 65.4524 -157.2654 -6.3891 2.2193 57.5556 5.8694 6.8130 27.2804 11.3868 -28.2890 12.3935 1.8033 3.9791 -15.0986 4.8986 3.0048 -9.3103 5.2244 0.3950 2.0147 
-0.0452 0.2421 0.9891 1.2631 37.0900 -7.0208 144.4777 -88.5522 -37.3124 16.8528 -78.3693 16.9353 -8.6961 81.9655 8.3928 -2.3858 28.4528 0.0000 114.0519 -78.8279 -72.1109 -27.3652 -80.5117 -21.9440 36.1316 79.4554 -25.5044 2.3847 28.3887 -0.0000 -14.2113 15.6854 2.3916 -3.0581 18.3016 4.5621 1.5972 3.6594 1.7925 -99.5755 68.9670 154.2100 6.8333 -12.3439 -53.0399 -22.2188 1.8631 -7.3474 -24.5897 -34.1350 -13.3758 -2.0276 6.5590 9.0336 -5.1889 0.3082 3.5410 -5.2349 0.3426 0.4306 3.3994 29.6910 -10.3615 5.5092 -38.7463 4.3629 97.8713 65.4827 -157.2382 -6.5624 2.2773 58.0294 5.9707 6.7997 27.0674 11.3394 -31.2909 12.4081 1.8033 3.9791 -15.0986 4.8986 3.0048 -9.3103 5.2244 0.3950 2.0147 
-0.0450 0.2422 0.9907 1.2652 36.9799 -7.1315 132.3415 -88.6380 -49.4008 16.1508 -78.1725 16.2343 -8.1129 81.7605 7.8383 -2.3858 28.4528 0.0000 112.7376 -78.7684 -73.3734 -26.4768 -80.3858 -21.0573 35.5986 79.3010 -25.0678 2.3847 28.3887 -0.0000 -14.2094 15.6345 2.3917 -3.0783 18.4217 4.6104 1.5425 3.4919 1.8220 -99.4426 69.1778 154.2428 6.8390 -12.4071 -53.3999 -22.0695 1.8788 -7.3825 -24.9020 -37.1890 -14.2353 -2.0276 6.5590 9.0336 -5.1889 0.3082 3.5410 -5.2349 0.3426 0.4306 3.2288 29.0998 -10.2426 5.4092 -38.1457 4.1985 97.8706 65.4370 -157.2877 -6.6288 2.4961 58.5474 5.8619 6.7262 26.9311 11.2249 -34.2248 12.3726 1.8033 3.9791 -15.0986 4.8986 3.0048 -9.3103 5.2244 0.3950 2.0147 
-0.0446 0.2423 0.9930 1.2695 36.8439 -7.2448 115.7159 -88.6860 -65.9668 15.3596 -77.8916 15.4421 -7.5132 81.5433 7.2627 -2.3858 28.4528 0.0000 111.0150 -78.7225 -75.0332 -25.4482 -80.1840 -20.0285 35.0778 79.1411 -24.6430 2.3847 28.3887 -0.0000 -14.2021 15.5834 2.3914 -3.0935 18.5119 4.6522 1.4867 3.3366 1.8538 -99.3076 69.3904 154.2749 6.8593 -12.4649 -53.7475 -21.9158 1.8938 -7.4161 -25.3236 -40.2793 -15.1587 -2.0276 6.5590 9.0336 -5.1889 0.3082 3.5410 -5.2349 0.3426 0.4306 3.0591 28.5036 -10.1261 5.3115 -37.5400 4.0355 97.8698 65.3909 -157.3381 -6.7055 2.7193 59.0272 5.7434 6.6630 26.8414 11.1009 -37.2038 12.3140 1.8033 3.9791 -15.0986 4.8986 3.0048 -9.3103 5.2244 0.3950 2.0147 
-0.0442 0.2423 0.9962 1.2822 36.6682 -7.3135 94.1414 -88.6532 -87.4774 14.2393 -77.4962 14.3227 -6.7434 81.2778 6.5811 -2.3858 28.4528 0.0000 108.6582 -78.7434 -77.3063 -24.1762 -79.8536 -18.7533 34.4986 78.9333 -24.1354 2.3847 28.3887 -0.0000 -14.1708 15.4968 2.3472 -3.1033 18.6673 4.6437 1.4257 3.0935 1.8846 -99.2715 69.3597 154.4544 6.6041 -12.2605 -54.1922 -21.9669 1.9106 -7.4499 -26.2180 -43.1221 -16.0141 -2.0276 6.5590 9.0336 -5.1889 0.3082 3.5410 -5.2349 0.3426 0.4306 2.8038 27.6434 -9.9305 5.1821 -36.6461 3.8486 97.8482 65.3378 -157.4518 -6.7254 3.2563 59.5351 5.6494 6.6197 26.7848 11.4974 -40.3476 12.7159 1.8033 3.9791 -15.0986 4.8986 3.0048 -9.3103 5.2244 0.3950 2.0147 
-0.0437 0.2422 0.9995 1.2917 36.4919 -7.3549 75.5704 -88.4795 -105.9894 13.2024 -77.0828 13.2867 -6.0985 81.0319 6.0296 -2.3858 28.4528 0.0000 106.2511 -78.7792 -79.6322 -23.0253 -79.4899 -17.5978 33.9970 78.7395 -23.6892 2.3847 28.3887 -0.0000 -14.1351 15.4130 2.3000 -3.1095 18.7940 4.6190 1.3734 2.8732 1.9084 -99.2771 69.2460 154.6540 6.3411 -11.9713 -54.5521 -22.0800 1.9258 -7.4786 -27.1522 -45.3452 -16.7096 -2.0276 6.5590 9.0336 -5.1889 0.3082 3.5410 -5.2349 0.3426 0.4306 2.5674 26.8430 -9.7469 5.0692 -35.8098 3.6913 97.8227 65.2918 -157.5681 -6.7149 3.8111 59.8500 5.5696 6.6103 26.8353 12.0547 -42.9674 13.2335 1.8033 3.9791 -15.0986 4.8986 3.0048 -9.3103 5.2244 0.3950 2.0147 
-0.0431 0.2421 1.0035 1.2927 36.2736 -7.3849 58.7448 -88.1449 -122.7392 12.1219 -76.5598 12.2055 -5.4798 80.7508 5.4956 -2.3858 28.4528 0.0000 103.2785 -78.8284 -82.5077 -21.8911 -79.0109 -16.4546 33.4498 78.5265 -23.1781 2.3847 28.3887 -0.0000 -14.0896 15.3148 2.2532 -3.1128 18.9390 4.5810 1.3211 2.6020 1.9325 -99.2938 69.0942 154.8831 6.1269 -11.6063 -54.8785 -22.1707 1.9406 -7.5069 -28.2466 -47.6615 -17.5942 -2.0276 6.5590 9.0336 -5.1889 0.3082 3.5410 -5.2349 0.3426 0.4306 2.3204 25.9358 -9.5555 4.9402 -34.8807 3.5067 97.8004 65.2076 -157.7169 -6.7019 4.3728 60.0033 5.4373 6.6217 27.0340 12.5397 -45.6873 13.6442 1.8033 3.9791 -15.0986 4.8986 3.0048 -9.3103 5.2244 0.3950 2.0147 
-0.0424 0.2419 1.0083 1.2849 36.0216 -7.3846 44.7301 -87.6631 -136.6547 11.0775 -75.9130 11.1572 -4.9213 80.4424 4.9972 -2.3858 28.4528 0.0000 99.7139 -78.9059 -85.9581 -20.9457 -78.3929 -15.4920 32.8639 78.3036 -22.5652 2.3847 28.3887 -0.0000 -14.0290 15.1990 2.2031 -3.1057 19.1417 4.5135 1.2767 2.2388 1.9575 -99.3330 68.8782 155.1469 5.9466 -11.1803 -55.1680 -22.2017 1.9539 -7.5328 -29.4971 -49.8868 -18.7515 -2.0276 6.5590 9.0336 -5.1889 0.3082 3.5410 -5.2349 0.3426 0.4306 2.0790 24.9151 -9.3658 4.7877 -33.8716 3.2812 97.7875 65.0496 -157.9165 -6.7011 4.8720 60.0226 5.2303 6.6364 27.3561 12.7025 -48.2779 13.7086 1.8033 3.9791 -15.0986 4.8986 3.0048 -9.3103 5.2244 0.3950 2.0147 
-0.0415 0.2416 1.0147 1.2729 35.6942 -7.3896 33.5554 -86.8800 -147.6984 9.8845 -75.0041 9.9574 -4.3340 80.0461 4.4748 -2.3858 28.4528 0.0000 94.8639 -78.9386 -90.6579 -19.8006 -77.5290 -14.3229 32.1219 78.0154 -21.7920 2.3847 28.3887 -0.0000 -13.9537 15.0630 2.1517 -3.0914 19.3112 4.4294 1.2254 1.8510 1.9869 -99.3742 68.6307 155.4449 5.7904 -10.6648 -55.4453 -22.2322 1.9675 -7.5595 -31.0581 -52.3317 -20.1802 -2.0276 6.5590 9.0336 -5.1889 0.3082 3.5410 -5.2349 0.3426 0.4306 1.8095 23.7464 -9.1582 4.6224 -32.7167 3.0313 97.7715 64.8685 -158.1451 -6.6798 5.4362 59.8887 4.9721 6.6815 27.8729 12.8619 -51.1587 13.7486 1.8033 3.9791 -15.0986 4.8986 3.0048 -9.3103 5.2244 0.3950 2.0147 
-0.0407 0.2414 1.0213 1.2404 35.3032 -7.3163 25.8515 -85.9871 -155.3094 8.8538 -74.0829 8.9207 -3.8387 79.6332 4.0271 -2.3858 28.4528 0.0000 89.5249 -78.9824 -95.8563 -18.8880 -76.6247 -13.3826 31.2164 77.6589 -20.8370 2.3847 28.3887 -0.0000 -13.8711 14.9439 2.0820 -3.0700 19.5597 4.3579 1.1959 1.3959 1.9289 -99.3618 68.4659 155.7585 5.6718 -10.0008 -55.7539 -22.2002 1.9799 -7.5844 -32.4496 -54.4275 -21.4177 -2.0276 6.5590 9.0336 -5.1889 0.3082 3.5410 -5.2349 0.3426 0.4306 1.4476 22.4281 -8.4651 4.2822 -31.4433 2.5047 97.7041 64.8060 -158.3796 -6.8266 5.7158 59.7634 4.8198 6.7648 28.3906 12.9800 -53.5057 14.0127 1.8033 3.9791 -15.0986 4.8986 3.0048 -9.3103 5.2244 0.3950 2.0147 
-0.0398 0.2411 1.0282 1.2099 34.8858 -7.2399 20.8082 -84.9970 -160.2540 7.9287 -73.1124 7.9901 -3.3880 79.2206 3.6269 -2.3858 28.4528 0.0000 83.8766 -78.9245 -101.3569 -18.0652 -75.6764 -12.5302 30.3756 77.3029 -19.9405 2.3847 28.3887 -0.0000 -13.7863 14.8261 2.0112 -3.0448 19.7599 4.2856 1.1672 0.9671 1.8652 -99.3434 68.3120 156.0638 5.6236 -9.3037 -56.0213 -22.1599 1.9890 -7.6035 -33.8574 -56.3218 -22.6717 -2.0276 6.5590 9.0336 -5.1889 0.3082 3.5410 -5.2349 0.3426 0.4306 1.1057 21.1238 -7.7613 3.9585 -30.1866 1.9860 97.6340 64.7550 -158.6101 -7.0137 5.9822 59.5326 4.6627 6.8684 29.0018 13.0821 -55.6344 14.2755 1.8033 3.9791 -15.0986 4.8986 3.0048 -9.3103 5.2244 0.3950 2.0147 
-0.0389 0.2408 1.0352 1.1417 34.4176 -7.0870 16.7942 -83.9422 -164.2041 7.1486 -72.1417 7.2046 -3.0422 78.8192 3.3242 -2.3858 28.4528 0.0000 77.8698 -78.7985 -107.2523 -17.3569 -74.6959 -11.7899 29.5662 76.9545 -19.0633 2.3847 28.3887 -0.0000 -13.6897 14.7118 1.9326 -2.9964 19.9752 4.1855 1.1522 0.5163 1.7830 -99.2869 68.2176 156.3855 5.6293 -8.4744 -56.3104 -22.0920 1.9971 -7.6207 -35.0132 -57.9938 -23.6044 -2.0276 6.5590 9.0336 -5.1889 0.3082 3.5410 -5.2349 0.3426 0.4306 0.7670 19.6646 -7.0133 3.6250 -28.7754 1.4450 97.5570 64.7031 -158.8588 -7.2992 6.1810 59.2346 4.6656 7.0599 29.6929 13.4182 -57.4656 14.7473 1.8033 3.9791 -15.0986 4.8986 3.0048 -9.3103 5.2244 0.3950 2.0147 
-0.0380 0.2404 1.0425 1.0189 33.8681 -6.8203 13.1808 -82.7915 -167.8033 6.4914 -71.1674 6.5414 -2.8002 78.4234 3.1152 -2.3858 28.4528 -0.0000 71.2817 -78.5901 -113.7783 -16.7476 -73.6597 -11.1447 28.7502 76.6070 -18.1596 2.3847 28.3887 -0.0000 -13.5764 14.5997 1.8389 -2.9148 20.2333 4.0432 1.1553 0.0097 1.6712 -99.1764 68.2035 156.7460 5.6966 -7.4221 -56.6563 -21.9836 2.0041 -7.6366 -35.7436 -59.4711 -24.0202 -2.0276 6.5590 9.0336 -5.1889 0.3082 3.5410 -5.2349 0.3426 0.4306 0.4182 17.9250 -6.1687 3.2629 -27.0858 0.8494 97.4665 64.6480 -159.1438 -7.7380 6.2965 58.8635 4.8956 7.3868 30.4967 14.1308 -58.9806 15.5625 1.8033 3.9791 -15.0986 4.8986 3.0048 -9.3103 5.2244 0.3950 2.0147 
-0.0369 0.2401 1.0505 0.9043 33.2851 -6.5630 10.5671 -81.5193 -170.3829 5.8714 -70.0743 5.9143 -2.5313 77.9969 2.8806 -2.3858 28.4528 -0.0000 64.5436 -78.1723 -120.4324 -16.1438 -72.5106 -10.5007 27.9745 76.2429 -17.2887 2.3847 28.3887 -0.0000 -13.4694 14.4735 1.7440 -2.8347 20.3981 3.8976 1.1546 -0.4483 1.5630 -99.0679 68.1900 157.0990 5.8888 -6.3187 -56.9327 -21.8717 2.0094 -7.6491 -36.3554 -60.7354 -24.3587 -2.0276 6.5590 9.0336 -5.1889 0.3082 3.5410 -5.2349 0.3426 0.4306 0.1046 16.2147 -5.3583 2.9417 -25.4259 0.2922 97.3778 64.5940 -159.4251 -8.2371 6.4478 58.3132 5.0857 7.7498 31.4551 14.8147 -60.2586 16.3497 1.8033 3.9791 -15.0986 4.8986 3.0048 -9.3103 5.2244 0.3950 2.0147 
-0.0355 0.2397 1.0606 0.8694 32.5748 -6.3140 7.9584 -79.9115 -172.8341 5.3609 -68.6164 5.3822 -2.2948 77.3380 2.5620 -2.3858 28.4528 -0.0000 56.8107 -77.4426 -127.9657 -15.4844 -71.0463 -9.7888 26.9165 75.7363 -16.1560 2.3847 28.3887 -0.0000 -13.3501 14.3127 1.6549 -2.7164 20.6338 3.6774 1.1130 -1.0556 1.4374 -98.7898 68.4614 157.5497 6.1990 -4.7049 -57.4815 -21.6817 2.0141 -7.6616 -37.2116 -61.9866 -24.9889 -2.0276 6.5590 9.0336 -5.1889 0.3082 3.5410 -5.2349 0.3426 0.4306 -0.2122 13.7223 -4.7077 2.6740 -22.9766 -0.1475 97.2338 64.3661 -160.0105 -8.9449 6.3521 57.7640 5.2038 8.1847 32.7338 15.2107 -61.2342 17.1924 1.8033 3.9791 -15.0986 4.8986 3.0048 -9.3103 5.2244 0.3950 2.0147 
-0.0342 0.2393 1.0700 0.8532 31.9298 -6.1037 6.2349 -78.4045 -174.3994 4.9604 -67.2331 4.9602 -2.0997 76.7151 2.2958 -2.3858 28.4528 -0.0000 50.5237 -76.5768 -134.0565 -14.9470 -69.6655 -9.2007 25.9940 75.2571 -15.1558 2.3847 28.3887 -0.0000 -13.2438 14.1499 1.5766 -2.6067 20.7664 3.4861 1.0682 -1.5587 1.3232 -98.5367 68.7220 157.9487 6.5494 -3.2190 -57.9386 -21.5056 2.0157 -7.6680 -37.8171 -62.8437 -25.4542 -2.0276 6.5590 9.0336 -5.1889 0.3082 3.5410 -5.2349 0.3426 0.4306 -0.4631 11.4994 -4.1763 2.4752 -20.7930 -0.4952 97.1015 64.1538 -160.5420 -9.6147 6.2669 57.1794 5.2656 8.5960 33.9847 15.4365 -61.7964 17.8496 1.8033 3.9791 -15.0986 4.8986 3.0048 -9.3103 5.2244 0.3950 2.0147 
-0.0327 0.2389 1.0798 0.8202 31.2170 -5.8593 4.8145 -76.7815 -175.6806 4.6007 -65.7940 4.5781 -1.9180 76.0920 2.0418 -2.3858 28.4528 -0.0000 44.6683 -75.5061 -139.7268 -14.4974 -68.2137 -8.6938 25.1694 74.7671 -14.2420 2.3847 28.3887 -0.0000 -13.1578 13.9780 1.4977 -2.5194 20.9120 3.3153 1.0223 -2.1563 1.1913 -98.1733 69.1926 158.3829 7.0077 -1.5064 -58.4446 -21.2926 2.0160 -7.6724 -38.5023 -63.4484 -26.1009 -2.0276 6.5590 9.0336 -5.1889 0.3082 3.5410 -5.2349 0.3426 0.4306 -0.6863 8.8945 -3.5985 2.2547 -18.2659 -0.9197 96.9430 64.1214 -160.9773 -10.3510 6.5321 56.5376 5.1371 8.9315 35.2962 15.3036 -62.0755 18.1752 1.8033 3.9791 -15.0986 4.8986 3.0048 -9.3103 5.2244 0.3950 2.0147 
-0.0313 0.2383 1.0892 0.7796 30.4863 -5.5983 3.6828 -75.1654 -176.7003 4.3016 -64.4246 4.2577 -1.7710 75.5242 1.8328 -2.3858 28.4528 0.0000 39.6647 -74.3331 -144.5701 -14.1575 -66.8208 -8.2944 24.4802 74.3104 -13.4510 2.3847 28.3887 -0.0000 -13.0880 13.8085 1.4209 -2.4511 21.0685 3.1763 0.9765 -2.8070 1.0477 -97.7342 69.8175 158.8248 7.5087 0.3006 -58.9849 -21.0569 2.0142 -7.6731 -39.1641 -63.7619 -26.8318 -2.0276 6.5590 9.0336 -5.1889 0.3082 3.5410 -5.2349 0.3426 0.4306 -0.8660 6.0934 -3.0099 2.0393 -15.5711 -1.3803 96.7728 64.2405 -161.3153 -11.0999 7.0761 55.9214 4.8585 9.1763 36.5952 14.8304 -62.0540 18.1873 1.8033 3.9791 -15.0986 4.8986 3.0048 -9.3103 5.2244 0.3950 2.0147 
-0.0297 0.2373 1.0988 0.7593 29.7484 -5.3347 2.7768 -73.4959 -177.4878 4.0338 -63.0045 3.9671 -1.5886 74.9497 1.6080 -2.3858 28.4528 0.0000 35.2950 -73.0213 -148.7722 -13.8524 -65.3862 -7.9256 23.8628 73.8447 -12.7026 2.3847 28.3887 -0.0000 -13.0129 13.6049 1.3302 -2.3782 21.1604 3.0427 0.9263 -3.4299 0.9010 -97.2850 70.4662 159.2648 8.0411 2.1432 -59.5092 -20.8131 2.0103 -7.6700 -39.5726 -63.8149 -27.3877 -2.0276 6.5590 9.0336 -5.1889 0.3082 3.5410 -5.2349 0.3426 0.4306 -1.0163 3.2847 -2.4459 1.8617 -12.8708 -1.8081 96.5960 64.3807 -161.6596 -11.8880 7.6621 55.2719 4.5426 9.4345 38.0316 14.2069 -61.7556 18.1028 1.8033 3.9791 -15.0986 4.8986 3.0048 -9.3103 5.2244 0.3950 2.0147 
-0.0276 0.2364 1.1106 0.7421 28.8346 -4.9512 1.8378 -71.4567 -178.3262 3.9102 -61.2541 3.7952 -1.2920 74.2841 1.1809 -2.3858 28.4528 0.0000 30.6509 -71.3203 -153.2239 -13.6377 -63.5853 -7.6159 23.3585 73.2907 -11.9742 2.3847 28.3887 -0.0000 -12.9323 13.4087 1.1939 -2.2826 21.3166 2.8026 0.8951 -4.2370 0.8045 -96.3610 71.9974 159.7244 8.7710 4.8548 -60.5995 -20.4765 2.0033 -7.6624 -39.7870 -63.6058 -27.7328 -2.0276 6.5590 9.0336 -5.1889 0.3082 3.5410 -5.2349 0.3426 0.4306 -1.1660 -0.2046 -2.2960 1.7972 -9.4932 -1.9052 96.1021 65.3232 -162.1646 -12.8624 9.2210 55.1780 4.0409 9.6000 39.5930 13.5082 -61.5160 17.8912 1.8033 3.9791 -15.0986 4.8986 3.0048 -9.3103 5.2244 0.3950 2.0147 
-0.0256 0.2354 1.1212 0.7400 28.0355 -4.6179 1.1749 -69.6099 -178.9011 3.8082 -59.6385 3.6470 -1.0498 73.6706 0.8405 -2.3858 28.4528 0.0000 27.1624 -69.6980 -156.5393 -13.4555 -61.9253 -7.3429 22.8769 72.7746 -11.2657 2.3847 28.3887 -0.0000 -12.8583 13.2015 1.0739 -2.2006 21.3806 2.6113 0.8633 -4.9040 0.7122 -95.5251 73.3322 160.0856 9.4681 7.2250 -61.5435 -20.1759 1.9956 -7.6525 -39.6663 -63.1357 -27.8396 -2.0276 6.5590 9.0336 -5.1889 0.3082 3.5410 -5.2349 0.3426 0.4306 -1.2888 -3.2296 -2.1763 1.7529 -6.5685 -1.9806 95.6752 66.1435 -162.6054 -13.7567 10.5812 55.0624 3.5762 9.7468 41.0804 12.7243 -60.9942 17.6229 1.8033 3.9791 -15.0986 4.8986 3.0048 -9.3103 5.2244 0.3950 2.0147 
-0.0236 0.2341 1.1320 0.7730 27.1808 -4.2734 0.4873 -67.6619 -179.4778 3.7783 -57.9683 3.5580 -0.8694 73.0214 0.5277 -2.3858 28.4528 0.0000 24.0322 -67.9231 -159.4967 -12.8697 -60.2344 -6.7145 22.2475 72.2935 -10.6124 2.3847 28.3887 -0.0000 -12.7917 12.9924 0.9523 -2.1310 21.4739 2.3925 0.8380 -5.6478 0.6476 -94.6315 74.6844 160.4615 10.3489 9.4424 -62.5926 -19.8357 1.9857 -7.6391 -39.0701 -62.3411 -27.7464 -2.0276 6.5590 9.0336 -5.1889 0.3082 3.5410 -5.2349 0.3426 0.4306 -1.4101 -6.5619 -2.2529 1.7301 -3.3789 -1.9506 95.2216 67.0325 -163.0624 -14.7520 11.9486 55.0324 3.1179 9.8876 42.5956 11.6263 -60.1642 17.0760 1.8033 3.9791 -15.0986 4.8986 3.0048 -9.3103 5.2244 0.3950 2.0147 
-0.0219 0.2325 1.1423 0.8157 26.3085 -3.9448 -0.1619 -65.7223 179.9852 3.7935 -56.3685 3.5073 -0.8258 72.3995 0.3354 -2.3858 28.4528 0.0000 21.3657 -66.1152 -162.0096 -12.1591 -58.6143 -5.9948 21.5405 71.8599 -10.0062 2.3847 28.3887 -0.0000 -12.7147 12.8027 0.8560 -2.0591 21.5832 2.1841 0.8154 -6.4143 0.5901 -93.7022 76.0170 160.8083 11.3007 11.5078 -63.7361 -19.4782 1.9723 -7.6194 -38.1359 -61.2659 -27.5053 -2.0276 6.5590 9.0336 -5.1889 0.3082 3.5410 -5.2349 0.3426 0.4306 -1.5396 -9.9752 -2.4367 1.7126 -0.1284 -1.8652 94.7647 67.9382 -163.5166 -15.7548 13.2697 55.1048 2.6813 10.0003 44.0291 10.3689 -59.0449 16.4194 1.8033 3.9791 -15.0986 4.8986 3.0048 -9.3103 5.2244 0.3950 2.0147 
-0.0204 0.2305 1.1527 0.8954 25.4431 -3.6568 -0.8665 -63.7354 179.4276 3.7382 -54.7048 3.4480 -0.8387 71.7589 0.2058 -2.3858 28.4528 0.0000 19.0402 -64.2337 -164.1613 -11.4769 -56.9368 -5.3119 20.7697 71.3892 -9.3506 2.3847 28.3887 -0.0000 -12.5939 12.5388 0.7697 -1.9749 21.6137 1.9910 0.7937 -7.1639 0.5051 -92.9435 77.0342 161.2081 12.2861 13.3652 -64.7954 -19.1013 1.9573 -7.5965 -36.8619 -59.8648 -27.1604 -2.0276 6.5590 9.0336 -5.1889 0.3082 3.5410 -5.2349 0.3426 0.4306 -1.6618 -12.9926 -2.5006 1.6909 2.7474 -1.8471 94.3371 68.7684 -163.9729 -16.7448 14.5559 55.0152 2.2148 10.1045 45.5710 8.9907 -57.5731 15.7587 1.8033 3.9791 -15.0986 4.8986 3.0048 -9.3103 5.2244 0.3950 2.0147 
-0.0184 0.2270 1.1659 1.2311 24.6364 -3.4344 -1.1560 -61.4444 179.3932 3.7695 -52.4407 3.3138 -0.4669 70.8747 -0.2666 -2.3858 28.4528 0.0000 16.7643 -62.0037 -166.0795 -10.5700 -54.7540 -4.4339 19.9719 70.6617 -8.6993 2.3847 28.3887 -0.0000 -12.3672 11.8729 0.5232 -1.9354 21.3779 1.7391 0.7953 -7.9549 0.3136 -93.4582 76.1677 162.2499 13.3409 14.0854 -64.8734 -18.6325 1.9375 -7.5658 -34.5377 -57.6882 -26.6551 -2.0276 6.5590 9.0336 -5.1889 0.3082 3.5410 -5.2349 0.3426 0.4306 -1.6690 -13.7992 -1.7756 1.6691 3.5489 -2.2599 94.0592 69.1742 -164.4621 -17.7901 15.8462 53.9162 1.5916 10.2416 47.7218 7.1603 -55.3235 14.9387 1.8033 3.9791 -15.0986 4.8986 3.0048 -9.3103 5.2244 0.3950 2.0147 
-0.0167 0.2236 1.1777 1.5265 23.9021 -3.2406 -1.4098 -59.3160 179.3595 3.8007 -50.3310 3.1921 -0.2335 70.0630 -0.5783 -2.3858 28.4528 0.0000 14.9604 -59.9151 -167.5717 -9.8405 -52.7060 -3.7375 19.2634 69.9830 -8.1230 2.3847 28.3887 -0.0000 -12.1360 11.2445 0.3231 -1.8880 21.1034 1.5383 0.7953 -8.6340 0.1308 -93.8400 75.3914 163.1027 14.2582 14.7243 -64.9422 -18.2029 1.9181 -7.5348 -32.3892 -55.4754 -26.2505 -2.0276 6.5590 9.0336 -5.1889 0.3082 3.5410 -5.2349 0.3426 0.4306 -1.6667 -14.5200 -1.1280 1.6586 4.2656 -2.6292 93.8150 69.5370 -164.9033 -18.7068 16.9887 52.9466 1.0343 10.3257 49.6257 5.5805 -53.0248 14.3484 1.8033 3.9791 -15.0986 4.8986 3.0048 -9.3103 5.2244 0.3950 2.0147 
-0.0155 0.2199 1.1893 1.7620 23.2362 -3.0546 -1.9554 -57.2012 179.0513 3.6656 -48.1859 3.0447 -0.2437 69.1860 -0.6745 -2.3858 28.4528 0.0000 13.3329 -57.8523 -168.8999 -9.1379 -50.6101 -3.0869 18.2173 69.2182 -7.2778 2.3847 28.3887 -0.0000 -11.9290 10.5497 0.2518 -1.7593 20.7952 1.3333 0.7707 -9.3177 0.0221 -94.0990 74.7453 163.8360 15.2623 15.2044 -64.9919 -17.7440 1.8945 -7.4958 -29.5890 -53.0248 -25.1612 -2.0276 6.5590 9.0336 -5.1889 0.3082 3.5410 -5.2349 0.3426 0.4306 -1.7123 -14.8672 -0.9943 1.6909 4.7024 -2.6200 93.8700 68.8456 -165.5578 -19.4669 17.2904 51.5448 0.4887 10.4336 51.6663 3.8794 -50.2457 13.8908 1.8033 3.9791 -15.0986 4.8986 3.0048 -9.3103 5.2244 0.3950 2.0147 
-0.0146 0.2161 1.1999 1.9802 22.5414 -2.8414 -2.3686 -55.1027 178.8297 3.6207 -46.1764 2.9151 -0.3158 68.3804 -0.6910 -2.3858 28.4528 0.0000 11.8461 -55.7851 -170.1181 -8.4992 -48.6210 -2.5171 17.2393 68.5061 -6.5157 2.3847 28.3887 -0.0000 -11.7376 9.8850 0.1971 -1.6319 20.4854 1.1535 0.7364 -10.0107 -0.0811 -94.3059 74.1254 164.5212 16.2379 15.6261 -64.9964 -17.2664 1.8702 -7.4554 -26.7610 -50.3305 -24.0933 -2.0276 6.5590 9.0336 -5.1889 0.3082 3.5410 -5.2349 0.3426 0.4306 -1.7710 -15.1265 -0.9842 1.7326 5.0745 -2.5197 93.9641 67.8947 -166.2339 -20.2021 17.4130 50.2778 0.0027 10.4763 53.4077 2.2340 -47.1830 13.5991 1.8033 3.9791 -15.0986 4.8986 3.0048 -9.3103 5.2244 0.3950 2.0147 
-0.0137 0.2120 1.2099 2.2044 21.7989 -2.5838 -2.7688 -52.9752 178.5850 3.5772 -44.2885 2.7910 -0.3221 67.6741 -0.7332 -2.3858 28.4528 0.0000 10.4713 -53.6533 -171.2648 -7.9075 -46.7077 -2.0105 16.4064 67.8966 -5.8849 2.3847 28.3887 -0.0000 -11.5396 9.2206 0.1231 -1.5156 20.0421 0.9992 0.6997 -10.6196 -0.2077 -94.4905 73.4678 165.2006 17.1905 15.9748 -64.9876 -16.7737 1.8414 -7.4058 -23.9598 -47.4258 -23.0290 -2.0276 6.5590 9.0336 -5.1889 0.3082 3.5410 -5.2349 0.3426 0.4306 -1.8167 -15.2804 -0.9401 1.7672 5.3702 -2.4498 94.0124 66.9483 -166.9178 -20.9896 17.5490 49.3772 -0.4094 10.4301 54.7090 0.6601 -43.9445 13.3944 1.8033 3.9791 -15.0986 4.8986 3.0048 -9.3103 5.2244 0.3950 2.0147 
-0.0131 0.2077 1.2195 2.4337 21.0604 -2.2662 -3.1625 -50.8341 178.2900 3.5058 -42.4403 2.6492 -0.2434 67.0135 -0.8179 -2.3858 28.4528 0.0000 9.1836 -51.4618 -172.3755 -7.3285 -44.7560 -1.5368 15.6048 67.3518 -5.2749 2.3847 28.3887 -0.0000 -11.3173 8.5175 0.0309 -1.3924 19.4022 0.8326 0.6638 -11.0916 -0.3565 -94.6642 72.7216 165.9100 18.1239 16.1796 -64.9967 -16.2563 1.8108 -7.3526 -21.0677 -44.2822 -21.7348 -2.0276 6.5590 9.0336 -5.1889 0.3082 3.5410 -5.2349 0.3426 0.4306 -1.8342 -15.2015 -0.8192 1.7870 5.4973 -2.4459 94.0000 66.0057 -167.6642 -21.8117 17.6589 48.7842 -0.7791 10.3115 55.7079 -0.8886 -40.5361 13.1847 1.8033 3.9791 -15.0986 4.8986 3.0048 -9.3103 5.2244 0.3950 2.0147 
-0.0126 0.2030 1.2288 2.6544 20.3096 -1.9365 -3.5404 -48.6542 177.9957 3.4482 -40.5892 2.5167 -0.2294 66.3741 -0.8213 -2.3858 28.4528 0.0000 7.9983 -49.2073 -173.4025 -6.7898 -42.7575 -1.1160 14.8399 66.8034 -4.7050 2.3847 28.3887 -0.0000 -11.0891 7.7867 -0.0536 -1.2877 18.6228 0.6975 0.6266 -11.5087 -0.5214 -94.8027 71.9661 166.5902 19.0481 16.3776 -64.9558 -15.7221 1.7768 -7.2921 -18.4350 -40.9979 -20.7088 -2.0276 6.5590 9.0336 -5.1889 0.3082 3.5410 -5.2349 0.3426 0.4306 -1.8521 -15.1220 -0.6970 1.8072 5.6262 -2.4420 93.9588 65.0527 -168.3910 -22.6655 17.7816 48.2538 -1.1253 10.1550 56.5649 -2.3131 -37.0325 13.1212 1.8033 3.9791 -15.0986 4.8986 3.0048 -9.3103 5.2244 0.3950 2.0147 
-0.0120 0.1975 1.2382 2.8668 19.3267 -1.5429 -3.8327 -46.1329 177.7164 3.3426 -38.6502 2.3499 -0.0635 65.8724 -0.9442 -2.3858 28.4528 0.0000 6.8393 -46.5561 -174.4617 -6.1334 -40.5653 -0.6419 13.9356 66.3189 -4.0611 2.3847 28.3887 -0.0000 -10.8273 7.0852 -0.1531 -1.2427 17.6772 0.5095 0.6176 -11.7257 -0.6323 -94.8175 71.4192 167.3290 19.9247 16.7185 -65.0907 -15.1028 1.7360 -7.2181 -15.8252 -37.1751 -19.7511 -2.0276 6.5590 9.0336 -5.1889 0.3082 3.5410 -5.2349 0.3426 0.4306 -1.8605 -14.7901 -0.6558 1.8137 5.6189 -2.4400 93.8136 64.6282 -169.0346 -23.5796 18.4286 47.9818 -1.5555 9.8637 57.3959 -3.7008 -33.2268 13.1735 1.8033 3.9791 -15.0986 4.8986 3.0048 -9.3103 5.2244 0.3950 2.0147 
-0.0116 0.1926 1.2457 3.0340 18.4656 -1.2125 -4.0498 -43.8975 177.4991 3.2512 -36.8885 2.2036 0.0091 65.4175 -0.9783 -2.3858 28.4528 0.0000 5.9365 -44.1841 -175.2903 -5.5853 -38.5303 -0.2735 13.1077 65.8436 -3.4870 2.3847 28.3887 -0.0000 -10.5843 6.4678 -0.2108 -1.2211 16.6941 0.3363 0.6194 -11.8090 -0.7159 -94.7973 70.9881 167.9610 20.6414 17.0213 -65.2212 -14.5470 1.6971 -7.1458 -13.8279 -33.8542 -19.1120 -2.0276 6.5590 9.0336 -5.1889 0.3082 3.5410 -5.2349 0.3426 0.4306 -1.8661 -14.4613 -0.6349 1.8166 5.5886 -2.4385 93.6694 64.3599 -169.5691 -24.3504 19.0565 47.5866 -1.9743 9.5966 58.3282 -4.7753 -29.9969 13.3026 1.8033 3.9791 -15.0986 4.8986 3.0048 -9.3103 5.2244 0.3950 2.0147 
-0.0112 0.1870 1.2529 3.1311 17.3997 -0.9808 -4.0274 -41.3601 177.5105 3.1063 -35.0416 2.0244 0.1252 64.9555 -1.0216 -2.3858 28.4528 0.0000 5.2585 -41.5410 -175.9049 -5.0766 -36.4678 0.0414 12.2822 65.3574 -2.9188 2.3847 28.3887 -0.0000 -10.3082 5.9419 -0.2094 -1.2256 15.4818 0.2776 0.6347 -11.5855 -0.7703 -94.7371 70.6656 168.5627 21.1221 17.2329 -64.6038 -13.9406 2.2907 -8.4630 -12.1947 -30.7711 -18.8850 -2.0276 6.5590 9.0336 -5.1889 0.3082 3.5410 -5.2349 0.3426 0.4306 -1.8820 -13.9920 -0.6905 1.8182 5.4395 -2.4041 93.5389 64.0414 -170.1610 -25.0635 19.5212 47.1842 -2.3933 9.3245 59.3344 -5.6910 -26.8787 13.5859 1.8033 3.9791 -15.0986 4.8986 3.0048 -9.3103 5.2244 0.3950 2.0147 
-0.0108 0.1807 1.2596 3.1533 16.1132 -0.8491 -3.7853 -38.5384 177.7200 2.9064 -33.1519 1.8186 0.2923 64.4951 -1.0735 -2.3858 28.4528 0.0000 4.8027 -38.6674 -176.3157 -4.6010 -34.4609 0.3085 11.4907 64.8869 -2.3942 2.3847 28.3887 -0.0000 -9.9973 5.5708 -0.1638 -1.2450 14.2420 0.3393 0.6615 -11.1212 -0.7882 -94.6401 70.4648 169.1409 20.8918 17.1108 -60.6474 -12.8725 5.5140 -15.8859 -10.8745 -28.0060 -19.0327 -2.0276 6.5590 9.0336 -5.1889 0.3082 3.5410 -5.2349 0.3426 0.4306 -1.9083 -13.3624 -0.8322 1.8189 5.1557 -2.3326 93.4103 63.6970 -170.6386 -25.6074 19.8985 46.7516 -2.7953 9.0379 60.3154 -6.4583 -23.9187 14.0079 1.8033 3.9791 -15.0986 4.8986 3.0048 -9.3103 5.2244 0.3950 2.0147 
-0.0104 0.1740 1.2662 3.1716 14.8333 -0.7088 -3.5818 -35.7175 177.8701 2.7226 -31.2353 1.6290 0.3726 64.0126 -1.0272 -2.3858 28.4528 0.0000 4.3906 -35.7937 -176.7017 -4.1465 -32.4174 0.5360 10.7524 64.3876 -1.9466 2.3847 28.3887 -0.0000 -9.6683 5.2447 -0.1243 -1.2588 13.1171 0.4042 0.6872 -10.7084 -0.8072 -94.5359 70.2601 169.7260 20.9548 17.1250 -58.8743 -11.9046 6.9025 -19.5140 -9.7138 -25.4428 -19.2337 -2.0276 6.5590 9.0336 -5.1889 0.3082 3.5410 -5.2349 0.3426 0.4306 -1.9335 -12.7197 -0.9760 1.8207 4.8665 -2.2598 93.2743 63.3456 -171.1216 -26.0805 20.2672 46.4051 -3.1858 8.7158 61.2271 -7.1165 -21.1750 14.4420 1.8033 3.9791 -15.0986 4.8986 3.0048 -9.3103 5.2244 0.3950 2.0147 
-0.0100 0.1654 1.2735 3.2203 13.4146 -0.7055 -3.3384 -32.5728 178.1835 2.5050 -29.0220 1.4183 0.4155 62.8084 -0.8995 -2.3858 28.4528 0.0000 4.0340 -32.7124 -176.9085 -3.6246 -30.3448 0.7689 9.8228 63.4214 -1.3832 2.3847 28.3887 -0.0000 -9.2545 4.9368 -0.0594 -1.3006 12.1141 0.5858 0.6874 -10.3543 -0.7302 -94.3944 70.1353 170.3569 20.9731 17.1400 -57.2904 -10.7897 8.0722 -22.9748 -8.6219 -22.8102 -19.2839 -2.0276 6.5590 9.0336 -5.1889 0.3082 3.5410 -5.2349 0.3426 0.4306 -2.0015 -11.8639 -1.2204 1.8426 4.4057 -2.1598 93.0953 63.0081 -171.6914 -26.5397 20.7478 46.3419 -3.5090 8.4404 62.0927 -7.5151 -18.9131 14.7953 1.8033 3.9791 -15.0986 4.8986 3.0048 -9.3103 5.2244 0.3950 2.0147 
-0.0098 0.1589 1.2784 3.2527 12.4150 -0.7066 -3.1972 -30.4071 178.3706 2.3683 -27.5251 1.2878 0.4675 62.3655 -0.8404 -2.3858 28.4528 0.0000 3.8114 -30.6138 -177.0450 -3.2705 -28.9970 0.9096 9.3077 63.2369 -1.1171 2.3847 28.3887 -0.0000 -8.9569 4.7471 -0.0125 -1.3231 11.5702 0.7364 0.6815 -10.1789 -0.6809 -94.2913 70.0499 170.8037 20.9239 17.1293 -56.2970 -9.9882 8.7510 -25.2378 -8.0363 -21.2867 -19.3206 -2.0276 6.5590 9.0336 -5.1889 0.3082 3.5410 -5.2349 0.3426 0.4306 -2.0487 -11.2506 -1.3954 1.8602 4.0741 -2.0882 92.9641 62.7698 -172.0952 -26.7982 21.0792 46.3940 -3.7312 8.2365 62.6922 -7.6543 -17.6848 15.0140 1.8033 3.9791 -15.0986 4.8986 3.0048 -9.3103 5.2244 0.3950 2.0147 
-0.0098 0.1514 1.2837 3.2161 11.6505 -0.6267 -2.9267 -28.3787 178.4722 2.2716 -25.8446 1.1725 0.6711 62.2277 -0.8758 -2.3858 28.4528 0.0000 3.7536 -28.5978 -177.2155 -2.9051 -27.3361 1.0296 8.8006 63.1174 -0.7538 2.3847 28.3887 -0.0000 -8.5683 4.4227 0.0323 -1.3002 10.5970 0.8303 0.7116 -9.9620 -0.6318 -94.1800 69.9601 171.2764 20.9606 17.2221 -55.2737 -9.0772 9.3584 -27.5663 -7.5963 -19.8145 -19.4346 -2.0276 6.5590 9.0336 -5.1889 0.3082 3.5410 -5.2349 0.3426 0.4306 -2.1152 -10.6096 -1.5747 1.8747 3.8073 -2.0355 92.8026 62.5800 -172.5513 -27.1799 21.5275 46.4909 -4.0232 7.9119 63.3253 -7.7343 -16.5305 15.1956 1.8033 3.9791 -15.0986 4.8986 3.0048 -9.3103 5.2244 0.3950 2.0147 
-0.0099 0.1431 1.2875 3.1092 11.2617 -0.4748 -2.8220 -26.8369 178.4013 2.2339 -24.3419 1.0931 0.5712 61.9491 -0.7402 -2.3858 28.4528 0.0000 3.7085 -27.0427 -177.4546 -2.5812 -25.8738 1.1200 8.1497 62.8016 -0.3339 2.3847 28.3887 -0.0000 -8.1420 4.0180 0.0665 -1.2304 9.2836 0.8245 0.7783 -9.7144 -0.5782 -94.0780 69.8798 171.7023 21.1607 17.4409 -54.4663 -8.2251 9.7570 -29.4692 -7.4047 -18.7119 -19.6013 -2.0276 6.5590 9.0336 -5.1889 0.3082 3.5410 -5.2349 0.3426 0.4306 -2.1919 -10.0401 -1.7301 1.8832 3.6510 -2.0107 92.6357 62.4712 -172.9917 -27.6752 22.0421 46.5871 -4.3325 7.5057 63.8339 -7.7101 -15.7208 15.3026 1.8033 3.9791 -15.0986 4.8986 3.0048 -9.3103 5.2244 0.3950 2.0147 
-0.0100 0.1354 1.2908 3.0024 10.9026 -0.3342 -2.7195 -25.3875 178.3328 2.2118 -22.9783 1.0267 0.4602 61.7393 -0.6023 -2.3858 28.4528 0.0000 3.6820 -25.5627 -177.6663 -2.2806 -24.4925 1.1889 7.6112 62.5247 -0.0343 2.3847 28.3887 -0.0000 -7.7197 3.6487 0.1005 -1.1528 8.0242 0.7839 0.8472 -9.4727 -0.5057 -93.9771 69.8041 172.1151 21.4991 17.7009 -53.9246 -7.4547 9.9738 -30.9436 -7.4042 -18.0766 -19.7932 -2.0276 6.5590 9.0336 -5.1889 0.3082 3.5410 -5.2349 0.3426 0.4306 -2.2629 -9.4873 -1.8804 1.8904 3.5057 -1.9909 92.4724 62.3720 -173.4171 -28.2070 22.5672 46.6223 -4.6114 7.0977 64.2129 -7.5299 -15.3640 15.3856 1.8033 3.9791 -15.0986 4.8986 3.0048 -9.3103 5.2244 0.3950 2.0147 
-0.0099 0.1265 1.2940 2.9125 10.6092 -0.2724 -2.5993 -23.8352 178.3576 2.1741 -21.4463 0.9478 0.4005 61.4958 -0.5134 -2.3858 28.4528 0.0000 3.6724 -24.0331 -177.7843 -1.8901 -23.0599 1.2766 6.9405 62.4563 0.3347 2.3847 28.3887 -0.0000 -7.2392 3.2398 0.1703 -1.0995 6.1953 0.7626 0.9456 -8.8998 -0.3810 -93.8557 69.7564 172.5782 22.1229 17.7546 -53.4392 -6.5860 10.1712 -32.5994 -7.5950 -18.2556 -20.8191 -2.0276 6.5590 9.0336 -5.1889 0.3082 3.5410 -5.2349 0.3426 0.4306 -2.3065 -8.8821 -2.0667 1.8637 3.4579 -2.0532 92.2901 62.3680 -173.8636 -28.8983 23.2018 46.6633 -4.8868 6.6677 64.5730 -7.0780 -15.5237 15.6489 1.8033 3.9791 -15.0986 4.8986 3.0048 -9.3103 5.2244 0.3950 2.0147 
-0.0100 0.1188 1.2965 2.8304 10.3647 -0.2193 -2.4958 -22.5067 178.3721 2.1574 -20.1695 0.8880 0.3227 61.3253 -0.4187 -2.3858 28.4528 0.0000 3.6732 -22.7154 -177.8838 -1.5666 -21.8389 1.3331 6.4464 62.4154 0.5545 2.3847 28.3887 -0.0000 -6.8103 2.9611 0.2027 -1.0450 4.4527 0.7806 1.0325 -8.3299 -0.2897 -93.7484 69.7148 172.9848 22.7469 17.8187 -53.0852 -5.8394 10.2790 -33.9617 -7.9698 -18.7736 -21.7483 -2.0276 6.5590 9.0336 -5.1889 0.3082 3.5410 -5.2349 0.3426 0.4306 -2.3431 -8.3498 -2.2296 1.8417 3.4167 -2.1070 92.1297 62.3650 -174.2560 -29.5429 23.7507 46.6547 -5.1222 6.2819 64.8620 -6.5345 -16.0651 15.8755 1.8033 3.9791 -15.0986 4.8986 3.0048 -9.3103 5.2244 0.3950 2.0147 
-0.0100 0.1108 1.2988 2.9190 9.7143 -0.1766 -2.5390 -20.7992 178.3869 2.0884 -19.0004 0.8160 0.3038 61.1500 -0.3334 -2.3858 28.4528 0.0000 3.4920 -20.9950 -178.0324 -1.3068 -20.7551 1.3624 6.0136 62.4591 0.7727 2.3847 28.3887 -0.0000 -6.4469 2.8314 0.2252 -1.0470 3.2821 0.7907 1.0676 -7.7387 -0.2349 -93.6248 69.6061 173.4813 23.0763 17.9738 -52.9138 -5.1256 10.3115 -35.1659 -8.5417 -19.5121 -22.2110 -2.0276 6.5590 9.0336 -5.1889 0.3082 3.5410 -5.2349 0.3426 0.4306 -2.3449 -7.6186 -2.3132 1.8412 3.2200 -2.1151 91.9555 62.3951 -174.6756 -30.0365 24.1864 46.7925 -5.3465 5.8906 65.0915 -5.8837 -16.8921 16.1414 1.8033 3.9791 -15.0986 4.8986 3.0048 -9.3103 5.2244 0.3950 2.0147 
-0.0099 0.1035 1.3008 3.0840 8.8888 -0.1323 -2.6536 -19.0096 178.3961 2.0073 -17.9382 0.7469 0.2709 60.9509 -0.2130 -2.3858 28.4528 0.0000 3.2394 -19.1654 -178.1923 -1.0898 -19.7637 1.3737 5.6384 62.5016 0.9659 2.3847 28.3887 -0.0000 -6.1258 2.7710 0.2416 -1.0719 2.6272 0.7723 1.0748 -7.2575 -0.1839 -93.4933 69.4686 174.0108 23.1910 18.1479 -52.9036 -4.4695 10.2511 -36.1072 -9.2719 -20.4964 -22.4864 -2.0276 6.5590 9.0336 -5.1889 0.3082 3.5410 -5.2349 0.3426 0.4306 -2.3308 -6.8059 -2.3603 1.8509 2.9571 -2.1029 91.7774 62.4402 -175.1029 -30.3972 24.6215 47.0365 -5.5561 5.4971 65.2292 -5.1261 -17.9916 16.4463 1.8033 3.9791 -15.0986 4.8986 3.0048 -9.3103 5.2244 0.3950 2.0147 
-0.0098 0.0970 1.3027 3.2250 8.1386 -0.0797 -2.7455 -17.4173 178.3969 1.9256 -16.9912 0.6848 0.2252 60.7530 -0.0730 -2.3858 28.4528 0.0000 3.0164 -17.5181 -178.3364 -0.8574 -18.8376 1.3872 5.2631 62.4788 1.1360 2.3847 28.3887 -0.0000 -5.8070 2.6987 0.2567 -1.0859 2.1218 0.7178 1.0898 -6.8724 -0.1195 -93.3674 69.3228 174.5126 23.2358 18.2731 -52.9286 -3.8554 10.1172 -36.8378 -10.1214 -21.7623 -22.7541 -2.0276 6.5590 9.0336 -5.1889 0.3082 3.5410 -5.2349 0.3426 0.4306 -2.3109 -6.0213 -2.3930 1.8547 2.7110 -2.1051 91.6129 62.4898 -175.4976 -30.7390 25.0686 47.2692 -5.7456 5.1177 65.2898 -4.2291 -19.3634 16.7717 1.8033 3.9791 -15.0986 4.8986 3.0048 -9.3103 5.2244 0.3950 2.0147 
-0.0097 0.0906 1.3044 3.2669 7.6413 0.0011 -2.7096 -16.1120 178.3747 1.7496 -16.0719 0.6000 0.3320 60.5788 -0.0084 -2.3858 28.4528 0.0000 2.8491 -16.1384 -178.4808 -0.4311 -17.8366 1.4472 4.5811 62.2787 1.4442 2.3847 28.3887 -0.0000 -5.4193 2.5518 0.2674 -1.0770 1.0283 0.6306 1.1645 -6.3326 -0.0599 -93.2611 69.1095 174.9623 23.3852 18.2888 -52.7632 -3.1717 9.9137 -37.5610 -11.1149 -23.6354 -22.8020 -2.0276 6.5590 9.0336 -5.1889 0.3082 3.5410 -5.2349 0.3426 0.4306 -2.2615 -5.2556 -2.3567 1.8260 2.5024 -2.1814 91.4902 62.5676 -175.7866 -31.2166 25.6275 47.2801 -5.9023 4.7761 65.3161 -2.9474 -21.2592 17.0899 1.8033 3.9791 -15.0986 4.8986 3.0048 -9.3103 5.2244 0.3950 2.0147 
-0.0096 0.0854 1.3058 3.3043 7.2103 0.0720 -2.6839 -15.0710 178.3505 1.6196 -15.3984 0.5409 0.3715 60.4619 0.0900 -2.3858 28.4528 0.0000 2.7109 -15.0098 -178.6008 -0.0912 -17.0554 1.4862 4.1150 62.1174 1.5913 2.3847 28.3887 -0.0000 -5.0897 2.4331 0.3148 -1.0678 0.2329 0.4658 1.2295 -5.9332 0.0352 -93.1653 68.9237 175.3519 23.4900 18.3023 -52.6872 -2.6058 9.6880 -38.0426 -12.0971 -25.4723 -22.9515 -2.0276 6.5590 9.0336 -5.1889 0.3082 3.5410 -5.2349 0.3426 0.4306 -2.2189 -4.5876 -2.3259 1.8017 2.3221 -2.2474 91.3834 62.6358 -176.0390 -31.6188 26.1208 47.3136 -6.0352 4.4753 65.2900 -1.7278 -23.1147 17.4516 1.8033 3.9791 -15.0986 4.8986 3.0048 -9.3103 5.2244 0.3950 2.0147 
-0.0094 0.0806 1.3070 3.3729 6.7279 0.1024 -2.7001 -14.0173 178.3703 1.7147 -14.7410 0.5425 0.2194 60.3296 0.1570 -2.3858 28.4528 0.0000 2.6241 -13.8892 -178.6671 0.0226 -16.3930 1.4624 3.9233 62.2045 1.6776 2.3847 28.3887 -0.0000 -4.8058 2.3324 0.3302 -1.0944 -0.2895 0.4171 1.2680 -5.6697 0.0800 -93.0598 68.6967 175.7750 23.4157 18.6916 -52.5943 -2.1656 9.4885 -38.3763 -13.6383 -27.4064 -23.6657 -2.0276 6.5590 9.0336 -5.1889 0.3082 3.5410 -5.2349 0.3426 0.4306 -2.1680 -4.1685 -2.2536 1.7764 2.2813 -2.3213 91.3004 62.6634 -176.2403 -31.9820 26.5737 47.3366 -6.1503 4.1995 65.2233 -0.3613 -25.1040 18.0017 1.8033 3.9791 -15.0986 4.8986 3.0048 -9.3103 5.2244 0.3950 2.0147 
-0.0091 0.0762 1.3081 3.4468 6.2426 0.1316 -2.7280 -13.0390 178.3903 1.8662 -14.1662 0.5589 0.0175 60.2027 0.2184 -2.3858 28.4528 0.0000 2.5493 -12.8044 -178.7258 0.0642 -15.7803 1.4206 3.8422 62.3349 1.7152 2.3847 28.3887 -0.0000 -4.5529 2.2371 0.3388 -1.1371 -0.5502 0.3807 1.2976 -5.5296 0.1215 -92.9507 68.4647 176.1965 23.3203 19.1576 -52.5797 -1.7762 9.2691 -38.5615 -15.3639 -29.3860 -24.5842 -2.0276 6.5590 9.0336 -5.1889 0.3082 3.5410 -5.2349 0.3426 0.4306 -2.1167 -3.8039 -2.1744 1.7515 2.2693 -2.3955 91.2231 62.6827 -176.4288 -32.2899 27.0105 47.4237 -6.2578 3.9312 65.1043 1.0874 -27.1571 18.6664 1.8033 3.9791 -15.0986 4.8986 3.0048 -9.3103 5.2244 0.3950 2.0147 
-0.0088 0.0720 1.3090 3.4656 5.7428 0.1859 -2.7068 -12.1838 178.3891 2.0751 -13.8111 0.5951 -0.2349 60.1950 0.2760 -2.3858 28.4528 0.0000 2.5076 -11.7580 -178.8073 0.0315 -15.2480 1.3652 3.8480 62.4395 1.7355 2.3847 28.3887 -0.0000 -4.2996 2.1512 0.3350 -1.1686 -0.5979 0.3457 1.3410 -5.4957 0.1548 -92.8437 68.2233 176.5995 23.2899 19.5791 -52.6579 -1.4166 9.0176 -38.5919 -17.1660 -31.4104 -25.5838 -2.0276 6.5590 9.0336 -5.1889 0.3082 3.5410 -5.2349 0.3426 0.4306 -2.0646 -3.5255 -2.1021 1.7267 2.2993 -2.4417 91.1451 62.7502 -176.6130 -32.5874 27.4602 47.6233 -6.3614 3.6599 64.9008 2.6392 -29.2748 19.4524 1.8033 3.9791 -15.0986 4.8986 3.0048 -9.3103 5.2244 0.3950 2.0147 
-0.0084 0.0677 1.3098 3.3389 5.1398 0.2980 -2.5432 -11.4037 178.3459 2.4305 -13.8300 0.6811 -0.6004 60.4838 0.3033 -2.3858 28.4528 0.0000 2.5485 -10.6442 -178.9507 -0.1435 -14.8150 1.2823 3.9507 62.4868 1.8061 2.3847 28.3887 -0.0000 -3.9738 2.0733 0.2772 -1.1504 -0.4656 0.3594 1.4316 -5.5648 0.1434 -92.7340 67.9256 177.0086 23.3779 19.9088 -52.8164 -1.0473 8.7098 -38.4683 -19.2216 -33.7125 -26.7350 -2.0276 6.5590 9.0336 -5.1889 0.3082 3.5410 -5.2349 0.3426 0.4306 -2.0032 -3.4442 -2.0377 1.6983 2.4442 -2.4189 91.0558 62.9552 -176.8089 -32.9779 28.0037 47.9945 -6.4743 3.3497 64.5536 4.5359 -31.7088 20.5105 1.8033 3.9791 -15.0986 4.8986 3.0048 -9.3103 5.2244 0.3950 2.0147 
-0.0080 0.0640 1.3104 3.2237 4.5876 0.3985 -2.3947 -10.7746 178.3043 2.7724 -13.9692 0.7706 -0.9308 60.7863 0.3056 -2.3858 28.4528 0.0000 2.5891 -9.6734 -179.0801 -0.3431 -14.4912 1.2046 4.1212 62.5503 1.8273 2.3847 28.3887 -0.0000 -3.6914 2.0081 0.2625 -1.1434 -0.1914 0.2971 1.5169 -5.6981 0.1709 -92.6298 67.6530 177.3802 23.4634 20.2155 -53.0042 -0.7193 8.4149 -38.2820 -21.1988 -35.7882 -27.9398 -2.0276 6.5590 9.0336 -5.1889 0.3082 3.5410 -5.2349 0.3426 0.4306 -1.9470 -3.3694 -1.9789 1.6725 2.5774 -2.3980 90.9746 63.1433 -176.9891 -33.3178 28.5038 48.3853 -6.5781 3.0664 64.1912 6.3627 -33.9077 21.6171 1.8033 3.9791 -15.0986 4.8986 3.0048 -9.3103 5.2244 0.3950 2.0147 
-0.0077 0.0609 1.3109 3.0973 4.2036 0.4578 -2.2729 -10.3086 178.2923 2.9094 -14.0192 0.8065 -1.0539 60.9841 0.2957 -2.3858 28.4528 0.0000 2.6969 -8.9642 -179.1529 -0.5265 -14.2400 1.1387 4.2923 62.6133 1.8313 2.3847 28.3887 -0.0000 -3.4194 1.9401 0.2599 -1.1145 -0.0268 0.2627 1.5936 -5.8479 0.2054 -92.5615 67.4111 177.6254 23.5783 20.4695 -53.0835 -0.5314 8.2211 -38.0913 -23.2490 -37.8378 -29.1955 -2.0276 6.5590 9.0336 -5.1889 0.3082 3.5410 -5.2349 0.3426 0.4306 -1.9228 -3.5346 -2.0126 1.6546 2.8313 -2.3521 90.9050 63.1752 -177.1611 -33.5939 28.7842 48.6091 -6.6888 2.7931 63.9069 8.0170 -35.9386 22.6575 1.8033 3.9791 -15.0986 4.8986 3.0048 -9.3103 5.2244 0.3950 2.0147 
-0.0073 0.0577 1.3114 2.9598 3.7891 0.5238 -2.1406 -9.7904 178.2750 3.0569 -14.0443 0.8439 -1.1832 61.1844 0.2804 -2.3858 28.4528 0.0000 2.8163 -8.1788 -179.2296 -0.7434 -13.9034 1.0599 4.4953 62.6364 1.8335 2.3847 28.3887 -0.0000 -3.1316 1.8660 0.2556 -1.0855 0.2653 0.2051 1.6778 -6.0647 0.2555 -92.4858 67.1480 177.8882 23.6649 20.7335 -53.1534 -0.3236 8.0224 -37.9263 -25.5634 -39.9791 -30.7083 -2.0276 6.5590 9.0336 -5.1889 0.3082 3.5410 -5.2349 0.3426 0.4306 -1.8973 -3.7200 -2.0513 1.6351 3.1107 -2.3012 90.8294 63.2067 -177.3486 -33.8647 29.0806 48.8443 -6.8124 2.4979 63.6151 9.8768 -38.0638 23.9053 1.8033 3.9791 -15.0986 4.8986 3.0048 -9.3103 5.2244 0.3950 2.0147 
-0.0068 0.0542 1.3119 2.8149 3.3378 0.5667 -1.9766 -9.1534 178.2886 3.0847 -13.9415 0.8446 -1.1882 61.3687 0.2528 -2.3858 28.4528 0.0000 2.9483 -7.3045 -179.2758 -1.0044 -13.4773 0.9669 4.7593 62.6590 1.8132 2.3847 28.3887 -0.0000 -2.8135 1.8016 0.2587 -1.0549 0.6033 0.1418 1.7672 -6.3004 0.3326 -92.4202 66.9043 178.1105 23.7218 21.0183 -53.1498 -0.1067 7.8319 -37.8068 -28.2451 -42.1312 -32.5495 -2.0276 6.5590 9.0336 -5.1889 0.3082 3.5410 -5.2349 0.3426 0.4306 -1.8752 -3.9808 -2.1343 1.6175 3.4376 -2.2279 90.7630 63.1999 -177.5175 -34.1112 29.3310 49.0053 -6.9239 2.2236 63.3351 12.1153 -40.2840 25.4965 1.8033 3.9791 -15.0986 4.8986 3.0048 -9.3103 5.2244 0.3950 2.0147 
-0.0063 0.0511 1.3122 2.6959 2.9529 0.5748 -1.8202 -8.5956 178.3319 2.9835 -13.8173 0.8129 -1.0629 61.5258 0.2187 -2.3858 28.4528 0.0000 3.0629 -6.5888 -179.2828 -1.2344 -13.1503 0.8913 5.0193 62.7201 1.7657 2.3847 28.3887 -0.0000 -2.5422 1.7618 0.2699 -1.0336 0.9008 0.0946 1.8409 -6.4969 0.4157 -92.3813 66.7362 178.2417 23.7661 21.2682 -53.0988 0.0618 7.6841 -37.7118 -30.6434 -43.7811 -34.2553 -2.0276 6.5590 9.0336 -5.1889 0.3082 3.5410 -5.2349 0.3426 0.4306 -1.8621 -4.2577 -2.2432 1.6057 3.7370 -2.1488 90.7209 63.1557 -177.6283 -34.2903 29.4813 49.0727 -6.9952 2.0334 63.1045 14.2072 -42.0644 27.0489 1.8033 3.9791 -15.0986 4.8986 3.0048 -9.3103 5.2244 0.3950 2.0147 
-0.0057 0.0482 1.3125 2.5781 2.5710 0.5769 -1.6650 -8.0427 178.3792 2.8806 -13.6886 0.7811 -0.9338 61.6733 0.1820 -2.3858 28.4528 0.0000 3.1782 -5.8835 -179.2818 -1.4541 -12.8131 0.8199 5.2721 62.7668 1.7153 2.3847 28.3887 -0.0000 -2.2825 1.7238 0.2818 -1.0183 1.2762 0.0444 1.9144 -6.7271 0.5037 -92.3431 66.5779 178.3671 23.7940 21.5135 -53.0469 0.2309 7.5406 -37.6301 -33.0412 -45.2713 -36.0239 -2.0276 6.5590 9.0336 -5.1889 0.3082 3.5410 -5.2349 0.3426 0.4306 -1.8491 -4.5320 -2.3486 1.5932 4.0323 -2.0722 90.6807 63.1141 -177.7337 -34.4530 29.6276 49.1434 -7.0687 1.8435 62.8735 16.3083 -43.6856 28.6626 1.8033 3.9791 -15.0986 4.8986 3.0048 -9.3103 5.2244 0.3950 2.0147 
-0.0051 0.0453 1.3126 2.4630 2.2056 0.5026 -1.5033 -7.4874 178.5135 2.7425 -13.5092 0.7387 -0.7544 61.7489 0.1250 -2.3858 28.4528 0.0000 3.3070 -5.3173 -179.2013 -1.4981 -12.7212 0.8044 5.4013 62.9742 1.6162 2.3847 28.3887 -0.0000 -2.0258 1.7095 0.3058 -1.0107 1.5595 0.0839 1.9734 -6.8825 0.5770 -92.3245 66.5574 178.4225 23.8546 21.7831 -53.0040 0.4022 7.3861 -37.5093 -35.4034 -46.5622 -37.8139 -2.0276 6.5590 9.0336 -5.1889 0.3082 3.5410 -5.2349 0.3426 0.4306 -1.8320 -4.7772 -2.4100 1.5774 4.2786 -2.0314 90.6685 63.1062 -177.7651 -34.6088 29.7365 49.1964 -7.1676 1.6132 62.6246 18.2910 -45.1688 30.1951 1.8033 3.9791 -15.0986 4.8986 3.0048 -9.3103 5.2244 0.3950 2.0147 
-0.0045 0.0426 1.3128 2.3503 1.8510 0.4343 -1.3470 -6.9357 178.6382 2.6081 -13.3120 0.6970 -0.5780 61.8113 0.0672 -2.3858 28.4528 0.0000 3.4318 -4.7456 -179.1252 -1.5412 -12.5855 0.7865 5.5264 63.1514 1.5200 2.3847 28.3887 -0.0000 -1.7826 1.6959 0.3267 -1.0050 1.8957 0.1101 2.0319 -7.0616 0.6555 -92.3063 66.5375 178.4763 23.8937 22.0393 -52.9602 0.5683 7.2394 -37.3992 -37.6461 -47.6586 -39.5552 -2.0276 6.5590 9.0336 -5.1889 0.3082 3.5410 -5.2349 0.3426 0.4306 -1.8157 -5.0160 -2.4695 1.5619 4.5183 -1.9915 90.6567 63.0986 -177.7957 -34.7402 29.8393 49.2502 -7.2649 1.3925 62.3889 20.1873 -46.4501 31.7041 1.8033 3.9791 -15.0986 4.8986 3.0048 -9.3103 5.2244 0.3950 2.0147 
-0.0039 0.0399 1.3128 2.2323 1.5512 0.3975 -1.1957 -6.4940 178.7224 2.5198 -13.2204 0.6721 -0.4506 61.8888 0.0163 -2.3858 28.4528 0.0000 3.5559 -4.2349 -179.0836 -1.4996 -12.4549 0.7875 5.5317 63.2588 1.4665 2.3847 28.3887 -0.0000 -1.5233 1.6729 0.3381 -0.9890 2.1635 0.1137 2.0810 -7.2319 0.7139 -92.3028 66.5515 178.4853 23.9655 22.2986 -52.8975 0.7381 7.0861 -37.2683 -39.9044 -48.6463 -41.3483 -2.0276 6.5590 9.0336 -5.1889 0.3082 3.5410 -5.2349 0.3426 0.4306 -1.8031 -5.2576 -2.5083 1.5533 4.7465 -1.9314 90.6522 63.1508 -177.8023 -34.8890 29.9366 49.3059 -7.3615 1.1749 62.1451 22.0931 -47.5840 33.2398 1.8033 3.9791 -15.0986 4.8986 3.0048 -9.3103 5.2244 0.3950 2.0147 
-0.0034 0.0373 1.3128 2.1182 1.3105 0.3867 -1.0569 -6.1547 178.7709 2.4707 -13.2036 0.6600 -0.3669 61.9702 -0.0266 -2.3858 28.4528 -0.0000 3.6717 -3.7929 -179.0702 -1.3986 -12.3286 0.8013 5.4466 63.3091 1.4501 2.3847 28.3887 -0.0000 -1.2693 1.6444 0.3414 -0.9647 2.3679 0.1010 2.1198 -7.3869 0.7535 -92.3103 66.5895 178.4607 24.0495 22.5409 -52.8212 0.8992 6.9390 -37.1322 -41.9777 -49.4497 -43.0248 -2.0276 6.5590 9.0336 -5.1889 0.3082 3.5410 -5.2349 0.3426 0.4306 -1.7940 -5.4857 -2.5292 1.5504 4.9517 -1.8603 90.6534 63.2438 -177.7908 -35.0350 30.0220 49.3608 -7.4511 0.9749 61.9153 23.8373 -48.4935 34.6600 1.8033 3.9791 -15.0986 4.8986 3.0048 -9.3103 5.2244 0.3950 2.0147 
-0.0028 0.0348 1.3128 2.0056 1.0750 0.3788 -0.9190 -5.8002 178.8167 2.4274 -13.1556 0.6478 -0.2866 62.0426 -0.0726 -2.3858 28.4528 -0.0000 3.7815 -3.3282 -179.0568 -1.3135 -12.1652 0.8088 5.3728 63.3468 1.4376 2.3847 28.3887 -0.0000 -1.0203 1.6140 0.3430 -0.9450 2.6128 0.0863 2.1585 -7.5652 0.7908 -92.3163 66.6281 178.4398 24.0997 22.7699 -52.7314 1.1190 6.7927 -37.0027 -44.0276 -50.1474 -44.7047 -2.0276 6.5590 9.0336 -5.1889 0.3082 3.5410 -5.2349 0.3426 0.4306 -1.7825 -5.7204 -2.5462 1.5468 5.1611 -1.7885 90.6552 63.3389 -177.7774 -35.1629 30.0951 49.4211 -7.5384 0.7820 61.6876 25.5191 -49.2489 36.0469 1.8033 3.9791 -15.0986 4.8986 3.0048 -9.3103 5.2244 0.3950 2.0147 
-0.0023 0.0324 1.3127 1.9241 0.9223 0.3908 -0.8139 -5.5634 178.8355 2.4383 -13.1499 0.6500 -0.2634 62.1396 -0.1126 -2.3858 28.4528 -0.0000 3.8279 -2.9590 -179.0590 -1.3606 -12.0110 0.7889 5.4018 63.3594 1.4558 2.3847 28.3887 -0.0000 -0.8064 1.5746 0.3344 -0.9489 2.7942 0.0773 2.1849 -7.7358 0.7863 -92.3108 66.6623 178.4527 24.2043 22.9151 -52.6879 1.2654 6.6510 -36.8732 -45.7833 -50.6381 -46.1692 -2.0276 6.5590 9.0336 -5.1889 0.3082 3.5410 -5.2349 0.3426 0.4306 -1.7544 -5.9588 -2.5291 1.5399 5.3617 -1.7263 90.6616 63.4315 -177.7523 -35.2879 30.0892 49.4741 -7.5871 0.6568 61.4857 27.1211 -49.7369 37.3527 1.8033 3.9791 -15.0986 4.8986 3.0048 -9.3103 5.2244 0.3950 2.0147 
-0.0018 0.0300 1.3126 1.8427 0.7699 0.4042 -0.7089 -5.3205 178.8526 2.4491 -13.1347 0.6517 -0.2386 62.2331 -0.1542 -2.3858 28.4528 0.0000 3.8741 -2.5786 -179.0608 -1.4078 -11.8364 0.7679 5.4310 63.3631 1.4735 2.3847 28.3887 -0.0000 -0.5999 1.5353 0.3250 -0.9537 3.0137 0.0643 2.2116 -7.9241 0.7846 -92.3054 66.6965 178.4656 24.2931 23.0552 -52.6390 1.4104 6.5138 -36.7532 -47.3516 -50.9975 -47.4876 -2.0276 6.5590 9.0336 -5.1889 0.3082 3.5410 -5.2349 0.3426 0.4306 -1.7263 -6.1970 -2.5117 1.5331 5.5623 -1.6641 90.6680 63.5240 -177.7272 -35.3987 30.0811 49.5302 -7.6353 0.5357 61.2893 28.5630 -50.0785 38.5316 1.8033 3.9791 -15.0986 4.8986 3.0048 -9.3103 5.2244 0.3950 2.0147 
-0.0013 0.0274 1.3125 1.7338 0.6569 0.4063 -0.5771 -5.1009 178.8843 2.4876 -13.0922 0.6584 -0.2374 62.2880 -0.2009 -2.3858 28.4528 0.0000 3.9978 -2.2487 -179.0504 -1.4741 -11.7017 0.7458 5.5226 63.4158 1.4415 2.3847 28.3887 -0.0000 -0.3556 1.4853 0.3200 -0.9360 3.1981 0.0564 2.2547 -8.1223 0.7922 -92.3145 66.7537 178.4343 24.4060 23.1922 -52.5687 1.5841 6.3630 -36.6189 -48.8861 -51.2619 -48.7868 -2.0276 6.5590 9.0336 -5.1889 0.3082 3.5410 -5.2349 0.3426 0.4306 -1.6989 -6.4292 -2.5378 1.5265 5.7420 -1.5662 90.6617 63.5791 -177.7381 -35.5052 30.0148 49.5722 -7.7384 0.3239 61.0927 29.9035 -50.4088 39.6902 1.8033 3.9791 -15.0986 4.8986 3.0048 -9.3103 5.2244 0.3950 2.0147 
-0.0008 0.0252 1.3124 1.6303 0.5806 0.4027 -0.4549 -4.9316 178.9164 2.5325 -13.0483 0.6664 -0.2480 62.3168 -0.2410 -2.3858 28.4528 0.0000 4.1365 -1.9980 -179.0373 -1.5380 -11.6050 0.7268 5.6249 63.4786 1.3950 2.3847 28.3887 -0.0000 -0.1366 1.4388 0.3180 -0.9093 3.3429 0.0521 2.2982 -8.2956 0.8031 -92.3285 66.8119 178.3879 24.5084 23.3046 -52.5040 1.7405 6.2331 -36.5020 -50.0307 -51.3836 -49.7598 -2.0276 6.5590 9.0336 -5.1889 0.3082 3.5410 -5.2349 0.3426 0.4306 -1.6767 -6.6201 -2.5794 1.5212 5.8825 -1.4682 90.6507 63.6079 -177.7637 -35.5937 29.9337 49.6021 -7.8491 0.1084 60.9311 30.8757 -50.6134 40.5643 1.8033 3.9791 -15.0986 4.8986 3.0048 -9.3103 5.2244 0.3950 2.0147 
-0.0003 0.0231 1.3122 1.5274 0.5101 0.3968 -0.3345 -4.7748 178.9489 2.5563 -13.0103 0.6698 -0.2362 62.3439 -0.2831 -2.3858 28.4528 0.0000 4.2638 -1.7641 -179.0232 -1.5680 -11.5165 0.7153 5.6900 63.5507 1.3536 2.3847 28.3887 -0.0000 0.0707 1.3953 0.3149 -0.8855 3.4835 0.0571 2.3390 -8.4603 0.8053 -92.3375 66.8700 178.3563 24.6032 23.4095 -52.4580 1.8917 6.1083 -36.3882 -50.9580 -51.4147 -50.5466 -2.0276 6.5590 9.0336 -5.1889 0.3082 3.5410 -5.2349 0.3426 0.4306 -1.6496 -6.8017 -2.6051 1.5140 6.0163 -1.3818 90.6439 63.6406 -177.7779 -35.6796 29.8736 49.6318 -7.9470 -0.0830 60.7751 31.6748 -50.6912 41.2677 1.8033 3.9791 -15.0986 4.8986 3.0048 -9.3103 5.2244 0.3950 2.0147 
0.0001 0.0209 1.3121 1.4222 0.4512 0.3847 -0.2138 -4.6384 178.9856 2.5295 -12.9816 0.6623 -0.1674 62.3683 -0.3345 -2.3858 28.4528 0.0000 4.3682 -1.5645 -179.0040 -1.5170 -11.4580 0.7219 5.6734 63.6593 1.3162 2.3847 28.3887 -0.0000 0.2629 1.3575 0.3097 -0.8712 3.5949 0.0850 2.3750 -8.5988 0.7856 -92.3345 66.9299 178.3594 24.6924 23.5015 -52.4499 2.0391 5.9862 -36.2729 -51.6882 -51.3725 -51.1592 -2.0276 6.5590 9.0336 -5.1889 0.3082 3.5410 -5.2349 0.3426 0.4306 -1.6093 -6.9670 -2.5933 1.5024 6.1382 -1.3207 90.6473 63.6838 -177.7650 -35.7613 29.8611 49.6582 -8.0185 -0.2291 60.6221 32.3314 -50.6362 41.7901 1.8033 3.9791 -15.0986 4.8986 3.0048 -9.3103 5.2244 0.3950 2.0147 
0.0005 0.0187 1.3119 1.3143 0.3908 0.3722 -0.0172 -4.5034 179.0307 2.5748 -12.9601 0.6551 -0.0927 62.3973 -0.3921 -2.3858 28.4528 0.0000 4.4754 -1.3566 -178.9833 -1.4650 -11.3823 0.7275 5.6546 63.7585 1.2799 2.3847 28.3887 -0.0000 0.4837 1.3187 0.3043 -0.8559 3.7008 0.1069 2.4122 -8.7368 0.7686 -92.3314 66.9913 178.3626 24.7851 23.5971 -52.4474 2.2101 5.8465 -36.1435 -52.3168 -51.2315 -51.6799 -2.0276 6.5590 9.0336 -5.1889 0.3082 3.5410 -5.2349 0.3426 0.4306 -1.5680 -7.1365 -2.5809 1.4906 6.2633 -1.2579 90.6507 63.7280 -177.7518 -35.8800 29.8540 49.7008 -8.0552 -0.4002 60.4465 32.8641 -50.4349 42.2080 1.8033 3.9791 -15.0986 4.8986 3.0048 -9.3103 5.2244 0.3950 2.0147 
0.0011 0.0166 1.3118 1.2291 0.3365 0.3556 0.0810 -4.3729 179.0791 2.5193 -12.9360 0.6411 0.0243 62.4428 -0.4656 -2.3858 28.4528 0.0000 4.5656 -1.1552 -178.9536 -1.4104 -11.2976 0.7329 5.6530 63.8660 1.2207 2.3847 28.3887 -0.0000 0.7269 1.2882 0.3000 -0.8503 3.7745 0.1119 2.4418 -8.8433 0.7638 -92.3282 67.0476 178.3668 24.8702 23.6654 -52.4503 2.4055 5.6896 -36.0089 -52.7489 -50.9634 -52.0198 -2.0276 6.5590 9.0336 -5.1889 0.3082 3.5410 -5.2349 0.3426 0.4306 -1.5414 -7.2953 -2.5833 1.4830 6.3827 -1.2003 90.6550 63.7665 -177.7370 -35.9436 29.8777 49.7285 -8.1682 -0.5828 60.2468 33.3994 -50.1467 42.6053 1.8033 3.9791 -15.0986 4.8986 3.0048 -9.3103 5.2244 0.3950 2.0147 
0.0018 0.0144 1.3117 1.1470 0.2824 0.3381 0.0995 -4.2413 179.1280 2.3797 -12.9190 0.6256 0.1617 62.4992 -0.5534 -2.3858 28.4528 0.0000 4.6543 -0.9461 -178.9190 -1.3539 -11.1939 0.7372 5.6568 63.9678 1.1525 2.3847 28.3887 -0.0000 1.0080 1.2589 0.2955 -0.8473 3.8463 0.1029 2.4711 -8.9467 0.7668 -92.3249 67.1043 178.3711 24.9508 23.7280 -52.4570 2.6369 5.5077 -35.8600 -52.8822 -50.4996 -52.0878 -2.0276 6.5590 9.0336 -5.1889 0.3082 3.5410 -5.2349 0.3426 0.4306 -1.5174 -7.4560 -2.5892 1.4763 6.5038 -1.1423 90.6595 63.8047 -177.7214 -36.0118 29.9120 49.7660 -8.2937 -0.7988 60.0141 33.7082 -49.6279 42.7916 1.8033 3.9791 -15.0986 4.8986 3.0048 -9.3103 5.2244 0.3950 2.0147 
0.0028 0.0120 1.3115 1.0659 0.2458 0.3180 0.1961 -4.1255 179.1961 2.3104 -12.9048 0.6094 0.3169 62.5520 -0.6577 -2.3858 28.4528 0.0000 4.7440 -0.7397 -178.8724 -1.3325 -11.0809 0.7340 5.7100 64.0558 1.0666 2.3847 28.3887 -0.0000 1.3689 1.2231 0.2915 -0.8483 3.9009 0.0743 2.5042 -9.0566 0.7839 -92.3206 67.1623 178.3782 25.0363 23.7826 -52.4675 2.9422 5.2725 -35.6771 -52.4791 -49.6575 -51.6632 -2.0276 6.5590 9.0336 -5.1889 0.3082 3.5410 -5.2349 0.3426 0.4306 -1.4924 -7.6428 -2.5995 1.4679 6.6446 -1.0842 90.6603 63.8296 -177.7169 -36.0929 29.9457 49.8164 -8.4794 -1.1238 59.7193 33.5588 -48.7258 42.5704 1.8033 3.9791 -15.0986 4.8986 3.0048 -9.3103 5.2244 0.3950 2.0147 
0.0036 0.0100 1.3114 1.0168 0.2474 0.3011 0.2610 -4.0737 179.2553 2.2616 -12.8913 0.5979 0.4319 62.5713 -0.7382 -2.3858 28.4528 0.0000 4.8016 -0.6221 -178.8281 -1.3671 -11.0232 0.7236 5.8146 64.1096 0.9848 2.3847 28.3887 -0.0000 1.6851 1.1915 0.2901 -0.8548 3.9056 0.0446 2.5288 -9.1317 0.8068 -92.3166 67.2004 178.3866 25.0991 23.8052 -52.4754 3.2176 5.0635 -35.5203 -51.6116 -48.6802 -50.8321 -2.0276 6.5590 9.0336 -5.1889 0.3082 3.5410 -5.2349 0.3426 0.4306 -1.4751 -7.7958 -2.6123 1.4604 6.7599 -1.0478 90.6556 63.8263 -177.7296 -36.1589 29.9651 49.8590 -8.6682 -1.4598 59.4666 32.9309 -47.7176 41.9618 1.8033 3.9791 -15.0986 4.8986 3.0048 -9.3103 5.2244 0.3950 2.0147 
0.0047 0.0078 1.3112 0.9631 0.2491 0.2838 0.3325 -4.0270 179.3245 2.2079 -12.8761 0.5852 0.5673 62.5815 -0.8378 -2.3858 28.4528 0.0000 4.8655 -0.5006 -178.7749 -1.4049 -10.9927 0.7144 5.9520 64.1929 0.8697 2.3847 28.3887 -0.0000 2.0587 1.1569 0.2880 -0.8663 3.9069 0.0271 2.5547 -9.2128 0.8248 -92.3122 67.2423 178.3956 25.1522 23.8250 -52.4787 3.5527 4.8128 -35.3291 -50.0264 -47.2212 -49.3550 -2.0276 6.5590 9.0336 -5.1889 0.3082 3.5410 -5.2349 0.3426 0.4306 -1.4562 -7.9639 -2.6262 1.4522 6.8865 -1.0078 90.6503 63.8226 -177.7436 -36.2365 29.9879 49.9156 -8.8979 -1.8608 59.1660 31.6985 -46.1649 40.7983 1.8033 3.9791 -15.0986 4.8986 3.0048 -9.3103 5.2244 0.3950 2.0147 
0.0059 0.0052 1.3111 0.8991 0.1777 0.2844 0.4914 -3.9080 179.3864 2.2834 -12.8674 0.5850 0.6798 62.6669 -0.9720 -2.3858 28.4528 0.0000 4.9274 -0.2250 -178.7351 -1.4557 -10.8545 0.6959 6.0876 64.3077 0.7715 2.3847 28.3887 -0.0000 2.4488 1.1432 0.2815 -0.8752 3.9772 0.0238 2.5778 -9.2900 0.8166 -92.3132 67.2779 178.3891 25.1614 23.8325 -52.4735 3.9084 4.5465 -35.1171 -47.8238 -45.3343 -47.3347 -2.0276 6.5590 9.0336 -5.1889 0.3082 3.5410 -5.2349 0.3426 0.4306 -1.4254 -8.0704 -2.6365 1.4391 6.9520 -0.9755 90.6517 63.8018 -177.7420 -36.2840 30.0019 49.9528 -9.0935 -2.2029 58.8611 29.9932 -44.0151 39.1232 1.8033 3.9791 -15.0986 4.8986 3.0048 -9.3103 5.2244 0.3950 2.0147 
0.0067 0.0030 1.3109 0.8426 0.1076 0.2848 0.5214 -3.7955 179.4222 2.2471 -12.8541 0.5860 0.7550 62.7432 -1.0685 -2.3858 28.4528 0.0000 4.9799 0.0267 -178.7096 -1.5010 -10.7245 0.6792 6.1871 64.4088 0.7090 2.3847 28.3887 -0.0000 2.7352 1.1337 0.2763 -0.8762 4.0706 0.0382 2.5961 -9.3684 0.7997 -92.3147 67.3082 178.3819 25.1668 23.8381 -52.4727 4.1709 4.3510 -34.9541 -45.9544 -43.7283 -45.6395 -2.0276 6.5590 9.0336 -5.1889 0.3082 3.5410 -5.2349 0.3426 0.4306 -1.3974 -8.1559 -2.6450 1.4272 7.0018 -0.9483 90.6537 63.7819 -177.7389 -36.3155 30.0122 49.9707 -9.2308 -2.4394 58.6445 28.5374 -42.1723 37.7049 1.8033 3.9791 -15.0986 4.8986 3.0048 -9.3103 5.2244 0.3950 2.0147 
0.0072 0.0009 1.3108 0.7961 0.0704 0.2879 0.5581 -3.7304 179.4436 2.2161 -12.8576 0.5841 0.8146 62.7875 -1.1281 -2.3858 28.4528 0.0000 5.0251 0.2210 -178.6969 -1.5058 -10.6215 0.6719 6.2204 64.4649 0.6762 2.3847 28.3887 -0.0000 2.9666 1.1200 0.2739 -0.8730 4.1293 0.0380 2.6121 -9.4347 0.7979 -92.3181 67.3352 178.3688 25.1822 23.8441 -52.4614 4.3796 4.1944 -34.8206 -44.3478 -42.3104 -44.1956 -2.0276 6.5590 9.0336 -5.1889 0.3082 3.5410 -5.2349 0.3426 0.4306 -1.3845 -8.2241 -2.6905 1.4222 7.0415 -0.9030 90.6577 63.7651 -177.7304 -36.3436 30.0278 49.9696 -9.3562 -2.6511 58.4724 27.2698 -40.5841 36.5158 1.8033 3.9791 -15.0986 4.8986 3.0048 -9.3103 5.2244 0.3950 2.0147 
0.0076 -0.0010 1.3106 0.7571 0.0587 0.2930 0.6010 -3.7012 179.4531 2.1890 -12.8750 0.5799 0.8609 62.8087 -1.1569 -2.3858 28.4528 -0.0000 5.1164 0.3734 -178.6956 -1.4269 -10.5374 0.6717 6.1978 64.4846 0.6705 2.3847 28.3887 -0.0000 3.1505 1.1029 0.2738 -0.8660 4.1601 0.0252 2.6264 -9.4919 0.8084 -92.3232 67.3600 178.3512 25.2088 23.8514 -52.4417 4.5399 4.0719 -34.7135 -43.0442 -41.1245 -43.0324 -2.0276 6.5590 9.0336 -5.1889 0.3082 3.5410 -5.2349 0.3426 0.4306 -1.3836 -8.2795 -2.7662 1.4225 7.0735 -0.8428 90.6632 63.7504 -177.7174 -36.3680 30.0475 49.9509 -9.4685 -2.8378 58.3397 26.2274 -39.2901 35.5747 1.8033 3.9791 -15.0986 4.8986 3.0048 -9.3103 5.2244 0.3950 2.0147 
0.0076 -0.0025 1.3033 0.7295 -0.0711 0.2314 0.6126 -6.1377 179.4948 2.2303 -18.2074 0.8275 1.2380 65.5627 -1.5518 -2.3858 28.4528 -0.0000 5.1574 -2.3697 -178.9138 -1.3522 -16.6812 1.0905 7.4815 67.6687 -0.7621 2.3847 28.3887 -0.0000 3.2477 1.2639 0.3171 -0.8674 3.8309 0.1355 2.6308 -8.9588 0.7277 -92.3327 67.3276 178.0633 25.6167 24.0964 -52.8572 4.3944 3.7734 -33.0106 -42.2499 -40.2601 -42.3847 -2.0276 6.5590 9.0336 -5.1889 0.3082 3.5410 -5.2349 0.3426 0.4306 -1.3830 -8.3330 -2.8398 1.4115 7.2618 -0.7800 90.6742 63.6777 -177.4232 -36.5828 30.3257 50.0045 -9.4726 -2.9166 57.1098 25.6327 -38.4017 35.1391 1.8033 3.9791 -15.0986 4.8986 3.0048 -9.3103 5.2244 0.3950 2.0147 
